Practice Number,Practice Name,Dispensing,Physical Address,City or Town,Province,Telephone Number,Longitude,Latitude,Map
1468138,HERSELMAN E F & STANDER J J,Yes,"8 Riebeeck Street, Kareedouw",Kareedouw,Eastern Cape,042 2880601,24°17′41.105″E,33°57′8.772″S,View Map
1478982,MXENGE,No,"104 Sobhuza Street, Motherwell",Motherwell,Eastern Cape,041 4691124,25°36′32.458″E,33°48′5.578″S,View Map
1479407,MOODALEY,Yes,"Malabar Shopping Complex, 48 Mountview Drive, Malabar",Gqeberha,Eastern Cape,041 4571127,25°32′2.724″E,33°55′29.136″S,View Map
1491717,MOOLMAN A J & GREEFF A P INC,Yes,"184 Caledon Street, Kariega",Kariega,Eastern Cape,041 9921414,25°23′38.648″E,33°45′45.846″S,View Map
1493833,STRYDOM,Yes,"Capespan Building, R62 Road, Louterwater",Louterwater,Eastern Cape,042 2721225,23°39′50.004″E,33°48′4.092″S,View Map
1497952,MABASO,Yes,1757 Main Road,Addo,Eastern Cape,078 7941511,29°45′56.88″E,28°33′31.32″S,View Map
1504258,BIYANA,Yes,"328 Njoli Street, Zwide Ext 3",Ibhayi,Eastern Cape,041 4644098,25°34′0″E,33°52′18.127″S,View Map
1507591,VAN DEN BERG A R & PARTNERS,No,"46 John Street, Kariega",Kariega,Eastern Cape,041 9921611,25°23′44.93″E,33°45′55.62″S,View Map
1508687,GERBER,No,100a Park Drive,Port Elizabeth,Eastern Cape,041 5853686,25°37′33.837″E,33°57′43.016″S,View Map
1509136,LOCHNER J O & PARTNERS,No,"New Medical Centre, 1 Barrack Street, Fort Beaufort",Fort Beaufort,Eastern Cape,046 6451177,26°38′0.279″E,32°46′47.49″S,View Map
1509160,BARBOUR,No,"Main Street, Hankey",Hankey,Eastern Cape,071 6569781,24°52′54.814″E,33°50′2.875″S,View Map
1511394,SONAVANE,Yes,"184 Booysen Park Drive, Booysens Park",Bethelsdorp,Eastern Cape,041 4831242,25°28′17.806″E,33°51′20.569″S,View Map
1513869,RAMJAN,Yes,"Erf 50, Main Street, Keiskammahoek",Keiskammahoek,Eastern Cape,063 0767585,27°9′4.089″E,32°41′3.538″S,View Map
1515179,MAFUYA,Yes,"Butterworth Medical Centre, 30 Merriman Street, Butterworth",Butterworth,Eastern Cape,047 4914455,28°8′45.882″E,32°19′47.756″S,View Map
1515616,VORSTER,Yes,"9 Mill Street, Nqanqarhu",Nqanqarhu,Eastern Cape,045 9321002,28°20′53.776″E,31°3′53.642″S,View Map
1518968,SCHARNECK,Yes,"2 William Slammert Drive, Bethelsdorp",Ibhayi,Eastern Cape,041 4815271,25°30′11.438″E,33°52′32.633″S,View Map
1530410,MATROSHE,Yes,"1 West Street, Kentani",Kentani,Eastern Cape,067 8261312,28°18′59.363″E,32°30′25.732″S,View Map
1532901,VAN STAADEN,Yes,"40 Scholtz Street, Bloemendal",Bethelsdorp,Eastern Cape,041 4816163,25°30′13.846″E,33°52′19.722″S,View Map
1536117,ANJUM,Yes,"Old Taba Office, 2 Garden Street, Alice",Alice,Eastern Cape,040 6531314,26°50′8.741″E,32°47′11.714″S,View Map
1537725,COETZEE,No,"Schuin Villa Medical Centre, 74 5th Avenue, Newton Park",Gqeberha,Eastern Cape,041 3651313,25°33′42.714″E,33°56′55.726″S,View Map
1539205,SWART,Yes,"Algoa Park Medical Centre, 125 Dyke Road, Algoapark",Gqeberha,Eastern Cape,041 4564601,25°33′42.188″E,33°54′10.632″S,View Map
1542737,MANTSHIYO,Yes,"10249 Site And Service, Maqanda Street",Kwazakhele,Eastern Cape,082 5475642,25°35′41.28″E,33°53′18.708″S,View Map
1545213,RICHARDSON,Yes,"37 Hemming Street, Cathcart",Cathcart,Eastern Cape,045 8431052,27°8′45.226″E,32°17′50.623″S,View Map
1547984,ARENDS,Yes,"5 Starling Drive, Gamble",Kariega,Eastern Cape,041 9881120,25°22′11.391″E,33°44′34.965″S,View Map
1548336,SCHOEMAN,Yes,"Dr Adi-mari Schoeman Inc, Fred Ferreira Rd",Patensie,Eastern Cape,042 0422830262,24°54′36.72″E,34°3′2.52″S,View Map
1549243,VELLEMAN,No,"Schuin Villa Medical Centre, 74 5th Avenue, Newton Park",Gqeberha,Eastern Cape,041 3651313,25°33′42.695″E,33°56′55.742″S,View Map
1556142,SAAYMAN,No,"6 End Street, Somerset East",Somerset East,Eastern Cape,042 0110067,25°35′13.418″E,32°43′37.227″S,View Map
1560689,PRETORIUS,Yes,"10 Alfred Street, Stutterheim",Stutterheim,Eastern Cape,043 6831122,27°25′46.366″E,32°34′6.599″S,View Map
1572849,CHRISTIANE,Yes,"41 Grey Street, Queenstown",Queenstown,Eastern Cape,045 8381671,26°52′43.083″E,31°53′44.289″S,View Map
1573713,NCOYO,Yes,"N U 2, 151 Khama Road, Motherwell",Motherwell,Eastern Cape,041 4695474,25°36′19.612″E,33°48′4.686″S,View Map
1577905,NAIKER,Yes,"29a Balfour Road, Vincent",East London,Eastern Cape,043 7211055,27°54′6.23″E,32°58′52.072″S,View Map
1582054,MULLER,Yes,"22 Voortrekker Street, Aberdeen",Aberdeen,Eastern Cape,049 8460618,24°3′39.792″E,32°28′36.211″S,View Map
1584774,NDAMASE,Yes,"7 Joubert Street, Queenstown",Queenstown,Eastern Cape,045 8382457,26°52′3.161″E,31°53′44.911″S,View Map
1586432,SLABBERT,Yes,"31 Victoria Street, Cradock",Cradock,Eastern Cape,048 8810068,25°37′13.852″E,32°9′57.905″S,View Map
1586629,TEBELELE,Yes,"4 Mthunyelo Street, Kwadwesi",Ibhayi,Eastern Cape,041 4854260,25°30′26.762″E,33°50′45.836″S,View Map
44385,DE SOUZA,Yes,"56 Victoria Street, Norwood",Mthatha,Eastern Cape,047 5310707,28°47′3.056″E,31°35′29.795″S,View Map
44571,FAGBUYI,Yes,135 Durban Street,Uitenhage,Eastern Cape,041 0414509477,25°23′47.724″E,33°46′12.216″S,View Map
77739,NGQOBA,Yes,"Old Prime Cure Clinic Building, Cnr Khama Street & Hintsa Avenue, Kwanobuhle",Kwa Nobuhle,Eastern Cape,041 9771330,25°23′41.936″E,33°48′14.526″S,View Map
127000,FIKENI,Yes,"Ground Floor Old Mutual, Building 171 Main Street, Mount Frere",Mount Frere,Eastern Cape,039 2550130,28°59′48.297″E,30°53′40.28″S,View Map
128422,"MUTESASIRA, LLOYD & GODLONTON",Yes,"The Colcade, 41 Hill Street, Grahamstown",Grahamstown,Eastern Cape,046 6361732,26°31′36.073″E,33°18′39.182″S,View Map
145440,NKALANE,Yes,"Shop 4 Steady Centre, Thompson Avenue, Bizana",Bizana,Eastern Cape,039 2510171,29°51′19.07″E,30°51′34.104″S,View Map
161683,APPAVOO,Yes,"30 Albany Road, North End",East London,Eastern Cape,043 7222356,25°36′34.564″E,33°57′17.457″S,View Map
167401,NADARAJU,Yes,"N U 2 10390 Stand Street, Mdantsane",Mdantsane,Eastern Cape,043 7600024,,,
171522,DRS CF ERASMUS AND BARNAND,Yes,"15 John Street, Kirkwood",Kirkwood,Eastern Cape,042 2301082,25°26′39.709″E,33°24′2.67″S,View Map
181331,MAHARAJ,Yes,"Shop 5 Amca Centre, Main Street, Lusikisiki",Lusikisiki,Eastern Cape,039 2531315,29°34′24.55″E,31°21′41.711″S,View Map
184233,DRS WR PIETERSE & WF SMITH,Yes,"41 Noord Street, Graaff-reinet",Graaff-Reinet,Eastern Cape,049 8922231,24°31′58.282″E,32°14′54.6″S,View Map
219223,SIBAYA,No,"211 Oxford Street, Southernwood",East London,Eastern Cape,043 7432302,27°54′2.062″E,33°0′18.483″S,View Map
231622,D J BOUWER INCORPORATED,Yes,"11 Durban Road, Korsten",Gqeberha,Eastern Cape,041 4530051,25°35′0″E,33°56′7.805″S,View Map
275115,ODUFU,Yes,"N U 7, 14 Mzwazwa Street, Motherwell",Motherwell,Eastern Cape,041 4625787,25°34′43.414″E,33°48′43.852″S,View Map
295493,NYILENDA,No,14 Devereaux Avenue,Vincent,Eastern Cape,067 6549431,27°43′32.19″E,32°56′45.476″S,View Map
299324,FORMICA,No,"68 Southwell Road, Port Alfred",Port Alfred,Eastern Cape,046 6245191,26°53′4.456″E,33°35′30.257″S,View Map
300284,DE LA HARPE,No,"97 Cape Road, Mount Croix",Gqeberha (Port Elizabeth),Eastern Cape,041 3630407,25°35′53.346″E,33°57′33.029″S,View Map
325341,SWANEPOEL,No,"29 African Street, Grahamstown",Grahamstown,Eastern Cape,087 7016194,26°31′28.532″E,33°18′24.021″S,View Map
355429,YAPI,No,"Shop 86 Nu6 Mdantsane City Mall, Cnr Billie Road & Qumza Highway, East London",East London,Eastern Cape,043 7621299,27°44′24.498″E,32°56′4.704″S,View Map
356115,RAFOLS,Yes,"13 Wellington Street, Qonce",Qonce,Eastern Cape,043 6423819,27°23′8.687″E,32°52′40.026″S,View Map
370495,LALI,No,"Office 4 Gunuza Complex, 85 High Street, Engcobo",Ngcobo,Eastern Cape,047 5483135,28°0′27.22″E,31°40′54.152″S,View Map
387673,NOMBEMBE,No,"29 Sprigg Street, Norwood",Mthatha,Eastern Cape,047 5310505,28°47′29.321″E,31°35′25.53″S,View Map
393673,SIHELE,No,"24 Ebden Street, Queenstown",Queenstown,Eastern Cape,045 8381637,26°52′34.138″E,31°53′45.581″S,View Map
430080,MAMVE,Yes,"250 Richardson Road, Dutywa",Idutywa,Eastern Cape,047 4891071,28°18′22.992″E,32°5′45.311″S,View Map
450847,ADKINS,Yes,"75 Nelson Mandela Drive, Norwood",Mthatha,Eastern Cape,047 5312840,28°46′44.926″E,31°35′34.204″S,View Map
463698,PRINSLOO,No,"Shop 11 My Pond Hotel Complex, 33 Van Der Riet Street, Port Alfred",Port Alfred,Eastern Cape,046 624 5299,26°53′7.88″E,33°35′25.412″S,View Map
468428,LUDICK,No,"Schuin Villa Medical Centre, 74 5th Avenue, Newton Park",Gqeberha,Eastern Cape,041 3651313,25°33′42.706″E,33°56′55.735″S,View Map
493163,FETSHA,No,"Unit 6 Humerail Shopping Centre, Humewood Road, Humerail",Gqeberha,Eastern Cape,041 5865360,25°37′57.395″E,33°58′15.069″S,View Map
542717,NAGTEGAAL J AND ASSOCIATES,No,"26a Woltemade Street, Pellsrus",Jeffreys Bay,Eastern Cape,042 2931166,24°55′6.967″E,34°3′18.486″S,View Map
562459,H A NEETHLING INCORPORATED,Yes,"73 Adderley Street, Cradock",Cradock,Eastern Cape,048 8811670,25°36′59.472″E,32°9′56.412″S,View Map
574929,BOOYSEN,No,"8 - 10 Caroline Street, Graaff-reinet",Graaff-Reinet,Eastern Cape,049 8910474,24°32′7.174″E,32°15′12.461″S,View Map
701815,DRS KILIAN CONRADIE LOOTS AND AS,Yes,"1 8th Avenue, Summerstrand",Gqeberha,Eastern Cape,041 5832121,25°40′2.961″E,33°59′11.999″S,View Map
720402,CINGO,Yes,"Moholo Building, 98 Westgate Street, Port St Johns",Port St Johns,Eastern Cape,047 5640043,29°32′36.907″E,31°37′14.569″S,View Map
741191,MALANTI,Yes,"71 Grey Street, Dordrecht",Dordrecht,Eastern Cape,045 9431114,27°2′52.87″E,31°22′26.351″S,View Map
745774,OKAFOR,Yes,7 Popo Molefi Street,Walmer,Eastern Cape,041 5812516,25°34′57.147″E,33°52′30.168″S,View Map
748781,OLUBIYI,No,"Shop 7-8, Cnr Alexander & Saffery Street, Humansdorp",Humansdorp,Eastern Cape,042 9400640,24°46′23.28″E,34°1′55.142″S,View Map
774030,FRAY,Yes,"127 Windyridge Road, Parkside",East London,Eastern Cape,043 7220144,,,
786705,KANKOLONGO,Yes,"12 Meintjies Street, Middelburg",Middelburg,Eastern Cape,049 8421015,25°0′18.119″E,31°29′54.342″S,View Map
812234,FREERCKS,No,"5 Rhapsody Centre, 140 St Francis Drive, St Francis Bay",St Francis Bay,Eastern Cape,073 3413778,24°49′40.95″E,34°9′43.311″S,View Map
909521,TSHABALALA,No,"26 Sprigg Street, Norwood",Mthatha,Eastern Cape,047 4950778,28°47′28.46″E,31°35′23.574″S,View Map
920851,ADENIYI,Yes,"31 King Street, Southernwood",East London,Eastern Cape,043 7220256,27°54′0″E,33°0′1.131″S,View Map
922501,DR MANDY LYONS INC,No,"Shop 3, Walmer Downs Family Centre, William Moffet",Gqeberha,Eastern Cape,041 3734491,25°36′16.729″E,33°58′5.363″S,View Map
940127,DR SL VAN HEERDEN INC,Yes,"36 Lloyd Street, Elliot",Elliot,Eastern Cape,045 9311911,27°50′54.177″E,31°20′7.289″S,View Map
970190,DR H BURGER AND DR A VAN DER WAL,No,"9 Hillcrest Close, Bluewater Bay",Gqeberha,Eastern Cape,087 0877234,25°37′55.721″E,33°50′57.556″S,View Map
1024590,BAVUMA,Yes,"Shop No 7, Next To Boxer Store, Qumbu Plaza",Qumbu,Eastern Cape,087 8221322,,,
1036122,RAMJEE,Yes,"63 Cambridge Road, Qonce",Qonce,Eastern Cape,043 6422093,27°23′36.446″E,32°53′3.949″S,View Map
1065076,CLAASSEN,No,"Schuin Villa Medical Centre, 74 5th Avenue, Newton Park",Gqeberha,Eastern Cape,041 3651313,25°33′42.705″E,33°56′55.702″S,View Map
1074652,BADLI,Yes,"35 Beaufort Street, Grahamstown",Grahamstown,Eastern Cape,046 0010399,26°31′59.1″E,33°18′39.201″S,View Map
1408976,DALGLEISH,Yes,"225 Incarha Drive, Morgans Bay",Morgan Bay,Eastern Cape,082 6598491,28°20′25.725″E,32°42′14.492″S,View Map
1409417,GUNASE,Yes,"Spar Buffalo Flats, 36 Atlantic Circle, Buffalo Flats",East London,Eastern Cape,043 7338333,27°51′9.949″E,33°1′1.703″S,View Map
1415174,BERRIOS,Yes,"1 Songwiqi Street, Kwanobuhle",Kwa Nobuhle,Eastern Cape,041 9773223,25°23′31.579″E,33°48′56.673″S,View Map
1424807,MEYER,Yes,"34 Da Gama Road, Jeffreys Bay",Jeffreys Bay,Eastern Cape,042 2933339,24°55′21.443″E,34°3′2.088″S,View Map
1426214,MARAIS,No,"14 Somerset Street, Graaff-reinet",Graaff-Reinet,Eastern Cape,049 8922171,24°32′15.045″E,32°15′0.699″S,View Map
1431846,LOYSON,Yes,"635 Govan Mbeki Avenue, North End",Gqeberha,Eastern Cape,041 4841516,25°36′21.36″E,33°56′33.891″S,View Map
1432842,DE JONGH EN COETZEE INGELYF,No,"79 Main Street, Despatch",Despatch,Eastern Cape,041 9335100,25°28′27.994″E,33°48′4.175″S,View Map
1437402,VAN STADEN,No,"56 Uitenhage Road, Sydenham",Gqeberha,Eastern Cape,041 4843333,25°32′22.088″E,33°51′21.726″S,View Map
1440438,GOVENDER,Yes,"Suite 8 Ground Floor Life, Mercantile Hospital 249 Kempston, Korsten",Port Elizabeth,Eastern Cape,041 4533584,25°34′57.851″E,33°56′9.42″S,View Map
1443925,MANGA,Yes,"Sanctor Medical Centre, 48 Marock Road, Sanctor",Bethelsdorp,Eastern Cape,041 4812161,25°30′40.442″E,33°52′52.948″S,View Map
1448838,VAN GREUNEN,Yes,"3 P J Retief Street, Joubertina",Joubertina,Eastern Cape,042 2731313,23°51′36.725″E,33°49′36.11″S,View Map
1458191,ESSA,Yes,"1 Main Street, Tabankulu",Tabankulu,Eastern Cape,039 2580062,29°18′5.566″E,30°57′43.621″S,View Map
1458531,PARUK,Yes,"Unit 86 Cleary Park Centre, Cleary Park",Bethelsdorp,Eastern Cape,041 4816076,25°31′42.077″E,33°53′39.39″S,View Map
1461257,MAHARAJ,Yes,"70 Liebenberg Road, Jarman",Gqeberha,Eastern Cape,041 4523726,25°33′26.055″E,33°54′46.35″S,View Map
1462490,LIMBADA,Yes,"14a Wellington Street, Qonce",Qonce,Eastern Cape,043 6421226,27°23′7.495″E,32°52′40.284″S,View Map
1462598,BAWASA,Yes,Po Box 16411,Gelvandale,Eastern Cape,041 4814027,,,
1501097,ANDERSON,Yes,"2 Van Riebeeck Street, Senekal",Senekal,Free State,058 4813909,27°37′23.85″E,28°19′23.62″S,View Map
1502506,KAJEE,Yes,"Mba Building, 44 Bok Street, Welkom",Welkom,Free State,057 3574152,26°44′20.351″E,27°59′1.684″S,View Map
1502743,BOUWER,No,"Shop 5 Heuwelsig Centre, Leo Van Der Heever Crescent, Heuwelsig",Bloemfontein,Free State,051 4101666,26°11′45.199″E,29°4′29.784″S,View Map
1514156,KRITZINGER J D W & PARTNERS,No,"Bethlehem Medical Centre, 4 De Leeuw Street, Bethlehem",Bethlehem,Free State,058 3036408,28°19′9.447″E,28°13′57.604″S,View Map
1518895,VAN ASWEGEN,No,"7 Medene Building, 32 President Steyn Avenue, Westdene",Bloemfontein,Free State,051 4470177,26°12′38.313″E,29°6′18.309″S,View Map
1523856,DR N J NEL INCORPORATED,Yes,"30 Buitekant Street, Kroonstad",Kroonstad,Free State,056 2132708,27°14′11.047″E,27°39′47.127″S,View Map
1533460,DU PLESSIS,Yes,"50 Steyn Street, Hennenman",Hennenman,Free State,057 5732047,27°1′32.967″E,27°58′31.346″S,View Map
1535013,MOKOLOKO,Yes,"35 Blue Street, Botshabelo",Botshabelo,Free State,051 5344192,26°42′13.371″E,29°11′57.506″S,View Map
1535056,OMAR,Yes,"43 Theron Street, Theunissen",Theunissen,Free State,057 7331991,26°42′48.35″E,28°24′1.492″S,View Map
1541188,BOTHA,Yes,"1 Schultz Street, Philippolis",Philippolis,Free State,051 7730484,25°16′28.634″E,30°15′50.837″S,View Map
1544381,NIEUWOUDT,Yes,"Room G01 Mediclinic Welkom, Meulen Street, Welkom",Welkom,Free State,057 3524029,26°43′50.953″E,27°59′20.679″S,View Map
1550314,DU TOIT & PARTNERS,No,"Promed Centre, 73 Fontein Street, Ficksburg",Ficksburg,Free State,051 9332259,27°52′50.856″E,28°52′27.153″S,View Map
1551345,THABA NCHU MEDICAL SERVICES,Yes,"6 James Scott Street, Thaba Nchu",Thaba Nchu,Free State,051 8751041,26°50′41.358″E,29°12′57.172″S,View Map
1553356,LE ROUX,Yes,42 Robertson Avenue,Koffiefontein,Free State,053 7422164,22°57′41.724″E,27°12′10.008″S,View Map
1556568,LOMBAARD,Yes,"Ground Floor, 28 Oos Burger Street, Bloemfontein",Bloemfontein,Free State,051 4474503,26°13′24.276″E,29°7′5.88″S,View Map
1562215,ELS,No,"37 President Swart Street, Bultfontein",Bultfontein,Free State,051 8531121,26°9′14.321″E,28°16′53.633″S,View Map
1567918,KLEINGELD,Yes,"19 Van Riebeeck Street, Trompsburg",Trompsburg,Free State,051 7130045,25°46′46.065″E,30°2′3.921″S,View Map
1568035,DE WILDE,Yes,"Room 7 & 8 Reahola Shopping, Centre, Botshabelo",Botshabelo,Free State,051 5342029,26°42′29.049″E,29°13′57.583″S,View Map
1571818,HLALELE,Yes,"1501 Moshoeshoe Street, Rocklands",Mangaung,Free State,051 4352459,26°14′3.232″E,29°10′32.574″S,View Map
1573616,VAN HEERDEN,No,"19 Nienaber Street, Langenhovenpark",Bloemfontein,Free State, ,26°9′27.412″E,29°5′34.311″S,View Map
1575449,NKWALI,Yes,"92 Van Tonder Street, Sterkspruit",Sterkspruit,Free State,051 6110794,24°39′40.586″E,34°10′25.853″S,View Map
1579932,KRIEL E & THERON P H H,No,"2 Banting Street, Hospitaalpark",Bloemfontein,Free State,051 4476690,26°11′31.915″E,29°8′1.919″S,View Map
1582720,MULAUDZI,Yes,"265 Thelingoane Weg, Thabong",Welkom,Free State,057 3964989,26°47′3.75″E,27°58′17.029″S,View Map
30546,KELLER,Yes,"79 Waterkant Street, Ou Dorp",Odendaalsrus,Free State,057 3982677,26°41′6.684″E,27°52′31.152″S,View Map
110574,ZONDO,Yes,"735 Matlakeng Business Centre, Zastron",Zastron,Free State, ,27°6′0.005″E,30°17′49.002″S,View Map
147257,SPIES L P & VAN STRYP D J G,No,"47 Els Street, Heilbron",Heilbron,Free State,058 8521260,27°58′7.178″E,27°17′7.838″S,View Map
160652,PIENAAR,Yes,"39 Bredenkamp Street, Wesselsbron",Wesselsbron,Free State,057 8992716,26°21′52.11″E,27°51′16.27″S,View Map
165492,DE KLERK,Yes,"Naledi Healthcare Building, 345 Stateway, Doorn",Welkom,Free State,057 3574488,26°44′37.299″E,27°58′55.136″S,View Map
222968,MARITZ,No,"Medical Suite 6 1st Floor, Middestad Sentrum West Burger, Bloemfontein",Bloemfontein,Free State,051 4305100,26°13′17.138″E,29°6′59.231″S,View Map
234648,SIECKER & PARTNER INC,Yes,"29 De Leeuw Street, Bethlehem",Bethlehem,Free State,058 3036780,28°19′18.769″E,28°13′46.134″S,View Map
239151,KARIM,Yes,"59 Loop Street, Parys",Parys,Free State,056 8177720,27°27′26.617″E,26°54′13.574″S,View Map
242276,BEZUIDENHOUT,No,"35 Kerk Street, Reitz",Reitz,Free State,058 8631074,28°25′50.019″E,27°48′4.875″S,View Map
249068,HEYNEKE,Yes,"52 Bastion Street, Bloemfontein",Bloemfontein,Free State,051 4472552,26°13′24.277″E,29°7′19.611″S,View Map
256617,AMLA,Yes,"Shop 4 Maruptsane Complex, Mohale Street, Phuthaditjhaba",Phuthaditjhaba,Free State,058 7139064,28°49′57.555″E,28°31′19.667″S,View Map
283509,PISO & PARTNERS,No,28 Gardens,Virginia,Free State,057 3881771,26°46′30.864″E,27°58′14.304″S,View Map
287814,RAMANTSI,Yes,"Suite 220 Central Park Centre, Fichardt Street, Bloemfontein",Bloemfontein,Free State,051 4483198,26°13′28.495″E,29°6′59.414″S,View Map
325163,NEL,Yes,"43 Kuhn Street, Vrede",Vrede,Free State,058 9132611,29°9′50.4″E,27°25′42.803″S,View Map
367672,VAN WYK,Yes,"20a Southey Street, Harrismith",Harrismith,Free State,058 6221691,29°7′27.72″E,28°16′15.541″S,View Map
378534,MOKONOTELA,Yes,23 Joubert Street,Ladybrand,Free State,051 9240036,27°27′26.64″E,29°11′40.2″S,View Map
396125,HATTINGH,Yes,"Free State Medical Ctr 2nd Floor, 29 Poole Street Room 201, Bradwag",Bloemfontein,Free State,051 4440614,26°12′24.588″E,29°6′0.36″S,View Map
486493,KOTZE C B AND KOTZE Y,Yes,"37 De Leeuw Street, Bethlehem",Bethlehem,Free State,058 3031189,28°19′23.921″E,28°13′44.338″S,View Map
497339,MOTSOENENG,Yes,"House 383, Nyakallong",Allanridge,Free State,076 6512423,26°38′57.982″E,27°47′10.717″S,View Map
552496,LESIA,Yes,"Standard Bank Building, Cnr Joubert & Piet Retief Street, Ladybrand",Ladybrand,Free State,051 0114016,27°27′30.903″E,29°11′47.549″S,View Map
565954,VAHED,Yes,"79 Odendaal Street, Ou Dorp",Odendaalsrus,Free State,057 3542611,26°41′8.393″E,27°52′34.764″S,View Map
574686,JORDAAN,No,"Bestmed Medical Centre, 325 Stateway, Welkom",Welkom,Free State,083 7531955,26°44′23.542″E,27°58′50.159″S,View Map
604852,MAPHAKISA,Yes,"8277 Nkoane Road, Thabong",Welkom,Free State,057 3971009,26°47′21.407″E,27°57′54.226″S,View Map
624322,DRS JANSEN G AND ASSOCIATES,Yes,"Bvg University Of The Free, State 205 Nelson Mandela Drive, Bloemfontein",Bloemfontein,Free State,051 4012603,26°11′5.173″E,29°6′41.459″S,View Map
625922,COERTZE,Yes,"111 President Hoffman Street, Smithfield",Smithfield,Free State,051 6831108,26°31′58.639″E,30°12′48.961″S,View Map
641839,VERMAAK,No,"36 Craib Avenue, Riebeeckstad",Welkom,Free State,057 3881011,26°48′11.707″E,27°56′11.73″S,View Map
726567,NOORDMAN,Yes,"6 Kerk Street, Edenburg",Edenburg,Free State,051 7431004,25°56′6.363″E,29°44′8.557″S,View Map
742457,KROUTZ,No,"61 Durban Street, Aliwal North",Aliwal North,Free State,051 0040321,26°42′43.423″E,30°41′37.258″S,View Map
788600,OOSTHUIZEN,No,"Preezmed Sentrum, 2 Van Riebeeck Street, Senekal",Senekal,Free State,051 4921170,27°37′23.526″E,28°19′23.46″S,View Map
991236,LANGENHOVEN,No,"49a Kerk Street, Vrede",Vrede,Free State,058 0503070,29°9′46.375″E,27°25′37.397″S,View Map
1401181,SCHULZ,Yes,"8 Van Der Watt Street, Dewetsdorp",Dewetsdorp,Free State,051 5410487,26°39′51.827″E,29°34′55.35″S,View Map
1403583,SHAHIM,No,"20 Engelbrecht Street, Viljoenskroon",Viljoenskroon,Free State,056 3432001,26°56′39.807″E,27°12′34.322″S,View Map
1403729,LE GRANGE,No,"36 Union Street, Marquard",Marquard,Free State,051 9910182,27°25′46.856″E,28°39′52.887″S,View Map
1405454,ENSLIN,Yes,"14 Kerk Street, Reddersburg",Reddersburg,Free State,071 6137489,26°10′9.989″E,29°39′9.076″S,View Map
1410369,VAN RENSBURG,Yes,"44 Bredenkamp Street, Wesselsbron",Wesselsbron,Free State,057 8997899,26°21′54.36″E,27°51′17.64″S,View Map
1415700,MARX L C & ASSOCIATES,No,"Mimosa Mall Cnr Parfitt Avenue &, Kellner Street, Brandwag",Bloemfontein,Free State,051 4445820,26°12′6.626″E,29°6′34.521″S,View Map
1417851,"ESTERHUIZEN S W, KRITZINGER H R",Yes,"67 Cnr J J Hadebe & Nieuw Street, Frankfort",Frankfort,Free State,058 8131004,28°29′36.336″E,27°16′40.39″S,View Map
1419544,MOTLOUNG,Yes,"1124 De Villiers Street, Bohlokong",Bethlehem,Free State,073 8656144,28°19′5.124″E,28°12′48.852″S,View Map
1425358,OP'T HOF,No,"78b Nyala Street, Doorn",Welkom,Free State,057 3573211,26°45′19.332″E,27°59′9.564″S,View Map
1429124,OLIVIER,Yes,"5 De Smidt Street, Barkly East",Barkly East,Free State,045 9710285,27°35′30.693″E,30°58′6.558″S,View Map
1429558,DANGOR,Yes,"2 Exchange Lane, Virginia",Virginia,Free State,057 2124731,26°52′1.767″E,28°6′12.728″S,View Map
1430173,VILJOEN,No,"Room 5 Netcare Kroon Hospital, R76 Noord Road, Kroonstad",Kroonstad,Free State,056 2132226,27°13′49.47″E,27°39′12.004″S,View Map
1437275,MORRISON,Yes,"24 Brand Street, Winburg",Winburg,Free State,051 8810063,27°0′46.376″E,28°31′10.943″S,View Map
1440330,"DRS D M STANDER, F C TERBLANCHE",Yes,"Cnr Kerk & Rhyneveld Street, Colesberg",Colesberg,Free State,051 7530701,25°5′51.39″E,30°43′14.943″S,View Map
1445316,SWART,No,"23 Botha Street, Bothaville",Bothaville,Free State,056 5152034,26°37′2.47″E,27°23′32.311″S,View Map
1447130,MEYER,No,"Lee Marco Centre, 48 Heatherdale Road, Heidedal",Bloemfontein,Free State,051 4324302,26°15′7.74″E,29°8′35.808″S,View Map
1447807,GRONUM,No,"5 Alleen Street, Frankfort",Frankfort,Free State,058 8132777,28°29′59.49″E,27°16′20.264″S,View Map
1450263,VAN WYK,Yes,"8 D J P Scholtz Street, Ventersburg",Ventersburg,Free State,057 6514055,27°8′34.886″E,28°4′54.726″S,View Map
1453106,FERREIRA,Yes,"17 Church Street, Wepener",Wepener,Free State,051 5831355,27°2′18.492″E,29°43′37.848″S,View Map
1460617,VAN JAARSVELD,Yes,"15 Brand Street, Lindley",Lindley,Free State,058 4630121,27°55′26.876″E,27°52′25.968″S,View Map
1460625,BRITS,Yes,"7 De Leeuw Street, Bethlehem",Bethlehem,Free State,058 3031161,28°19′12.03″E,28°13′55.336″S,View Map
1461524,GARMANY,Yes,"40 Du Preez Street, Fouriesburg",Fouriesburg,Free State,058 2230755,28°12′20.88″E,28°37′13.102″S,View Map
1462725,GILLILAND,Yes,"Cnr Zuider & Lange Street, Senekal",Senekal,Free State,058 4812174,27°37′16.248″E,28°19′24.632″S,View Map
1467093,FOUCHE,No,"11 Ella Street, Willows",Bloemfontein,Free State,051 4441565,26°12′28.152″E,29°7′21.504″S,View Map
1473921,SCHOOMBEE,Yes,"50 Main Street, Villiers",Villiers,Free State,058 8210141,28°35′45.621″E,27°1′35.299″S,View Map
1474642,DU PLESSIS,No,"20 Denyssen Street, Viljoenskroon",Viljoenskroon,Free State,056 3432007,26°56′43.398″E,27°12′37.051″S,View Map
1480111,JACOBS,Yes,"12 Loop Street, Brandfort",Brandfort,Free State,051 8212259,26°27′42.919″E,28°42′0.048″S,View Map
1486748,KEMP,Yes,"43 Harvey Road, Bloemfontein",Bloemfontein,Free State,051 4472536,26°13′28.991″E,29°7′19.937″S,View Map
1488503,OOSTHUIZEN,Yes,"B 50, Van Der Walt Street, Burgersdorp",Burgersdorp,Free State,051 6531862,26°19′48.07″E,30°59′39.248″S,View Map
1490273,MAMADI,Yes,"3274 Lethetsa Street, Kroonstad",Kroonstad,Free State,056 2142779,27°11′56.18″E,27°39′6.93″S,View Map
1490419,BURGER,No,"7 Bridger Street, Hoopstad",Hoopstad,Free State,053 4442481,25°54′34.259″E,27°50′0.951″S,View Map
1496565,BONNET,No,"33 Elias Motsoaledi Street, Langenhovenpark",Bloemfontein,Free State,051 4463263,26°9′30.132″E,29°6′6.12″S,View Map
1496700,VAN DER LINGEN,No,"5 Alleen Street, Frankfort",Frankfort,Free State,058 8132777,28°30′0″E,27°16′20.174″S,View Map
1499831,DELPORT F J & PARTNER,Yes,"23 Kerk Street, Hennenman",Hennenman,Free State,057 5731461,27°1′14.593″E,27°58′24.73″S,View Map
1568329,VAN NIEKERK,Yes,"1319 Walter Avenue, Waverley",Pretoria,Gauteng,012 3323226,28°15′22.96″E,25°42′0″S,View Map
1568590,PILLAY,Yes,"11 Halfway House Centre Cnr, North & Old Pretoria Main Road",Halfway House,Gauteng,011 3150660,28°7′41.786″E,25°59′48.836″S,View Map
1569589,TAMBWE,Yes,"Shop 2 E & T Building Cnr, Francis Baard & Sisulu Street, Pretoria",Pretoria,Gauteng,012 3221608,28°11′43.652″E,25°44′55.446″S,View Map
1570595,STOFFEL,Yes,"4198 Zakhe Road, Vosloorus Ext 2",Vosloorus,Gauteng,011 8638908,28°12′29.16″E,26°21′40.752″S,View Map
1570781,KANA,Yes,"105 Algernon Road, Norwood",Johannesburg,Gauteng,087 8091638,28°4′33.218″E,26°9′31.116″S,View Map
1571656,TABANE,Yes,"Stand 865b Mametlhake Medical, Centre Main Road, Hammanskraal",Hammanskraal,Gauteng,012 7212627,28°17′23.352″E,25°24′23.76″S,View Map
1572083,MOOKADAM,Yes,"Shop 13 H S Ebrahim Centre, 140 Bengal Street, Laudium",Centurion,Gauteng,012 3740539,28°6′29.606″E,25°46′54.391″S,View Map
1574051,LUYT,Yes,"761 Stanza Bopape Street, Arcadia",Pretoria,Gauteng,012 3431995,28°13′4.598″E,25°44′41.359″S,View Map
1575481,MAHLASE,Yes,"11137 Turton Street, Daveyton",Benoni,Gauteng,011 4264034,28°25′32.808″E,26°8′43.548″S,View Map
1576615,LAHER,Yes,"64 Griffith Road, Newclare",Randburg,Gauteng,011 4778002,27°57′56.604″E,26°10′57.469″S,View Map
1576984,NKOSI,Yes,"615 Hospital Road, Skosana Section",Katlehong,Gauteng,010 2320003,28°8′52.13″E,26°19′36.297″S,View Map
1577794,MABELA,Yes,"2526 Chris Hani Road, Tshiawelo Ext 2",Soweto,Gauteng,011 9805237,27°51′24.799″E,26°16′56.99″S,View Map
1578162,BOTHA,Yes,"Golf Park, 1 Cnr Mimosa Drive & Mopani Road, Golf Park",Meyerton,Gauteng,016 3622799,28°1′56.507″E,26°33′16.521″S,View Map
1578510,VARUGHESE,No,"Alrode Medical House Cnr Juyn, Street & Vereeniging Road, Alrode",Alberton,Gauteng,011 8641211,28°8′16.567″E,26°18′0.98″S,View Map
1579444,CLOETE,No,"64 Malcolm Road, Dunnottar",Nigel,Gauteng,011 7342585,28°26′5.64″E,26°20′50.28″S,View Map
1581651,OLATEJU,Yes,"Stand 3638, Mosthidi Road, Mamelodi Ext 3",Pretoria,Gauteng,012 8404605,28°24′41.043″E,25°42′59.335″S,View Map
1583204,BODHANIA,Yes,"6 Hull Street, Florida",Roodepoort,Gauteng,011 6727111,27°54′23.484″E,26°10′25.926″S,View Map
1583387,NENE,Yes,"Esiziba Section, 233 Sam Molele Drive, Tembisa",Tembisa,Gauteng,011 9256298,28°13′17.261″E,26°0′26.066″S,View Map
1584286,HOOSEN,Yes,"Suite 108 Medical Mews, Cnr 5th Street & Rivonia Road, Sandown",Sandton,Gauteng,011 7837320,28°3′21.074″E,26°5′51.58″S,View Map
1586238,AMOS,Yes,"Vilakazi Healthcare Centre, 7006 Vilakazi Street, Orlando West",Soweto,Gauteng,011 7493083,27°54′7.363″E,26°14′17.476″S,View Map
1497642,SWART,Yes,"Cnr Olympia & Mopanie Road, Dal Fouche",Springs,Gauteng,011 8171341,28°24′13.581″E,26°15′11.213″S,View Map
1498126,SALEY,Yes,"13c Beaconsfield Avenue, Vereeniging",Vereeniging,Gauteng,016 4214220,27°55′39.931″E,26°40′32.98″S,View Map
1498630,BULBULIA,Yes,"Room 805 8th Floor Lister, Building 195 Rahima Moosa Street, Johannesburg",Johannesburg,Gauteng,011 3372857,28°2′46.212″E,26°12′2.073″S,View Map
1498649,ISMAIL,Yes,"540-1 Dlamini Street, Emdeni North",Soweto,Gauteng,011 9341049,27°49′11.456″E,26°14′39.091″S,View Map
1500376,RASETSOKE,No,"Room 2 1st Floor Sibanda, Building 18874 Tsamaya Avenue, Mamelodi East",Pretoria,Gauteng,078 5488409,28°22′32.551″E,25°42′47.719″S,View Map
1500600,KHUMALO,Yes,"Sizwe House, 4 Malahla Street, Vosloorus Ext 7",Vosloorus,Gauteng,011 3820412,28°11′29.727″E,26°21′36.908″S,View Map
1502395,RAMPEDI,Yes,"2141 Lebanon Street, Winterveld",Mabopane,Gauteng,012 7021539,28°3′4.16″E,25°29′39.357″S,View Map
1503367,MABASO,Yes,"First Care Medical Centre 9350, Cnr Manetsi & Kaimane Street, Dobsonville Ext 3",Soweto,Gauteng,011 9342554,27°49′32.402″E,26°14′0″S,View Map
1503545,MATLALA,Yes,"2598, Cnr Ekukhanyeni & Loveday Street, Soshanguve Block Gg",Soshanguve,Gauteng,083 3026567,28°3′41.854″E,25°31′29.806″S,View Map
1503901,KWINDA,Yes,"104 Cnr Buitenkant & Lucas, Mangope Drive, Soshanguve Block Gg",Soshanguve,Gauteng,012 7982271,28°5′13.191″E,25°27′36.707″S,View Map
1504665,MARTIN,Yes,"8 Rustenburg Road, Magaliesburg",Magaliesburg,Gauteng,014 5771047,27°32′43.364″E,25°59′58.098″S,View Map
1504703,DE BONT,No,"499 Schurmanns Avenue, Pretoria Gardens",Pretoria,Gauteng,012 3770170,28°9′18.285″E,25°43′28.181″S,View Map
1506706,MOJAKWANA,Yes,"7208 Sithohimela Street, Vosloorus Ext 9",Vosloorus,Gauteng,011 8633800,28°13′20.655″E,26°21′10.23″S,View Map
1507303,WILLEMSE,No,"35 Anstruther Street, Discovery",Roodepoort,Gauteng,011 6745048,27°53′39.984″E,26°9′24.408″S,View Map
1511246,SEMETSI,Yes,"307 B Moriting Section, 42 21st March Street, Tembisa",Tembisa,Gauteng,011 9262347,28°14′27.302″E,25°59′55.896″S,View Map
1511319,TSATSI,Yes,8969 Vergenoeg Street,Atteridgeville,Gauteng, ,28°2′9.24″E,25°47′4.56″S,View Map
1512854,PATEL,Yes,"613 Hospital Road, Skosana Section",Katlehong,Gauteng,011 9090061,28°8′53.074″E,26°19′36.595″S,View Map
1513419,BOTHA,No,"Cosmo City Medical Centre, 82 South Africa Drive, Cosmo City Ext 0",Roodepoort,Gauteng,011 8752061,27°56′3.07″E,26°1′13.761″S,View Map
1514164,GANGAZHE,No,"3 Industry Road, Clayville Industrial",Olifantsfontein,Gauteng,011 3164330,28°14′18.375″E,25°58′22.944″S,View Map
1515543,ADAMS,Yes,"459 Galaxy Street, Eersterus",Pretoria,Gauteng,010 7860136,28°19′9.326″E,25°42′10.389″S,View Map
1518917,NEL,No,"Shop 4 Ann Villa, 21 Lucy Street, Homestead",Germiston,Gauteng,011 8287699,28°11′17.52″E,26°10′36.48″S,View Map
1519263,RAMJEE,Yes,"180 Cnr Prairie & Petunia Street, Rosettenville",Johannesburg South,Gauteng,011 4362685,28°3′19.539″E,26°14′45.426″S,View Map
1520148,AFRICA,Yes,"1458a Melato Street, Naledi",Soweto,Gauteng,011 9343308,27°49′20.614″E,26°15′19.121″S,View Map
1521543,CRAEMER,Yes,"7 Rossini Boulevard, Vanderbijlpark",Vanderbijlpark,Gauteng,016 9823124,27°50′6.373″E,26°43′19.186″S,View Map
1521950,NALUMANGO,Yes,"Bloubosrand Surgery, 1420 Agulhas Road, Bloubosrand",Randburg,Gauteng,011 4623034,27°57′52.611″E,26°1′28.368″S,View Map
1522248,LALARAM-DOORGHA,Yes,"Shop L29 Springs Mall, 19 Jan Smuts Road, Casseldale",Springs,Gauteng,011 3664045,28°27′14.161″E,26°16′30.538″S,View Map
1525034,SHILALUKE,Yes,"3625 Opposite Drieziek Sweets, Supermarket, Orange Farm",Orange Farm,Gauteng,011 8501069,27°50′44.252″E,26°28′21.909″S,View Map
1527215,ZUNGU,Yes,736 Block Ll,Soshanguve,Gauteng,012 7982623,28°6′2.16″E,25°31′21.36″S,View Map
1528157,MUKELABAI-ECHUN,No,"Unit 7 Randburg Surgery, 100 Bordeaux Drive, Randburg",Randburg,Gauteng, ,28°0′33.022″E,26°5′47.267″S,View Map
1529269,JOOSUF,Yes,"Shop 16 Burton Court 8 Cnr, Pretoria & Clarendon Street, Hillbrow",Johannesburg,Gauteng,011 7252281,28°2′40.728″E,26°11′21.867″S,View Map
1532308,BHYAT,Yes,"178 Albertina Sisulu Road, Mayfair",Johannesburg,Gauteng,011 8391522,28°1′9.685″E,26°12′19.35″S,View Map
1534971,HOOSEN,Yes,"471 9th Street, Asiatic Bazaar",Pretoria,Gauteng,012 3232433,28°10′38.821″E,25°44′22.637″S,View Map
1535420,KOEN,No,"243 Burger Street, Pretoria North",Pretoria,Gauteng,012 5468612,28°10′14.191″E,25°40′36.585″S,View Map
1536141,ROOS,No,"1235 Charl Cilliers Street, Mountain View",Pretoria,Gauteng,012 3771226,28°9′30.791″E,25°41′59.274″S,View Map
1536249,MOCHIFEFE,Yes,"Pholong Medical Centre, 16 Block W W, Soshanguve",Soshanguve,Gauteng,012 7914123,28°6′2.235″E,25°34′38.228″S,View Map
1536494,GANGAT,Yes,"125 Barry Hertzog Avenue, Emmarentia",Randburg,Gauteng,011 8375158,28°0′46.342″E,26°9′48.004″S,View Map
1536818,MUWANULA,Yes,"Corner Medical Centre, 386 Francis Baard Street, Pretoria",Pretoria,Gauteng,012 3204975,28°11′50.548″E,25°44′55.004″S,View Map
1538985,SHAIKH,Yes,"26 Sutherland Avenue, Randfontein",Randfontein,Gauteng,011 4122330,27°42′12.08″E,26°10′56.523″S,View Map
1539272,NEL,No,"Business Park, 123 Webber Road, Lambton",Germiston,Gauteng,011 8271091,28°10′44.906″E,26°14′40.133″S,View Map
1540416,FAUL L J & ASSOCIATES MEDICROSS,No,"7 Cnr Nile Drive & The Square, Three Rivers",Vereeniging,Gauteng,010 6016447,27°58′13.464″E,26°39′50.281″S,View Map
1540831,MACINGWANE,Yes,"2082 Moagi Road, Vosloorus",Vosloorus,Gauteng,011 9061032,28°12′23.76″E,26°21′26.424″S,View Map
1541013,KWAN,Yes,"41 Cnr 12th Avenue & 3rd Street, Edenvale",Edenvale,Gauteng,011 4534234,28°9′26.626″E,26°8′39.976″S,View Map
1541021,MILLER,No,"94 Green Avenue, Edleen",Kempton Park,Gauteng,011 9750631,28°12′25.452″E,26°5′50.28″S,View Map
1542125,GANCHI,Yes,"Room 101 1st Floor Ismed, Medical Centre 199 4th Street, Asiatic Bazaar",Pretoria,Gauteng,012 3230048,28°10′29.158″E,25°44′26.624″S,View Map
1542133,ISMAIL,Yes,"Room 101 1st Floor Ismed, Medical Centre 199 4th Street, Asiatic Bazaar",Pretoria,Gauteng,012 3230048,28°10′29.029″E,25°44′26.853″S,View Map
1542435,MANSINGH,Yes,"123 Protea Avenue, Lenasia",Lenasia South,Gauteng,011 8524222,27°50′50.551″E,26°19′28.869″S,View Map
1543024,JURGENS,No,"70 Shannon Road, Noordheuwel",Krugersdorp,Gauteng,011 9541021,27°48′14.868″E,26°5′48.83″S,View Map
1543393,MOOSA,Yes,"121 Cnr Longfellow Street &, Rifle Range Road, Ridgeway",Johannesburg South,Gauteng,011 6804986,27°59′36.117″E,26°15′26.493″S,View Map
1543687,RUBOMBORA,Yes,"Room 1007 10th Floor Lister, Building 195 Rahima Moosa Street, Johannesburg",Johannesburg,Gauteng,011 3367788,28°2′46.212″E,26°12′2.073″S,View Map
1543717,KGANANE,Yes,"943, Soshanguve Block Jj",Soshanguve,Gauteng,082 5687399,28°4′53.549″E,25°27′16.867″S,View Map
1545205,VAN ZYL,Yes,"Shop B2a Renbro Centre, Old Warmbaths Road, Hammanskraal",Hammanskraal,Gauteng,012 7110494,28°17′4.133″E,25°24′12.436″S,View Map
1545809,GOVENDER,Yes,"4452 Old Warmbaths Road, Hammanskraal",Hammanskraal,Gauteng,012 7110988,28°16′56.723″E,25°24′30.398″S,View Map
1545906,ZULU,Yes,"6693 Link Road, Orange Farm Ext 2",Orange Farm,Gauteng,011 8502977,27°51′55.96″E,26°27′27.83″S,View Map
1546708,SEPAMLA,Yes,"6158 Mc Botha Drive, Vosloorus Ext 1",Vosloorus,Gauteng,011 9063710,28°12′2.67″E,26°20′57.826″S,View Map
1551914,KASOLO,Yes,"Kya Rock Centre, Cnr Witkoppen & Riverbend Road, Sandton",Sandton,Gauteng,011 4629255,27°57′46.939″E,26°2′0.307″S,View Map
1552708,LINGOOMIAH,Yes,"1544 Singh Street, Actonville",Benoni,Gauteng,011 4214885,28°17′53.84″E,26°12′44.387″S,View Map
1554255,BEZUIDENHOUT,No,"2nd Floor Hatfield Plaza, 1122 Burnett Street, Hatfield",Pretoria,Gauteng,012 3626947,28°14′9.435″E,25°44′59.114″S,View Map
1554336,THOBEJANE,Yes,"Stand 1240 B Marapyane Complex, Legodi Section",Marapyane,Gauteng,012 7243825,,,
1560417,ADAM,Yes,"Medical Suite 7 Killarney Mall, 60 Riviera Road, Killarney",Johannesburg,Gauteng,011 4860835,28°3′16.379″E,26°9′56.491″S,View Map
1563483,RADEMAN,No,"Vereeniging Mediclinic A5, Hofmeyer Ave",Vereeniging,Gauteng,016 4220170,27°55′39.702″E,26°40′9.18″S,View Map
1564102,MALATJI,Yes,"21 Ntsu Street, Saulsville",Pretoria,Gauteng,012 3756847,28°3′38.803″E,25°46′48.503″S,View Map
1566253,LAHER,Yes,"Shop 21b Kempstar Mall, Pretoria Road, Kempton Park",Kempton Park,Gauteng,011 3949352,28°13′40.411″E,26°6′29.911″S,View Map
1567047,KARIM,Yes,"9b 2nd Street, Springs",Springs,Gauteng,011 8115362,28°26′22.92″E,26°15′0″S,View Map
1567888,NKADIMENG,Yes,"1st Floor Newgate Shopping, Centre Cnr Sauer & Jeppe Street, Johannesburg",Johannesburg,Gauteng,011 8369009,28°2′10.681″E,26°12′6.74″S,View Map
1450182,MAKHUNGA,Yes,734/4 Makhubelo Street,Mofolo North,Gauteng,011 9886245,28°22′10.92″E,25°42′9.72″S,View Map
1451014,VAN ONSELEN,No,115a Hay Street,Turffontein,Gauteng,011 6838263,28°2′15.72″E,26°14′44.16″S,View Map
1451839,ISMAIL A A & VACHIAT I,Yes,"68 1st Avenue, Alexandra",Alexandra,Gauteng,011 7869552,28°5′18.677″E,26°6′31.407″S,View Map
1452215,GAFOOR,Yes,"Unknown, Kempton Park",Kempton Park,Gauteng,082 8078619,28°13′45.376″E,26°5′39.87″S,View Map
1452800,KOOVERJEE,Yes,"56 Hytor Road, Chloorkop",Edenvale,Gauteng,011 9761355,28°10′49.348″E,26°4′0.15″S,View Map
1454269,NAGDEE,Yes,"16 Protea Street, Reigerpark",Boksburg,Gauteng,011 9104939,28°13′50.491″E,26°13′32.714″S,View Map
1454897,MATTELAER,No,"15b Cnr Brits Road & Graffenheim, Street, Ninapark",Akasia,Gauteng,012 5426189,28°8′56.306″E,25°40′40.902″S,View Map
1456121,COETZEE,Yes,"249 Brooks Street, Brooklyn",Pretoria,Gauteng,012 3620651,28°14′33.238″E,25°45′40.355″S,View Map
1456199,HEAD,No,"1st Place Bank City H & H, Medical Centre Cnr Simmonds &, Pritchard Street",Johannesburg,Gauteng,011 8321381,28°2′20.97″E,26°12′10.509″S,View Map
1456350,BABEN,No,"Medipark Pharmacy, 98 Elgin Road",Brichleigh,Gauteng,011 3916274,28°12′25.452″E,26°5′50.28″S,View Map
1456385,SALOOGEE,Yes,"89 Edwards Avenue, Westonaria",Westonaria,Gauteng,011 7532903,27°39′9.228″E,26°19′4.136″S,View Map
1457381,MALATJI,Yes,"1884 Wild Chestnut Street, Protea Glen",Soweto,Gauteng,076 7789000,27°48′50.396″E,26°16′12.032″S,View Map
1460781,MAHOMED,Yes,"Kelvin Village Shopping Centre, Cnr Raymond & Southway Street, Kelvin",Sandton,Gauteng,011 6561232,28°5′25.638″E,26°4′44.322″S,View Map
1461826,SCHUTTE,No,"26 Christoffel Street, Van Riebeeckpark",Kempton Park,Gauteng,011 9724173,28°13′5.982″E,26°4′28.84″S,View Map
1462687,ROUS,Yes,"Room 1020 10th Floor Louis, Pasteur Hospital 374 Francis, Baard Street",Pretoria,Gauteng,012 3221198,28°11′48.076″E,25°44′54.213″S,View Map
1462873,JOYCE,No,"423 Jacqueline Drive, Garsfontein",Pretoria,Gauteng,012 3481182,28°17′24.618″E,25°47′8.85″S,View Map
1463306,TYAMZASHE,Yes,"362 Hlatywayo Street, Orlando East",Soweto,Gauteng,011 9351276,27°55′20.964″E,26°14′20.4″S,View Map
1463462,POOE,Yes,"Old Mutual Building, 2191 Koma Street, Jabulani Ext 2",Soweto,Gauteng,011 9329774,27°51′15.926″E,26°15′16.153″S,View Map
1464019,MAKHUBELA,Yes,"Kae Kapa Kae Shops, 1014-15 Tamane Street, Tladi",Soweto,Gauteng,087 8086166,27°50′23.028″E,26°15′18.801″S,View Map
1464655,LUBBE,No,"30 Shirley Rd, Valhalla, Centurion",0185,Gauteng, ,28°9′28.08″E,25°48′46.08″S,View Map
1464736,KANA,Yes,"Thokoza Sai Medical Centre, 9173 Cnr Nkaki & Mjavane Street, Tokoza",Thokoza,Gauteng, ,28°8′26.016″E,26°20′51.396″S,View Map
1465104,VALIALLAH,Yes,"73 Mare Street, Roodepoort",Roodepoort,Gauteng,011 7631307,27°51′54.288″E,26°9′45.252″S,View Map
1466194,WAJA,Yes,"18 Petrea Street, Lenasia Ext 3",Lenasia,Gauteng,011 8524115,27°50′22.941″E,26°19′37.029″S,View Map
1466577,MOTSHWANE,Yes,"Suite 1 Spruitview Medical &, Dental Cntr Brickfield Road",Spruitview,Gauteng,011 8668078,28°11′9.482″E,26°19′36.302″S,View Map
1467026,BAWA,Yes,"37 Voortrekker Street, Benoni",Benoni,Gauteng,011 4215044,,,
1467700,LAHER,Yes,"39a Mint Road, Fordsburg",Johannesburg,Gauteng,011 8368602,28°1′15.276″E,26°12′18.09″S,View Map
1469231,RUST,No,"8 N J Van Der Merwe Crescent, Sasolburg",Sasolburg,Gauteng,016 9760886,27°49′35.134″E,26°48′40.386″S,View Map
1469746,DESAI,Yes,"Shop 12 Park Square, 11 Eric Louw Street, Vanderbijlpark",Vanderbijlpark,Gauteng,016 9819700,27°50′6.207″E,26°41′47.681″S,View Map
1470671,BOBAT,Yes,"24 Jacobs Street, Chamdor",Krugersdorp,Gauteng,011 7625005,27°47′53.189″E,26°9′30.104″S,View Map
1470728,VAN DER LINDE,No,"22 Heron Street, Mackenzie Park",Benoni,Gauteng,011 4216334,28°19′48″E,26°11′58.2″S,View Map
1471422,RAMJEE,Yes,"Shop 21 Village Square Shopping, Centre 46 Voortrekker Road, New Redruth",Alberton,Gauteng,011 9075412,28°7′18.491″E,26°16′0.576″S,View Map
1471627,BHAMJEE,Yes,"Shop 18 Shoprite Centre, 5 Sirkel Road, Eldoradopark Ext 5",Soweto,Gauteng,011 3423746,27°54′16.425″E,26°17′21.932″S,View Map
1472739,SEKETE,Yes,"Phooko Section Cnr Sontonga Road, & Thubela Street, Katlehong",Katlehong,Gauteng,011 9054503,28°9′42.393″E,26°20′0.925″S,View Map
1472887,CARIM,No,"Shop 20 Laudium Plaza Cnr 6th, Avenue & Tangerine Street, Laudium",Centurion,Gauteng,012 3742011,28°6′23.184″E,25°47′16.86″S,View Map
1473301,TENZER,Yes,"Faraday Medical & Dental Centre, 207 Eloff Street, Wemmer",Johannesburg,Gauteng,011 4933333,28°2′36.519″E,26°12′45.48″S,View Map
1474413,NTIMANE,Yes,"17 Montoeli Street, Diepkloof Zone 4",Diepkloof,Gauteng,087 8066096,27°57′5.51″E,26°14′28.289″S,View Map
1475177,SURTEE,Yes,"808 Dajee Street, Actonville Ext 3",Benoni,Gauteng,011 4211267,28°18′2.52″E,26°12′44.28″S,View Map
1478974,MOTLANTHE,Yes,"9165 Cnr Kagiso & Zola Avenue, Kagiso",Krugersdorp,Gauteng,011 4103883,27°47′12.617″E,26°9′7.725″S,View Map
1479547,PEER,Yes,"Takolia Centre, 3495 Klipspruit Valley Road, Kliptown",Soweto,Gauteng,011 9337860,27°53′28.257″E,26°16′34.081″S,View Map
1480731,TICKLEY,Yes,"16 Senator Marks Avenue, Vereeniging",Vereeniging,Gauteng,016 4224152,27°55′49.195″E,26°40′38.945″S,View Map
1481193,SULEMAN,No,"15 Derrick Avenue, Cyrildene",Johannesburg,Gauteng,011 6166548,28°5′57.522″E,26°10′42.892″S,View Map
1481266,SEEDAT,Yes,"28c Rose Avenue, Lenasia",Lenasia South,Gauteng,011 8521123,27°49′38.496″E,26°19′12.108″S,View Map
1482459,SEEDAT,Yes,"38 Lake Avenue, Benoni",Benoni,Gauteng,011 4210953,28°19′20.742″E,26°11′26.66″S,View Map
1483358,ASMAL,Yes,"Bobs Centre, 167b Adam Street, Ironside",Vereeniging,Gauteng, ,27°53′38.015″E,26°32′8.235″S,View Map
1484044,DESAI,Yes,"Stand 23207, Lerothodi Street, Sebokeng Zone 13",Sebokeng,Gauteng,016 5943108,27°50′12.826″E,26°34′40.865″S,View Map
1484400,PATEL,Yes,"Suite 1 Savoy Medical & Dental, Centre 580 Louis Botha Avenue, Savoy Est",Johannesburg,Gauteng,011 7860972,28°5′10.05″E,26°7′49.343″S,View Map
1484419,MOSALA,Yes,"Office 85 Afrisport Centre, Thuluza Street, Temba",Temba,Gauteng,012 7178735,28°15′56.035″E,25°23′36.301″S,View Map
1484796,VAN ZYL,No,"474 Winifred Yell Street, Garsfontein Ext 8",Pretoria,Gauteng,012 3651866,28°17′22.493″E,25°47′23.404″S,View Map
1485830,MANTHATA,Yes,"Shop 2 Ramahoebo Square, 651 Maboea Street, Atteridgeville",Pretoria,Gauteng,012 3738005,28°4′39.194″E,25°45′55.974″S,View Map
1486071,THINDISA,Yes,"Maokeng Section, 11 Andrew Mapheto Drive, Maokeng",Tembisa,Gauteng,011 9201635,28°14′7.339″E,25°59′54.532″S,View Map
1486543,MAMPANE,Yes,"Room 18 - 20 Block R, Klipgat",Mabopane,Gauteng,012 7079266,28°0′30.361″E,25°29′26.044″S,View Map
1486594,FEINBERG,No,"150 Johannesburg Road, Lyndhurst",Johannesburg,Gauteng,011 8826010,28°6′21.533″E,26°7′38.23″S,View Map
1486683,MAHOMED,Yes,"34 Edward Street, Roodepoort",Roodepoort,Gauteng,011 7663680,27°52′3.075″E,26°9′27.034″S,View Map
1488015,SINGH,Yes,"Shop 41 China Gate Mall Cnr, Zuurfontein & Oranjerivier, Kempton Park",Kempton Park,Gauteng,011 9765157,28°11′24.21″E,26°4′44.918″S,View Map
1488295,HOLLAND,Yes,"42 Macintyre Street, Jeppestown",Johannesburg,Gauteng,011 6140097,28°3′46.296″E,26°12′20.592″S,View Map
1489755,COETZEE,No,"969 15th Avenue, Wonderboom South",Pretoria,Gauteng,012 3313621,28°12′34.481″E,25°41′47.414″S,View Map
1489941,KHOMO,Yes,590 Block A,Mabopane,Gauteng,012 7026863,28°3′19.08″E,25°31′3″S,View Map
1490168,CASSIM,Yes,"103 Starling Road, Lenasia South Ext 1",Lenasia,Gauteng,011 8551442,27°50′55.36″E,26°23′17.232″S,View Map
1490559,MOPHOSHO,Yes,"36-6th Avenue, Alexandra",Alexandra,Gauteng,011 4438708,28°5′34.659″E,26°6′27.291″S,View Map
1490680,LEONG,Yes,"100 Albertina Sisulu Road, Bezuidenhout Valley",Johannesburg,Gauteng,011 6227522,28°5′39.552″E,26°11′17.081″S,View Map
1490796,TIMOL,Yes,"49 Lavers Street, Nigel",Nigel,Gauteng,011 8191111,28°28′14.664″E,26°25′6.06″S,View Map
1491865,GOVIND,Yes,"53 Cavendish Road, Yeoville",Johannesburg,Gauteng,011 4871082,28°3′58.248″E,26°10′39.036″S,View Map
1494031,DE KOCK,No,"750 Jacqueline Drive, Garsfontein",Pretoria,Gauteng,012 9932044,28°18′30.254″E,25°47′51.375″S,View Map
1496654,MITHAL,Yes,4 Kort Street,Johannesburg,Gauteng,011 834 5945,28°2′13.596″E,26°12′20.52″S,View Map
720666,AHMED,Yes,"19 Gompou Street, East Lynne",Pretoria,Gauteng,012 7717765,28°16′8.375″E,25°42′33.873″S,View Map
721964,SHADARI,Yes,"1606 Cnr Bluegum Str And Akasia, Ebony Park",Johannesburg,Gauteng,011 2043000,,,
742872,DR P C MAGAN,Yes,"55 Abraham Street, Eden Park",Alberton,Gauteng,011 3850441,28°7′39.053″E,26°22′39.461″S,View Map
772364,DRS COETZEE AND DEKKER,No,"207 Shilling Street, Queenswood",Pretoria,Gauteng,012 1118855,28°14′54.474″E,25°43′53.868″S,View Map
776904,IRINOYE,Yes,"Unit 1 Amanda Court, C/o Schoeman And Andries Street",Pretoria,Gauteng,012 3225785,,,
781827,DR VERMEULEN PRETORIUS JANSEN VA,No,"2 Cardigan Street, Dalview",Brakpan,Gauteng,011 7409620,28°21′16.447″E,26°14′41.542″S,View Map
785679,DR G M FOURIE AND ASSOCIATES,Yes,"99 Lenchen Avenue, Die Hoewes",Centurion,Gauteng,012 6637895,28°11′44.883″E,25°51′5.115″S,View Map
789135,AYOB,Yes,"Mutual & Federal Centre, 75 Helen Joseph Street, Johannesburg",Johannesburg,Gauteng,011 8349119,28°2′27.198″E,26°12′14.31″S,View Map
797863,NEUHOFF,No,"Neumed, 57 Kruger Street, Petersfield",Springs,Gauteng,011 8115780,,,
810797,KAHN,Yes,"1307 Lister Medical Building, 195 Rahima Moosa Street, Johannesburg",Johannesburg,Gauteng,011 3330118,28°2′44.98″E,26°12′3.918″S,View Map
883360,LAOSEBIKAN,Yes,286 Pretorius Str Central Tower,Pretoria,Gauteng,012 3234714,,,
912646,MOUKANGWE,Yes,"Barclay Square Shopping Centre, 424 Cnr Rissik & Celliers Street, Sunnyside",Pretoria,Gauteng,082 2542334,28°12′15.458″E,25°45′27.946″S,View Map
916420,DR SP DLONGOLO INC,Yes,"20 Russel Street, Benoni",Benoni,Gauteng,073 6404333,28°18′11.14″E,26°11′30.565″S,View Map
918822,CHOONARA,No,"22 Himalaya Street, Roshnee Extension1",Vereeniging,Gauteng,016 5562366,,,
927252,FABIYI,Yes,"Shop No. 2, Temba City Shopping Complex",Temba,Gauteng,012 7173672,,,
928135,NDONGALA,Yes,"111b Vincent Street, Meadowlands",Soweto,Gauteng,010 2107478,27°53′30.259″E,26°12′46.404″S,View Map
929484,DR P HIRA INC,Yes,"5-87 Dunswart Avenue, Benoni",Benoni,Gauteng,011 9143093,28°17′4.585″E,26°12′27.435″S,View Map
931802,WOKE,Yes,"368 Andries Street, Alphene Building",Pretoria Central,Gauteng,012 3224541,,,
935190,WERKMAN M AND WERKMAN C F,No,"52 Rubida Street, Lynnwood Ridge",Pretoria,Gauteng,012 3489595,28°18′5.514″E,25°45′46.065″S,View Map
961086,BREEWAG AND PARTNER,No,"Rietfontein Pavilion Centre, 359 Frates Road, Rietfontein",Pretoria,Gauteng,012 3292606,28°12′53.136″E,25°43′23.592″S,View Map
965936,DRS MERCHANT VAN HEERDEN VAN STA,No,"Castle Gate Lifestyle Centre, 478 Koedoesnek Avenue, Waterkloof Ridge",Pretoria,Gauteng,012 8806100,28°14′40.043″E,25°49′6.522″S,View Map
979929,DR S JINA INC,Yes,"32 Van Wyk Street, Roodepoort",Roodepoort,Gauteng,067 1391359,27°51′58.538″E,26°9′41.075″S,View Map
983373,ALAGBE,Yes,"Lifemed, Shop 13, Fedforum Building, C/o Van Der Walt And Pretorius S",Pretoria,Gauteng,012 8172070,,,
1024051,DR M JIVAN INC,Yes,"Shop 1 Diamond House, 35 Cnr Melle & Jorissen Street, Braamfontein",Johannesburg,Gauteng,011 3398908,28°2′7.697″E,26°11′32.174″S,View Map
1051369,MOUMI,No,"Shop 29a Witpoortjie Shopping, Centre Dirkie Uys Avenue, Witpoortjie",Roodepoort,Gauteng,011 7623339,27°49′54.377″E,26°8′27.454″S,View Map
1080660,DRABILE,Yes,"476 Paul Kruger Street, Maryannas Building",Pretoria,Gauteng, ,,,
1098861,DOCTOR M VAHED INC,Yes,"188 Victoria Street, Germiston",Germiston,Gauteng,011 8255516,28°9′53.27″E,26°12′52.412″S,View Map
1400533,MANSOOR,Yes,"Summit Building, 112 Claim Street, Hillbrow",Johannesburg,Gauteng,011 4842773,28°2′56.814″E,26°11′19.161″S,View Map
1404660,PIETERSE,No,"6 Cardigan Street, Dalview",Brakpan,Gauteng,011 7444417,28°21′14.909″E,26°14′44.108″S,View Map
1405535,LOUW JOHANNES A AND PARTNER,Yes,"6 Von Brandis Street, Krugersdorp",Krugersdorp,Gauteng,011 9531946,27°46′30.792″E,26°6′20.232″S,View Map
1407627,PHAYANE,Yes,"Tshepong Medical Centre, 18881 Tsamaya Avenue, Mamelodi East",Pretoria,Gauteng,012 8017230,28°22′39.185″E,25°42′46.813″S,View Map
1407902,KHOURY A E & PARTNERS,Yes,"East Cliff Medical Centre, 1 Satara Road, Eastcliff",Johannesburg South,Gauteng,011 4353129,28°3′20.132″E,26°16′6.25″S,View Map
1408097,MOTJUWADI,Yes,"First Care Medical Centre, 9160 Inciniba Circle, Pimville Ext 6",Pimville,Gauteng,011 9389017,27°54′54.133″E,26°15′49.395″S,View Map
1410563,MODI,Yes,"Joburg Medical Centre 126 Cnr, Rahima Moosa & Simmonds Street, Johannesburg",Johannesburg,Gauteng,011 8331588,28°2′21.371″E,26°12′7.003″S,View Map
1412485,KIRSTEN,No,"742 Coley Street, Garsfontein",Pretoria,Gauteng,012 9987557,28°18′13.1″E,25°48′1.716″S,View Map
1415190,HUMAN,No,"Shop 4 Anne Villa, 21 Lucy Street, Homestead",Germiston,Gauteng,011 8224262,28°11′16.426″E,26°10′35.964″S,View Map
1419307,KGALAMONO,Yes,"3801 Themba Drive, Kagiso",Krugersdorp,Gauteng,011 4106784,27°47′14.678″E,26°9′48.651″S,View Map
1425153,CHANDRAPREGAAS MAHARAJ,Yes,"41 Kagiso Drive, Kagiso 2 Ext 6",Krugersdorp,Gauteng,011 4106336,27°46′44.621″E,26°9′56.6″S,View Map
1425544,RAMONTJA,Yes,"Ext 15, 2138 Umhlume Street, Olievenhoutbosch",Centurion,Gauteng,010 5992331,28°5′56.141″E,25°54′33.693″S,View Map
1425811,WEYERS,Yes,"Cnr Siersteen Street & Mosaic, Road, Silverton",Pretoria,Gauteng,012 8049858,28°17′47.99″E,25°43′0.8″S,View Map
1426737,SETATI,Yes,"Ntsimane Sekedi, 49 4th Avenue, Alexandra",Alexandra,Gauteng,011 4433229,28°5′29.125″E,26°6′32.645″S,View Map
1427059,DULABH,Yes,"101 September Avenue, Klipspruit West Ext 2",Soweto,Gauteng,011 9472013,27°52′24.83″E,26°17′55.586″S,View Map
1429140,PILLAY-LUNGOOMIAH,No,"635 Fazel Street, Actonville",Benoni,Gauteng,011 4210786,28°17′55.5″E,26°12′45.36″S,View Map
1429337,PUPUMA,Yes,"35 Brittlewood Street, Dlamini Ext 3",Soweto,Gauteng,011 9357175,27°53′31.988″E,26°15′45.392″S,View Map
1429752,KHAN,No,"Room 1 Ennerdale Medical &, Dental Centre 3399 1st Avenue, Ennerdale Ext 3",Ennerdale,Gauteng,011 8555320,27°50′7.015″E,26°24′52.114″S,View Map
1430599,MAPHALI,Yes,"4 Renbro Shopping Centre, 30 Old Warmbaths Road, Hammanskraal",Hammanskraal,Gauteng,012 7113599,28°17′5.024″E,25°24′12.407″S,View Map
1430777,VAN DER WALT,No,"31 Monument Road, Kempton Park",Kempton Park,Gauteng,011 9703308,28°14′1.32″E,26°5′52.44″S,View Map
1434152,JOOSUB,Yes,"190 9th Avenue, Laudium",Centurion,Gauteng,012 3743176,28°6′16.787″E,25°47′16.363″S,View Map
1436511,PRETORIUS,No,"Shop 38 The Mall @ Reds Cnr, Rooihuiskraal & Hendrik Verwoerd, Road",Rooihuiskraal,Gauteng,012 6568983,28°8′13.614″E,25°52′20.626″S,View Map
1437011,KHAN,Yes,"1307 Lister Medical Center, 195 Jeppe Street",Johannesburg,Gauteng,011 3330118,28°2′45.024″E,26°12′3.456″S,View Map
1438247,LAHER,Yes,"1622 First Avenue, Bakerton",Springs,Gauteng,011 7334550,28°28′4.85″E,26°13′30.81″S,View Map
1438646,MASEMOLA,Yes,"152 Emkhathini Section, 28 Hadebe Street, Tembisa",Tembisa,Gauteng, ,28°13′2.335″E,26°0′41.08″S,View Map
1439022,JOOSUB,Yes,"Unit 6, The Inner Circle, 28 Eas, Ferreirasdorp",Johannesburg,Gauteng,083 4107864,28°2′5.995″E,26°12′22.077″S,View Map
1439545,ABOOBAKER,Yes,"Shop 12 Jhina Centre, 189 6th Avenue, Laudium",Centurion,Gauteng,012 3742775,28°6′22.255″E,25°47′15.187″S,View Map
1441086,KHAN,Yes,"398 Adams Road, Evaton",Evaton,Gauteng,016 5910090,27°50′13.776″E,26°32′11.904″S,View Map
1444670,KALAN,No,"Shop 15 Ground Floor Barclay, Square 293 Rissik Street, Sunnyside",Pretoria,Gauteng,012 3418243,28°12′15.811″E,25°45′27.887″S,View Map
1445049,MASHIGO,Yes,"House 351b Malateng Section, Jericho",Brits Rural,Gauteng,012 7291035,27°48′17.153″E,25°20′20.655″S,View Map
1445383,CHIBOO,Yes,"3 Kelvin Street, Industria",Johannesburg,Gauteng,011 4743158,27°58′18.516″E,26°12′0.612″S,View Map
1447777,MOHASOANE,Yes,"2067 Tshithuthune Street, Tshiawelo",Soweto,Gauteng,011 9807995,27°50′57.948″E,26°16′44.497″S,View Map
1448706,VAN ZYL,Yes,"Office No 10 Meyersdal Mall Cnr, Michelle Avenue & Hennie, Alberts Street",Meyersdal,Gauteng,011 8671678,28°5′28.998″E,26°17′24.259″S,View Map
1449001,ALLY,Yes,"Church Square, 179 Wf Nkomo Street, Pretoria",Pretoria,Gauteng,012 3265718,28°11′11.922″E,25°44′48.401″S,View Map
1449087,DAYA,Yes,"7 Max Beyers Street, Eldoradopark",Soweto,Gauteng,011 3423883,27°54′25.886″E,26°16′54.683″S,View Map
1449478,ALLY,Yes,"339 Bloed Street, Pretoria",Pretoria,Gauteng,012 3258281,28°11′39.646″E,25°44′25.3″S,View Map
1449672,MOODLEY,Yes,"Shop 15 Dekema Mall, Cnr Dekema & Steenbras Road, Wadeville",Germiston,Gauteng,011 8270608,28°11′9.575″E,26°16′2.208″S,View Map
213659,PATEL,Yes,"1st Floor Newgate Shopping, Centre Cnr Sauer & Jeppe Street, Newtown",Johannesburg,Gauteng,011 8343305,28°2′15.134″E,26°12′7.918″S,View Map
219363,NKOSI,Yes,"127 Kakongo Street, Leboeng Section",Tembisa,Gauteng,083 2914814,28°12′39.915″E,26°0′9.649″S,View Map
229474,KHAN,No,"12 Boerneef Street, Vorna Valley",Midrand,Gauteng,010 2240195,28°6′37.169″E,25°59′58.833″S,View Map
235326,DR S WADVALLA INC,Yes,"Primecure Merafi, Cnr Moliwa & Matlomo Street, Tladi",Soweto,Gauteng,011 9323503,27°50′43.979″E,26°15′40.022″S,View Map
236586,MAKINE,Yes,"136 Andrew Mapheto Drive, Tsenelong Ext",Tembisa,Gauteng,010 8002411,28°13′20.214″E,26°0′4.85″S,View Map
236942,GENESS,Yes,"Room 1108 Lister Building, 195 Rahima Moosa Street, Johannesburg",Johannesburg,Gauteng,011 3360982,28°2′46.212″E,26°12′2.073″S,View Map
243531,"LYNE, FAKIER & PADAYATCHI INC",No,"Mondeor Medical Centre, 274 Columbine Avenue, Mondeor",Johannesburg South,Gauteng,011 6805684,28°0′39.061″E,26°16′38.052″S,View Map
247510,LAWAL,Yes,"Shop 10 Spar Complex, Morula Street, Soshanguve Block Ff",Soshanguve,Gauteng,061 5063023,28°6′0.394″E,25°28′40.205″S,View Map
261270,MABOTJA,Yes,"9 Kapokvoel Avenue, Birch Acres",Kempton Park,Gauteng,011 3912353,28°12′13.86″E,26°2′42.648″S,View Map
269042,NAGAR,Yes,"Xavier Health Centre, 34 Xavier Street, Robertsham",Johannesburg South,Gauteng,011 4331127,28°0′26.897″E,26°15′7.587″S,View Map
270458,MAPIMELE,Yes,"Shop 5 Phumula Market Square, Cnr Luthando & Ludlelo Street, Roodekop Ext 21",Germiston,Gauteng,011 8652348,28°11′49.301″E,26°18′51.054″S,View Map
274496,OSOARE,Yes,"12 Goldman Street, Shop 8 Opp Pick N Pay",Florida,Gauteng,011 4729626,27°52′19.632″E,26°13′18.084″S,View Map
281719,LEKETI AND ASSOCIATES INC.,Yes,"Civic Centre, 18069 Ngungunyane Street, Kwathema",Brakpan,Gauteng,011 7364405,28°23′30.042″E,26°17′46.131″S,View Map
287199,RAMMUTLA,Yes,"23303 Orange Street, Protea Glen",Soweto,Gauteng,011 0295223,27°46′52.128″E,26°16′51.474″S,View Map
289337,ILUNGA,Yes,"68 Voortrekker Road, New Redruth",Alberton,Gauteng,010 0231034,28°7′19.543″E,26°16′15.797″S,View Map
291706,MONGWE,Yes,"Suite 4 Ground Floor Louis, Pasteur Hospital 360 Francis, Baard Street",Pretoria,Gauteng,012 3200255,28°11′47.843″E,25°44′54.275″S,View Map
293970,COMFORT N NGONYAMA INC,Yes,"Shop 10 Rainy Hill Shopping, Centre 163 Bram Fischer Drive, Ferndale",Randburg,Gauteng,011 8861271,28°0′19.15″E,26°5′39.507″S,View Map
305227,LYNE AND PARTNERS,No,"22 Cnr Main Road & Ino Street, Comptonville",Johannesburg South,Gauteng,011 9413796,27°57′39.866″E,26°16′34.493″S,View Map
310492,NWAFOR,Yes,"Room 12 Theo's Place, 256 Johannes Ramokhoase Street, Pretoria",Pretoria,Gauteng,012 3238303,28°11′26.7″E,25°44′35.383″S,View Map
319333,KHAN,Yes,"Eldorado Park Medical Centre, Cnr Main Road & Kremetart Avenue, Eldoradopark Ext 3",Soweto,Gauteng,011 3422737,27°54′50.523″E,26°17′44.031″S,View Map
319422,OBENG-MIREKU,Yes,"79 Silwood Road, Bramley",Johannesburg,Gauteng,011 8878017,28°5′10.437″E,26°7′35.866″S,View Map
321850,"KILLIAN, NIENABER ASSOCIATES",Yes,"258b Jean Avenue, Die Hoewes",Centurion,Gauteng,012 6640617,28°11′39.883″E,25°50′48.884″S,View Map
323853,MAMETJA,Yes,"Shop 107 Thorntree Shopping, Complex Senyenyane Street, Soshanguve Block Vv",Soshanguve,Gauteng,012 7913730,28°6′13.598″E,25°34′53.055″S,View Map
324043,THIBELA,Yes,"46 Maunde Street, Saulsville",Pretoria,Gauteng, ,28°3′25.924″E,25°46′49.721″S,View Map
325422,MAKDA,Yes,"Glenvista Medical Centre, 104 True North Road, Mulbarton",Johannesburg,Gauteng,011 4323929,28°3′17.676″E,26°17′16.476″S,View Map
326178,KAZADI,Yes,"Easy Park Complex, 35 Jacobs Street, Chamdor",Krugersdorp,Gauteng,011 0677877,27°47′40.2″E,26°9′20.52″S,View Map
331635,MALAPANE,No,"Shop 13 Block A Bloed Street, Mall Cnr Lilian Ngoyi & Bloed, Street",Pretoria,Gauteng,012 3241322,28°11′30.049″E,25°44′23.255″S,View Map
338109,KALULA,Yes,"Undisclosed, Orange Farm",Orange Farm,Gauteng, ,27°51′37.61″E,26°27′33.779″S,View Map
345164,ARAJUWA,Yes,"Paragon Medical Centre, 499 Jorissen Street, Sunnyside",Pretoria,Gauteng,012 3431539,28°12′50.662″E,25°45′26.132″S,View Map
350222,MALOKA,Yes,"1014 Block U, Lucas Mangope Road, Mabopane",Mabopane,Gauteng,012 7258209,28°2′21.566″E,25°30′53.627″S,View Map
357030,DRS MOHAMED K D & MAHOMED SD,No,"House 10c Netcare Garden City, Hospital 35 Bartlett Road, Mayfair West",Johannesburg,Gauteng,011 4955243,28°0′14.694″E,26°11′51.086″S,View Map
359033,IMARALU,Yes,"5116 Tennessee Avenue, Cosmo City Ext 5",Roodepoort,Gauteng,081 4264658,27°56′25.526″E,26°1′14.632″S,View Map
361747,MALEPFANI,Yes,"Shop 17 Prinsman Place, 327 Sisulu Street, Pretoria",Pretoria,Gauteng,012 0230198,28°11′44.031″E,25°44′58.034″S,View Map
363383,ONYEMAOBI,Yes,"Shop 7, Maboa Street, Atteridgeville",Pretoria,Gauteng,012 3739000,28°4′39.156″E,25°45′55.73″S,View Map
406031,MOEPI,Yes,"1 Cnr Ruth First & Desmond Tutu, Street, Lotus Gardens",Pretoria,Gauteng,012 0011560,28°4′25.086″E,25°45′14.017″S,View Map
406058,VERWEY,No,"Medical Suites Loerie Park, 894 Loerie Street, Silverton Ext 5",Pretoria,Gauteng,012 8037460,28°19′14.057″E,25°43′55.355″S,View Map
410233,VALLY,No,"Shop 14 Standard Bank Centre, 291 Helen Joseph Street, Pretoria",Pretoria,Gauteng,012 3233824,28°11′33.091″E,25°44′46.916″S,View Map
415421,HLUNGWANE,Yes,"Kenlaw Building, 27 De Beer Street, Kenlaw Building",Braamfontein,Gauteng,011 4030495,28°2′3.715″E,26°11′32.313″S,View Map
437492,DR ISMAIL MITHA INC,Yes,"29 Nedbank Plaza, 175 Steve Biko Road, Arcadia",Pretoria,Gauteng,012 3235926,28°12′12.495″E,25°44′38.657″S,View Map
451363,BARNES,No,"95 Breytenbach Street, Nigel",Nigel,Gauteng,011 8148288,28°28′25.451″E,26°25′17.855″S,View Map
464716,DUBERT,No,"103 6th Street, Northmead",Benoni,Gauteng,011 9692474,28°18′37.051″E,26°8′58.906″S,View Map
470848,MANENZHE,Yes,"19846 Eagle Street, Khutsong",Pretoria,Gauteng,012 8123234,28°22′28.091″E,25°42′55.552″S,View Map
472425,RINGANE & ASSOCIATES INC,Yes,"2413 Cnr Mahalefele Road &, Mncube Drive, Dube",Soweto,Gauteng,011 9825375,27°53′40.73″E,26°14′17.478″S,View Map
477729,JIRRIE,Yes,"Suite M1 1st Floor Block C, Northlands Corner Cnr Witkoppen, & New Market Road",North Riding,Gauteng,010 0201777,27°57′26.432″E,26°2′22.654″S,View Map
478768,CASSIM,Yes,"Ridgeway Garden Health Centre, 177 Swartgoud Street, Ridgeway",Johannesburg South,Gauteng,011 4333985,28°0′11.946″E,26°15′58.585″S,View Map
488895,ADEDEJI,Yes,"Green House Medical Practice, Cnr Love Drive & Lesedi Street, Nellmapius",Pretoria,Gauteng, ,28°21′24.864″E,25°44′26.718″S,View Map
500658,A K AMOD INC,Yes,"1st Floor Focus House Building, 86 Cnr Loveday & Plein Street, Johannesburg",Johannesburg,Gauteng,011 8368435,28°2′26.717″E,26°12′0.389″S,View Map
504602,ALLY,Yes,"Hatfield Square Shop13, 1115 Burnett Street, Hatfield",Pretoria,Gauteng,012 3622799,28°14′12.12″E,25°45′1.8″S,View Map
512575,TSHISHONGA,Yes,"Shop79a Soshanguve Crossing Cnr, Ruth 1st And Aubrey Matlala Rd",Soshanguve,Gauteng,012 7930082,28°5′23.031″E,25°33′0.532″S,View Map
546496,MODIMOLA,Yes,2693 Lemur Street Ext 33,Riverside View,Gauteng,010 7451266,,,
551139,JOOSUB,No,"Eldomed Centre 1286 Cnr Penguin, Crescent & Willem Botha Drive, Eldoraigne",Centurion,Gauteng,012 6600111,28°8′38.32″E,25°50′38.544″S,View Map
552593,PUTTER W F AND ASSOCIATES,No,"Shop 8 Highveld Park Mall, C/o John Vorster And Logan Ave",Highveld,Gauteng,012 6651183,28°11′52.929″E,25°52′33.866″S,View Map
562203,MUKUDU,Yes,"29 Landor Street, Tulisa Park",Johannesburg South,Gauteng,011 6131141,28°5′42.723″E,26°15′1.702″S,View Map
571792,NEUHOFF W J W AND NIEMAND C J,No,"57 Kruger Street, Petersfield",Springs,Gauteng,011 8115780,28°25′51.657″E,26°14′0.473″S,View Map
577537,SENAMELA,Yes,"14319 Tsamaya Ave, 14319 Tsamaya Avenue, Medex Care",Mamelodi,Gauteng,012 8011155,28°22′59.478″E,25°42′33.034″S,View Map
615641,MASIA,Yes,"Ext 45 Rosslyn Gardens, 2251 Ikhambi Street, Rosslyn",Akasia,Gauteng,067 0936549,28°4′1.507″E,25°37′6.54″S,View Map
635065,DR PEER AND PARTNERS INC,Yes,185 Meyer Street,Germiston,Gauteng,011 8250252,28°9′48.78″E,26°12′50.328″S,View Map
635855,DLAMINI,Yes,16992 Mathewson Street,Daveyton,Gauteng,011 4247868,,,
638196,DR SAUERMANN AND PARTNERS INCORP,No,"Shop 22 Pick N Pay Hyper, Atterbury Road, Faerie Glen",Pretoria,Gauteng,012 0040661,28°18′17.068″E,25°47′2.167″S,View Map
645419,DR D M RAKUMAKOE INCORPORATED,Yes,"128 Fox Street, Marshalltown",Johannesburg,Gauteng,010 1419500,28°2′40.416″E,26°12′22.068″S,View Map
693901,ONAKOYA,Yes,"25 A Celtis Ridge Shopping, Centre Seedcracker Street, Centurion",Centurion,Gauteng,012 0019377,28°6′47.179″E,25°52′33.744″S,View Map
700711,DR CAJEE AND ASSOCIATES INC,Yes,"Area 4 Eastern Concourse Park, Station Wanderers Street, Johannesburg",Johannesburg,Gauteng,011 3334597,28°2′29.738″E,26°11′43.878″S,View Map
702234,KRUGER,No,62 Ueckermann Street,Heidelberg,Gauteng,016 3414121,,,
706582,FATEYE,Yes,"Shop 305 Dobsonville Mall, 75 Elias Motsoaledi Road, Dobsonville",Soweto,Gauteng,011 9888381,27°52′23.261″E,26°13′30.143″S,View Map
2143,SAID,Yes,"Shop 9 Pick N Pay Centre, Cnr Briggs & Forbes Street, Westonaria",Westonaria,Gauteng,011 7532091,27°39′17.501″E,26°19′6.687″S,View Map
16667,KAKA,Yes,"Drift Boulevard, Muldersdrif",Krugersdorp,Gauteng,072 6596494,27°51′16.535″E,26°1′46.413″S,View Map
21431,DR T A OLODE AND PARTNER,Yes,"66 Bedford Avenue, Benoni",Benoni,Gauteng,011 8452809,28°19′3.152″E,26°11′17.944″S,View Map
26530,SMIT,No,"Shop U002 1st Floor, North Rand Road, Beyerspark",Boksburg,Gauteng,011 8265801,28°14′16.434″E,26°10′47.445″S,View Map
27677,MONNAKGOTLA,Yes,"4757 Tigerfish Street, Kaalfontein Ext 17",Midrand,Gauteng,011 2611968,28°10′22.648″E,25°59′17.028″S,View Map
30333,MOLAPISI,Yes,"43 Sontonga Road, Ramokonopi East",Germiston,Gauteng,011 9055643,28°9′43.92″E,26°21′21.816″S,View Map
31429,CHAUKE,Yes,"192/3 Mokhetle Street, Soshanguve Block Uu",Soshanguve,Gauteng,012 7917987,28°4′25.319″E,25°33′7.447″S,View Map
31984,MOOLLA,Yes,"12 Fedler Street, Randfontein",Randfontein,Gauteng,011 6935697,27°41′56.004″E,26°11′2.616″S,View Map
37338,ESAT,Yes,"34 Xavier Street, Robertsham",Johannesburg South,Gauteng,011 6803474,28°0′26.892″E,26°15′7.596″S,View Map
37834,SLABBERT J D & ODENDAAL L,Yes,"Witpoortjie Medical Centre, 26 Mc Grath Avenue, Witpoortjie",Roodepoort,Gauteng,011 7624223,27°49′43.824″E,26°8′37.5″S,View Map
50687,SOOKRAJ,Yes,"229 Enkeldoorn Avenue, Montanapark",Pretoria,Gauteng,012 5481295,28°15′10.508″E,25°41′1.651″S,View Map
54364,CARNO,Yes,"49 Rifle Range Road, Ridgeway",Johannesburg South,Gauteng,011 6802226,27°59′56.63″E,26°15′25.222″S,View Map
68438,NTOANE,Yes,"Unknown, Soshanguve Block Bb",Soshanguve,Gauteng,012 7900004,28°6′12.562″E,25°29′22.127″S,View Map
69752,NDWAMBI,Yes,"Unknown, Soshanguve Block R",Soshanguve,Gauteng,012 7122105,28°6′44.164″E,26°16′14.733″S,View Map
70513,MUHAMMAD,Yes,"3 - 9 Fuschia Road, Klipspruit West",Soweto,Gauteng,011 9472411,27°52′46.991″E,26°17′28.396″S,View Map
70866,YAKO,Yes,"3814 Ralerata Street, Mohlakeng",Randfontein,Gauteng,011 4147088,,,
71072,DU PLOOY,No,"15 Doring Avenue, Montanapark",Pretoria,Gauteng,012 5486882,28°14′54.898″E,25°40′59.06″S,View Map
71080,BHIKHA,Yes,"Suite 16 Ground Floor Barclay, Square 293 Rissik Street, Sunnyside",Pretoria,Gauteng,012 3410142,28°12′17.306″E,25°45′28.946″S,View Map
71277,DOUW-KHUMALO,Yes,"1377 Moepshe Street, Othandweni Ext 1",Thokoza,Gauteng,011 8604864,28°8′0.777″E,26°21′39.605″S,View Map
73067,MOKHESI,Yes,"27 Jansen Avenue, Randpark Ridge",Randburg,Gauteng,081 2143687,28°2′36.888″E,26°8′40.416″S,View Map
77615,OKHUE,Yes,2847 Cnr 1 & 6,Diepsloot,Gauteng,012 0231881,28°0′41.4″E,25°55′48.72″S,View Map
82120,THOBANE,Yes,"Site 7604b, Cnr Ben Naude & Marthinus Street",Diepkloof Zone 2,Gauteng,011 9858627,27°57′14.04″E,26°15′0″S,View Map
83011,TSHIYOYO,Yes,"Unknown, Mabopane",Mabopane,Gauteng,083 4970806,28°3′19.009″E,25°30′45.655″S,View Map
84441,ESSACK Y M & MITHA E A,Yes,"Rivonia Village Unit 5, 1st Floor Rivonia Boulevard, Rivonia",Sandton,Gauteng,016 9338723,27°50′10.976″E,26°41′49.783″S,View Map
85324,HLEZIYO,Yes,"Sebokeng Plaza, 22 Moshoeshoe Street, Sebokeng",Sebokeng,Gauteng,016 5923378,27°50′46.364″E,26°36′8.402″S,View Map
88390,MATABANE,Yes,"Cnr D M Marokane & Reverend R T, J Namane Drive, Tembisa",Tembisa,Gauteng,011 2014795,28°13′9.101″E,25°59′50.811″S,View Map
88498,MOKOENA,Yes,"Phase 2, 2314 Main Road, Tshepiso",Vanderbijlpark,Gauteng,016 4518906,27°52′27.362″E,26°40′24.092″S,View Map
92150,MATHEBULA,Yes,"4590 Cnr Sotho & Malandela, Street, Tsakane",Brakpan,Gauteng,011 7382814,28°22′36.503″E,26°21′10.715″S,View Map
92959,SALEH,Yes,"Building 1 Unit 2 Visiomed, Office Park 269 Beyers Naudé, Blackheath",Randburg,Gauteng,011 6786740,27°58′19.041″E,26°7′52.48″S,View Map
97934,PILLAY,Yes,"Benoni Health Centre, 54 Harpur Avenue, Benoni",Benoni,Gauteng,011 8453563,28°19′16.323″E,26°11′31.67″S,View Map
101435,NAICKER,Yes,"Shop C02e Atlyn Shopping Centre, Phudufufu Street, Atteridgeville",Pretoria,Gauteng,012 3730303,28°5′24.163″E,25°46′12.185″S,View Map
104973,BALOYI,Yes,"4362 Extension 3, Zamdela",Sasolburg,Gauteng,016 9741076,27°52′9.255″E,26°51′58.416″S,View Map
108359,RAMPHELE,Yes,"Tsenelong Section, 318 Cnr Kutse & Etosha Street, Tembisa",Tembisa,Gauteng,011 9241993,28°13′1.498″E,26°0′0.474″S,View Map
108448,TABANE,Yes,"Section U, 6925 Magnolia Street, Mamelodi West",Pretoria,Gauteng,012 8050164,28°20′54.506″E,25°43′4.765″S,View Map
109878,NTENJWA-MAYABA,Yes,"7930 Cnr Xaba & Nkaki Street, Tokoza",Thokoza,Gauteng,011 8601234,28°8′15.183″E,26°20′45.043″S,View Map
113158,ITSWENG,No,"Section T, 8498 Khubone Drive, Mamelodi West",Pretoria,Gauteng,012 8053631,28°20′38.09″E,25°42′39.365″S,View Map
125261,KAZI,Yes,"Suite101 Midrand City, Old Pretoria Road, Halfway House",Midrand,Gauteng,011 3153283,28°7′34.701″E,25°59′55.811″S,View Map
131148,ALEKAR,Yes,"51 Commando Road, Industria",Johannesburg,Gauteng,011 4741426,27°57′53.862″E,26°11′27.628″S,View Map
137391,LAHER,Yes,"313 Commissioner Street, Jeppestown",Johannesburg,Gauteng,010 0233965,28°3′46.083″E,26°12′10.668″S,View Map
137448,REBESE,Yes,"Room 628 Eyethu Medical Centre, Cnr Chris Hani & Vilakazi Road, Dlamini Ext 1",Soweto,Gauteng,011 9866275,27°52′29.037″E,26°16′14.941″S,View Map
139130,MATEBULA,Yes,"1493 Camel Crescent, Diepkloof Ext",Diepkloof,Gauteng, ,27°57′25.172″E,26°15′0″S,View Map
144096,CASSIM,No,"Medpark Building, 2 N J Van Der Merwe Crescent, Sasolburg",Sasolburg,Gauteng,016 0040012,27°49′33.568″E,26°48′41.708″S,View Map
147125,VAN STADEN,No,"10 Cardigan Street, Dalview",Brakpan,Gauteng,010 534 6677,28°21′18.288″E,26°14′44.844″S,View Map
149144,KHAN,Yes,"212 Perry Avenue, Eersterus",Pretoria,Gauteng,012 8067401,28°18′28.881″E,25°42′58.131″S,View Map
150924,BEEKA,No,"The Family Practice, 356 Seventh Road, Halfway Gardens",Midrand,Gauteng,011 3156405,28°6′43.099″E,25°59′13.577″S,View Map
153591,SIBEKO,No,"Shop 12 Ekspa Building, D F Malan Street, Vanderbijlpark",Vanderbijlpark,Gauteng,016 9311389,27°50′15.223″E,26°41′51.904″S,View Map
153753,MOLOTO,Yes,"Mayibuye Shopping Centre, 6-409 Rotweiler Street, Commercia",Midrand,Gauteng,011 3107989,28°10′31.304″E,26°1′59.354″S,View Map
154601,WA MATAMBA,Yes,"Olifantsfontein Shopping Centre, Main Road, Clayville Industrial",Olifantsfontein,Gauteng,011 3161017,28°14′16.314″E,25°58′7.063″S,View Map
157422,KUNZMANN,Yes,"Suite 17 G Eting Centre, 211 Beckett Street, Arcadia",Pretoria,Gauteng,012 3442211,28°13′1.864″E,25°44′40.95″S,View Map
157716,MABASA,Yes,"Shop 2 Palm Springs Mall, Cnr St Patrick & Falcon Road, Vereeniging",Vereeniging,Gauteng,016 5811401,27°50′51.108″E,26°29′49.056″S,View Map
170038,SACK,Yes,"Carecross, 95 High Street, Brixton",Johannesburg,Gauteng,011 8377777,27°59′49.02″E,26°11′35.736″S,View Map
172650,MARAPYANE,Yes,"29 September Drive, Tembisa",Tembisa,Gauteng,011 9252084,28°11′4.788″E,26°0′32.633″S,View Map
173452,ROOKNOODEEN,Yes,"69 Pretoria Street, Krugersdorp",Krugersdorp,Gauteng,011 6607374,27°46′13.548″E,26°5′50.46″S,View Map
176508,GREY P C & DE BEER J J,No,"347 Dey Street, Nieuw Muckleneuk",Pretoria,Gauteng,012 4608804,28°13′54.014″E,25°46′29.641″S,View Map
178268,MADISAKWANE,Yes,"Suite 10 Zanspruit Value Center, Cnr Beyers Naude Peter Road",Honeydew,Gauteng,078 5767098,27°54′5.568″E,26°3′37.509″S,View Map
178683,BHABHA B A & BHABHA Z,Yes,23 Nicol Road,Bedfordview,Gauteng,011 6157214,28°7′31.26″E,26°10′48.036″S,View Map
179043,CHABALALA MIHLOTI INCORPORATED,Yes,"7830 Noko Street, Protea Glen Ext 11",Soweto,Gauteng,011 2970290,27°47′58.246″E,26°16′15.759″S,View Map
179264,ABOUCHABKI,No,"4th Floor Hatfield Plaza, 1122 Burnett Street, Hatfield",Pretoria,Gauteng,012 3625870,28°14′8″E,25°45′0″S,View Map
180173,JAPHTA,Yes,"17 Mkhoma Street, Tokoza Ext 2",Thokoza,Gauteng,011 3859709,28°8′8.574″E,26°21′58.942″S,View Map
180300,MABELA,Yes,"2170 Erf/70 Opposite Spar, Supermarket C/o Amandla &, Freedom Drive",Braamfischerville,Gauteng,010 2990035,27°52′0.791″E,26°12′6.709″S,View Map
180696,RASDIEN,Yes,"35 Cnr Hexriviersberg Avenue &, Olywenhout Street, Bosmont",Randburg,Gauteng,011 4747864,27°57′14.422″E,26°11′8.813″S,View Map
192759,HASSIM,Yes,"68 Mint Road, Fordsburg",Johannesburg,Gauteng,011 8348227,28°1′16.924″E,26°12′11.346″S,View Map
199915,MADI,Yes,"Shop 9 Karenpark Crossing Mall, Cnr Doreg & Heinrich Avenue, Karenpark",Akasia,Gauteng,087 8021713,28°6′26.099″E,25°40′15.919″S,View Map
205869,MOOSAJEE M A S & PARTNER,Yes,"Medical Centre, 135 Rose Avenue, Lenasia Ext 2",Lenasia,Gauteng,011 8545959,27°50′8.294″E,26°19′19.544″S,View Map
892,GOVENDER,Yes,"437 Clark Road, Glenwood",Durban,Kwazulu Natal,031 2013095,30°59′19.14″E,29°51′14.76″S,View Map
5568,MOODLEY,Yes,"215 Croftdene Drive, Croftdene",Chatsworth,Kwazulu Natal,031 4035496,30°53′39.616″E,29°55′22.389″S,View Map
10685,RAJKISSOR & VANMARIE INCORPORATE,Yes,"Merebank Railway Station, 1467 South Coast Road, Mobeni",Durban South,Kwazulu Natal,031 4625458,30°57′27.343″E,29°56′41.176″S,View Map
15083,MOODLEY,Yes,"189 Umhlanga Rocks Drive, Durban North",Durban North,Kwazulu Natal,031 5630518,31°2′22.647″E,29°46′4.331″S,View Map
15466,MHLUNGU,Yes,"Crompton Health Centre, 50 Josiah Gumede Road, Pinetown",Pinetown,Kwazulu Natal,031 7021719,30°51′34.856″E,29°48′54.423″S,View Map
31577,RADHAKISSON,Yes,"Netcross Medical Centre, 2 Anchova Place, Newlands East",Newlands East,Kwazulu Natal,031 5777897,30°58′46.08″E,29°46′7.716″S,View Map
48887,GOVENDER,Yes,"Shop 3 Christain Village Mall, 46 Old Main Road",Hillcrest,Kwazulu Natal,031 7618190,30°56′49.92″E,29°30′38.52″S,View Map
70009,VISAGIE,Yes,"Matshana Reserve, Lot 112, Old Main Road",Underberg,Kwazulu Natal,033 7011105,29°29′58.128″E,29°47′37.237″S,View Map
70467,RAMSUMER,Yes,"455 Gopalall Hurbans Road, Gandhi's Hill",Tongaat,Kwazulu Natal,032 9448608,31°7′12.318″E,29°33′50.719″S,View Map
71056,SOMERA,Yes,"Shop 2 Ally Centre, Calendula Avenue, Craigieburn",Umkomaas,Kwazulu Natal,039 9796791,30°45′12.417″E,30°12′9.863″S,View Map
71374,MAHARAJ,Yes,"Amen Medical Centre, 55 George Sewpersadh Street, Verulam",Verulam,Kwazulu Natal,032 5331190,31°2′54.949″E,29°38′31.002″S,View Map
73490,GOVENDER,Yes,"2 Camelia End, Trenance Park",Amaotana,Kwazulu Natal,032 5357639,31°0′48.951″E,29°39′35.869″S,View Map
73946,GOVENDER,Yes,"550 Mountbatten Drive, Reservoir Hills",Durban,Kwazulu Natal,031 2622797,30°57′30.413″E,29°48′5.102″S,View Map
78859,CHATHURY,Yes,"Shop 13 Springfield Park, 17 Palmfield Road, Springfield Park",Durban,Kwazulu Natal,031 5795541,30°59′53.468″E,29°48′19.653″S,View Map
89710,NKOSI,No,"Shop 12 Bus & Taxi City, Inkosi Mtubatuba Road, Mtubatuba",Mtubatuba,Kwazulu Natal,035 5500208,32°11′17.063″E,28°24′51.624″S,View Map
99724,SING,No,"North Beach Medical Centre, 37 Sol Harris Crescent, North Beach",Durban,Kwazulu Natal,031 3326060,31°1′58.248″E,29°50′28.861″S,View Map
100110,LEKHA,Yes,"Shop 2 Ushaka Square, 64 Old Main Road, Shakaskraal",Dolphin Coast,Kwazulu Natal, ,31°13′13.216″E,29°26′56.348″S,View Map
100358,DE BRUIN,Yes,"21 Egerton Road, Ladysmith",Ladysmith,Kwazulu Natal,036 6377018,29°47′2.636″E,28°33′1.351″S,View Map
103292,NXUMALO,Yes,"Shop 3 Shivile Centre, 1 Jacob Cohn Street, Melmoth",Melmoth,Kwazulu Natal,035 4507120,31°24′1.326″E,28°35′35.478″S,View Map
109754,RAWAT,Yes,"333 Randles Road, Sydenham",Berea,Kwazulu Natal,031 2082030,30°59′3.35″E,29°50′5.646″S,View Map
127590,MAGUBANE,Yes,"Unit T13 Mapumulo Thusong, Centre 1106 Zazi Road, Maphumulo",Kwadukuza,Kwazulu Natal,032 4812167,30°53′26.938″E,29°47′12.766″S,View Map
128082,MOTALA,Yes,"Shop 9 Murray Square, 46 Josiah Gumede Road, Pinetown",Pinetown,Kwazulu Natal,031 7024870,30°51′34.39″E,29°48′55.4″S,View Map
140201,AZMUTH,Yes,"19 Roland Chapman Drive, Montclair",Durban South,Kwazulu Natal,031 4622573,30°58′29.9″E,29°55′1.536″S,View Map
140287,LAZARUS,Yes,"Suite 11b Chatsworth Centre, 17 Joyhurst Street, Westcliff",Chatsworth,Kwazulu Natal,031 4038383,30°52′53.045″E,29°54′46.593″S,View Map
143774,NTULI,Yes,"Lot No 19, Flint Street",Nqutu,Kwazulu Natal,034 2710442,30°40′4.094″E,28°12′52.016″S,View Map
151505,JAGARNATH,Yes,"Howick Medical Centre, 20 Bell Street, Howick",Howick,Kwazulu Natal,033 3305949,30°13′54.236″E,29°29′3.846″S,View Map
165395,AMEER,Yes,"122 Albert Street, Estcourt",Estcourt,Kwazulu Natal,036 3521386,29°52′33.541″E,29°0′23.476″S,View Map
166553,VAN SCHALKWYK & PARTNERS,No,"157 Victoria Road, Pietermaritzburg",Pietermaritzburg,Kwazulu Natal,033 3458010,30°22′16.089″E,29°35′49.664″S,View Map
169927,PADAYACHEE,Yes,"14 Bisset Street, Umkomaas",Umkomaas,Kwazulu Natal,039 9732361,30°48′1.089″E,30°12′10.994″S,View Map
174513,MOLIFE,No,"3241 Isibhubhu Street, Esikhawini",Empangeni,Kwazulu Natal,035 7962325,31°54′57.676″E,28°52′3.662″S,View Map
182087,GELDENHUYS,Yes,"34 Generaal Botha Street, Memel",Memel,Kwazulu Natal,058 9240442,29°34′1.285″E,27°40′56.638″S,View Map
184284,CHETTY,No,"Shop 22 1st Floor Glenwood, Village Centre 397 Che Guevara, Glenwood",Berea,Kwazulu Natal,031 2012519,30°59′48.644″E,29°51′15.953″S,View Map
189227,MANGA,No,"Southgate Medical Centre, 19 Trelawney Road, Bisley",Pietermaritzburg,Kwazulu Natal,033 3482017,30°22′58.296″E,29°38′22.74″S,View Map
190012,ESSACK,Yes,"7 Uplands Road, Margate",Margate,Kwazulu Natal,039 3171386,30°22′4.617″E,30°51′50.12″S,View Map
199435,BUDHOO,Yes,"Shop 11 Aslam Heights, 612 Randles Road, Sydenham",Berea,Kwazulu Natal,031 2073499,30°58′58.042″E,29°49′35.764″S,View Map
201138,HUISAMEN,Yes,"Shop 5-6 Bay Centre, 59 Bullion Boulevard",Richards Bay,Kwazulu Natal,035 7897805,32°2′56.98″E,28°45′15.371″S,View Map
204358,MKWANAZI,No,"Stand A7278 Osizweni Medical, Centre, Osizweni",Newcastle,Kwazulu Natal,082 9234037,30°9′42.541″E,27°46′41.189″S,View Map
206326,PILLAY,Yes,"99 Buldana Road, Merebank",Durban South,Kwazulu Natal,031 4612821,30°58′50.142″E,29°57′49.208″S,View Map
208515,BUDHOO,Yes,"286 Sea Cow Lake Road, Sea Cow Lake",Durban North,Kwazulu Natal,031 5792533,31°0′21.211″E,29°48′14.879″S,View Map
210080,NTSHANGASE,Yes,"Ladysmith Medical Centre, 271b Murchison Street, Ladysmith",3370,Kwazulu Natal,036 6314859,29°46′57.995″E,28°33′21.996″S,View Map
215481,SHANGE,Yes,"Suite 540 Commercial City, Building 40 Dr A B Xuma Street, Durban",Durban,Kwazulu Natal,031 3051922,31°1′18.134″E,29°51′23.292″S,View Map
217662,SIECKER,No,"42 Voortrekker Street, Newcastle",Newcastle,Kwazulu Natal,034 3151557,29°56′3.239″E,27°45′32.998″S,View Map
221597,FIRMIN,Yes,"382 Tara Road, 2nd Building, Bluff",Durban,Kwazulu Natal,031 0652951724,30°59′51.252″E,29°55′25.723″S,View Map
230502,NGCOBO,Yes,"Shop 1 Mandini Square Centre, 502 Long Street, Mandeni",Mandini,Kwazulu Natal,032 4562227,31°24′38.057″E,29°9′18.312″S,View Map
235261,S R PATEL INCORPORATED,Yes,"Shop 101 Checkers Southway Mall, 27 Titren Road, Sea View",Durban South,Kwazulu Natal,031 4658723,30°58′26.775″E,29°53′52.421″S,View Map
235334,DR Y MAHARAJ INC,Yes,"Standard Bank Building, 21 Power Drive, Prospecton",Prospecton,Kwazulu Natal,031 9022208,30°55′48.083″E,30°0′15.278″S,View Map
235342,S JHUGROO INCORPORATED,Yes,"1st Floor Union Centre, 45 Josiah Gumede Road, Pinetown",Pinetown,Kwazulu Natal,031 7010603,30°51′34.08″E,29°48′50.776″S,View Map
238953,DR A RAMLUKHEN INCORPORATED,Yes,"525-527 Anton Lembede Street, Durban",Durban,Kwazulu Natal,031 3061112,31°0′53.83″E,29°51′40.146″S,View Map
242470,DUKI,No,"53 Alhambra Drive, Mount View",Verulam,Kwazulu Natal,032 5336637,31°1′58.137″E,29°39′9.756″S,View Map
247839,ABOOBAKER,Yes,"Shop 1 The Meridian, 6 Meridian Drive, Umhlanga Ridge",Umhlanga,Kwazulu Natal,031 5664439,31°3′46.39″E,29°43′22.465″S,View Map
248185,MATHAILA,Yes,No 1124 Section 2,Madadeni,Kwazulu Natal,034 3291425,30°2′12.84″E,27°44′56.04″S,View Map
250236,MASINGA,No,"Shop 6 Melmoth Plaza, Reinhold Street, Melmoth",Melmoth,Kwazulu Natal,035 4500000,31°24′8.035″E,28°35′21.75″S,View Map
251151,MATHABELA,Yes,"P449 Road, Jozini",Jozini,Kwazulu Natal,076 8839724,32°6′22.748″E,27°26′26.917″S,View Map
254207,MAHARAJ,Yes,"Sondela Trading Store, Manqoba Road, Bothas Hill",Outer West Durban,Kwazulu Natal,031 7774627,30°45′25.727″E,29°41′38.31″S,View Map
262536,SIFO,Yes,"1 Balloon Street, Matatiele",Matatiele,Kwazulu Natal,039 7373782,28°48′20.846″E,30°20′10.68″S,View Map
266914,LAZARUS,Yes,"Shop 7c Jamaica Junction, 66 Olympia Street, Shallcross",Queensburgh,Kwazulu Natal,031 4097411,30°51′38.546″E,29°52′57.42″S,View Map
281247,BISRAM,Yes,"139 George Sewpersadh Street, Grange",Verulam,Kwazulu Natal,032 5334118,31°2′28.655″E,29°38′22.146″S,View Map
289132,GOVENDER,Yes,"Shop 4 Hibberdene Village Mall, Marlin Drive, Hibberdene",Hibberdene,Kwazulu Natal,039 6992723,30°34′21.076″E,30°34′44.522″S,View Map
300152,NAICKER,No,"125 Welbedacht Road, Risecliff",Chatsworth,Kwazulu Natal,031 4045885,30°51′28.77″E,29°54′53.792″S,View Map
301698,KHUMALO,Yes,"Shop 23 Mpophomeni Shopping, Mall 1043 Mandela Drive, Mpophomeni",Umhlabuyalingana Rural,Kwazulu Natal,033 3291013,30°10′45.403″E,29°33′10.165″S,View Map
325864,BADLOO,Yes,"Shop 4 Amanat Centre, 21 Centre Street, Newcastle",Newcastle,Kwazulu Natal,081 3339888,29°54′46.661″E,27°45′45.133″S,View Map
338591,NODADA,Yes,"156 Pine Street, Greytown",Greytown,Kwazulu Natal,033 4132044,30°35′20.62″E,29°3′40.625″S,View Map
339040,NAIDOO,Yes,"69 King Shaka Street, Kwadukuza",Kwadukuza,Kwazulu Natal,032 5511544,31°17′32.912″E,29°20′20.338″S,View Map
342815,DR M BHIMAN 196 INC,Yes,"75 Wick Street, Verulam",Verulam,Kwazulu Natal,032 5332164,31°2′49.501″E,29°38′35.153″S,View Map
360775,COOPSAMY,Yes,"Shop 5 Starwood Mall, 3 Andromeda Street, Starwood",Durban,Kwazulu Natal,031 5009080,31°0′7.982″E,29°42′16.368″S,View Map
369578,ABOOBAKER INCORPORATED,Yes,"Shop 3, V863",Umlazi,Kwazulu Natal,031 9068448,30°55′39.208″E,29°57′32.061″S,View Map
383406,NAIDOO,No,"65 Main Road, Malvern",Durban,Kwazulu Natal,031 4643001,30°55′30.586″E,29°52′48.222″S,View Map
393010,PARUK AND MAHOMEDI,Yes,"15 Posselt Road, New Germany",Pinetown,Kwazulu Natal,031 7051931,30°53′30.316″E,29°47′51.545″S,View Map
393177,N GOVENDER AND PARTNERS INCORPOR,Yes,"Shop 1a Phoenix Plaza, 19 Parthenon Street, Phoenix",Phoenix,Kwazulu Natal,031 5004791,31°0′18.999″E,29°42′5.53″S,View Map
405744,NAIDOO,Yes,"Shop 5 Lot 32 Ushaka Medical, Centre Old Main Road, Dolphin Coast",Dolphin Coast,Kwazulu Natal,084 7699486,31°13′4.266″E,29°28′40.488″S,View Map
407445,SMITH,No,"13 Jan Kemp Street, Pongola",Pongola,Kwazulu Natal,034 4132135,31°36′40.862″E,27°22′37.295″S,View Map
433802,NXUMALO,Yes,Po Box 2072,Vryheid,Kwazulu Natal,034 9832165,,,
439622,PILLAY,No,"Suite 4 The Odyssey Ballito, 1 Simbithi Drive, Ballito",Dolphin Coast,Kwazulu Natal,032 9431111,31°12′24.371″E,29°31′36.518″S,View Map
448257,KATHRADA,No,"658 Marine Drive, Brighton Beach",Bluff,Kwazulu Natal,031 4671631,31°0′7.498″E,29°56′19.549″S,View Map
452920,NGWENYA,Yes,"Shop 36 Queensmead Mall, 95 Teignmouth Road, Umbilo",Berea,Kwazulu Natal,031 2050568,30°59′1.492″E,29°52′57.965″S,View Map
461369,MAHOMED KAJEE AND MOHAMED KADER,Yes,"Suite 1 Mahomed Medical Centre, 8 Pardy Road, Isipingo Rail",Isipingo,Kwazulu Natal,031 9029740,30°55′35.178″E,29°59′4.107″S,View Map
469548,HANSRAJ K AND ASSOCIATE,Yes,"464 Inanda Road, Parlock",Newlands West,Kwazulu Natal,031 5771322,30°58′49.239″E,29°47′59.146″S,View Map
479403,NDLOVU,Yes,"Superspar Building, 24 Josiah Gumede Road, Pinetown",Pinetown,Kwazulu Natal,031 9409761,30°51′25.476″E,29°48′51.04″S,View Map
481726,S A MAZIBUKO AND ASSOCIATES INC,Yes,"Shop 1262 Ngwelezana Shopping, Centre Main Road, Empangeni",Empangeni,Kwazulu Natal,035 7941262,31°51′45.155″E,28°46′25.658″S,View Map
508454,VAN NIEKERK,Yes,"28 Cnr Victoria Road & Rooibok, Avenue, Newcastle",Newcastle,Kwazulu Natal,034 3124324,29°56′3.476″E,27°44′21.808″S,View Map
517585,DEVANATHAN,Yes,"78 Meadow Road, Savannah Park",Durban,Kwazulu Natal,031 7061637,30°50′55.32″E,29°53′3.84″S,View Map
561339,NGCOBO S R AND KHANYILE R M,Yes,"Shop Ll03 Umlazi Mega City, 50 Griffiths Mxenge Highway, Umlazi",Umlazi,Kwazulu Natal,031 9028808,30°56′18.755″E,29°57′17.291″S,View Map
606057,DR TIVOLEN GEORGE INCORPORATED,Yes,"118a Camper Drive, Havenside",Chatsworth,Kwazulu Natal,031 4006828,30°55′31.243″E,29°55′50.182″S,View Map
613975,MBONAMBI,Yes,"Jozini Health Centre, Main Road, Jozini",Jozini,Kwazulu Natal,035 5721494,32°4′5.061″E,27°25′46.796″S,View Map
629413,ERASMUS,No,"13 Jan Kemp Street, Pongola",Pongola,Kwazulu Natal,034 4132135,31°36′40.862″E,27°22′37.295″S,View Map
656143,SONI,Yes,"2 Belmont Road, Effingham Heights",Durban,Kwazulu Natal,031 5633060,,,
692514,SEBASTIAN,No,"Africa Medical Centre, 150 Mariannridge Drive, Caversham Glen",Pinetown,Kwazulu Natal,031 7001637,30°50′54.395″E,29°50′15.676″S,View Map
702676,NAIDOO,No,"North Beach Medical Centre, 37 Sol Harris Crescent, North Beach",Durban,Kwazulu Natal,031 3326060,31°1′57.9″E,29°50′30.804″S,View Map
736686,JOOSAB,Yes,"L-section, 175 Nyala Road, Kwamashu",Kwamashu,Kwazulu Natal,031 5011033,30°58′37.704″E,29°44′3.341″S,View Map
742953,ESSACK,Yes,"Shop 2 Finsbury Court, 85 West Street, South Beach",Durban,Kwazulu Natal,031 3320683,31°2′6.77″E,29°51′24.379″S,View Map
743194,DR M I ADAM INC,Yes,"39 Market Street, Mooi River",Mooi River,Kwazulu Natal,033 2631540,29°59′55.446″E,29°12′34.969″S,View Map
785997,DRS MOORAD A A AND ASMAL S,Yes,"75 Helen Joseph Road, Bulwer",Berea,Kwazulu Natal,031 2018512,31°0′2.681″E,29°51′41.253″S,View Map
794627,DR NKOSI L E AND KHUMALO S N,Yes,"Shop 28 Murchison Mall, Lyell Street, Ladysmith",Ladysmith,Kwazulu Natal,087 5270265,29°46′56.329″E,28°33′30.922″S,View Map
812870,TIW NDLOVU INC,Yes,"Stand 1316 Mahashini Section, Wembezi",Estcourt,Kwazulu Natal,036 3533795,29°47′21.731″E,29°2′42.04″S,View Map
813729,ZIMU,Yes,"Carecross Medical Centre, 125 Balcomb Street, Kwadukuza",Kwadukuza,Kwazulu Natal,032 5521716,31°17′14.971″E,29°20′24.277″S,View Map
821004,MORRIS,No,49 Scott Street,Scottburgh,Kwazulu Natal,039 9783344,,,
821772,ANANTH,Yes,"Room 11, Mobeni Heights Shopping Complex, Mobeni Heights Drive",Mobeni Heights,Kwazulu Natal,031 4002457,,,
885711,MAHARAJ,No,"Oxford Village, 9 Old Main Road, Hillcrest",Hillcrest,Kwazulu Natal,031 0010326,30°46′22.439″E,29°47′19.697″S,View Map
946656,DR P NADESAN INC,Yes,"Suite 23, 174 Underwood Road, Sarnia",Pinetown,Kwazulu Natal,031 7085797,30°52′27.1″E,29°50′8.758″S,View Map
981028,NADASEN,Yes,"70 Longcroft Drive, Lon Comfort",Durban,Kwazulu Natal,031 5007214,,,
1051830,MTHEMBE,Yes,"Shop 6, 1 Peseta Parade, Richards Bay",Richards Bay,Kwazulu Natal,035 7890322,32°2′48.387″E,28°44′52.099″S,View Map
1092987,GOVENDER,Yes,"Suite C5 Seadoone Mall, 21-37 Seadoone Road, Doonside",Kingsburgh,Kwazulu Natal,031 9033420,30°52′18.102″E,30°4′2.312″S,View Map
1401076,VAN NIEKERK,Yes,"Bazley Medical Centre, 25 Bazley Street, Port Shepstone",Port Shepstone,Kwazulu Natal,039 6821000,30°27′2.758″E,30°44′29.325″S,View Map
1402560,MAHARAJ,Yes,"Suite 2 Snib Centre, Nelson Mandela Road, Umzinto",Scottburgh/Umzinto North,Kwazulu Natal,039 9742901,30°40′0″E,30°18′15.949″S,View Map
1405136,BALGOBIND,Yes,"15 Gowran Gardens, Avoca Hills",Newlands East,Kwazulu Natal,031 5652650,31°0′18.305″E,29°45′26.712″S,View Map
1407066,BEHARIRAM,Yes,"Shop 12 San Marco Centre, Francis Road, Ladysmith",Ladysmith,Kwazulu Natal,036 6310820,29°46′17.79″E,28°33′22.972″S,View Map
1412949,BHARATH,Yes,"45 Klaarwater Road, Shallcross",Queensburgh,Kwazulu Natal,031 4095811,30°52′16.036″E,29°53′24.641″S,View Map
1416642,DANIELS,Yes,"50 Mysore Road, Raisethorpe",Pietermaritzburg,Kwazulu Natal,033 3970634,30°24′12.473″E,29°33′57″S,View Map
1420704,DOOKEN,Yes,"9 Canterpalm Road, Palmview",Phoenix,Kwazulu Natal,031 5057512,31°1′28.988″E,29°40′34.559″S,View Map
1422383,KOOBAIR,Yes,"Suite 1 Nxa - Block Mount, Edgecombe Med Cntre 163-169, Redberry Road",Rockford,Kwazulu Natal,031 5022278,31°2′7.538″E,29°42′55.815″S,View Map
1422774,"MAREE, MAREE, SMIT WESSELS",Yes,"10 Byrne Street, Empangeni",Empangeni,Kwazulu Natal,035 7721717,31°53′14.337″E,28°44′38.593″S,View Map
1423819,SEWPERSAD,Yes,211 High Terrace Drive,Crossmoor,Kwazulu Natal,031 4092332,30°51′34.92″E,29°53′38.076″S,View Map
1424173,SCHWELLNUS T E G & PARTNER,Yes,"84 Victoria Street, Dundee",Dundee,Kwazulu Natal,034 2122163,30°13′54.033″E,28°9′59.319″S,View Map
1424815,PANDAY,Yes,"3 Tom Tom Road, Kwandengezi",Kwandengezi,Kwazulu Natal,031 7046209,30°46′14.299″E,29°51′7.078″S,View Map
1425285,GOVENDER,Yes,"Meremed Medical Centre, 93 Krishna Rabilal Road, Merebank",Durban South,Kwazulu Natal,031 4613898,30°58′14.458″E,29°57′8.726″S,View Map
1427180,SHUNMUGAM,No,"110 Road 601, Arena Park Drive, Arena Park",Chatsworth,Kwazulu Natal,031 4049014,30°52′34.32″E,29°55′8.4″S,View Map
1429833,NAIDOO,Yes,"1-7 Hulett Street, Kwadukuza",Kwadukuza,Kwazulu Natal,032 5513000,31°17′35.235″E,29°20′26.882″S,View Map
1436813,PEER,Yes,"10 Soldiers Way, Durban",Durban,Kwazulu Natal,031 3011897,31°1′22.981″E,29°51′23.138″S,View Map
1437704,SULIMAN,Yes,"Shop 3 Murray Square, Glenugie Road, New Germany",Pinetown,Kwazulu Natal,031 7024902,30°51′27.659″E,29°48′48.272″S,View Map
1437984,MAHARAJ,Yes,"Shop 3 N B S Arcade, 131 Albert Street, Estcourt",Estcourt,Kwazulu Natal,036 3525396,29°52′29.496″E,29°0′25.488″S,View Map
1438115,CASSIM,Yes,"823 Inanda Road, Parlock",Newlands West,Kwazulu Natal,031 5778605,30°58′33.948″E,29°47′27.39″S,View Map
1439502,DADA,Yes,"7 Endee House, 6 Bjorseth Crescent, Amanzimtoti",Amanzimtoti,Kwazulu Natal,031 9037170,30°52′50.754″E,30°3′24.611″S,View Map
1440926,MOTALA,Yes,"Suit 6, 159a Roger Sishi Road, Westville",Westville,Kwazulu Natal,031 2629099,30°54′49.374″E,29°48′44.125″S,View Map
1441760,NEUMAN,Yes,"257 Kerk Street, Vryheid",Vryheid,Kwazulu Natal,034 9821535,30°47′58.539″E,27°45′55.589″S,View Map
1442392,SEETHARAM,Yes,"53 Krishna Rabilal Road, Merewent",Bluff,Kwazulu Natal,031 4611132,30°58′9.698″E,29°56′54.394″S,View Map
1445197,BOBAT,Yes,"Shop 10 Westham Shopping Centre, 10 Gridham Terrace, Westham",Phoenix,Kwazulu Natal,031 5002174,30°59′6.994″E,29°41′49.319″S,View Map
1446673,PARAK,Yes,"23 Main Road, Ixopo",Umzumbe Rural,Kwazulu Natal,039 8342371,30°3′56.906″E,30°8′54.668″S,View Map
1446959,OMAR,Yes,"178 Umgeni Road, Stamford Hill",Durban,Kwazulu Natal,082 8090909,31°1′14.74″E,29°50′47.62″S,View Map
1449214,MCDONOGH,No,"49 Scott Street, Scottburgh",Scottburgh/Umzinto North,Kwazulu Natal,039 9783344,30°45′16.053″E,30°17′23.097″S,View Map
1450573,PARAG,Yes,"4 Bardia Avenue, Reservoir Hills",Durban,Kwazulu Natal,031 2621090,30°56′18.149″E,29°48′13.859″S,View Map
1452177,JAGATHPAL,Yes,320 Park Station Road,Greenwood Park,Kwazulu Natal,031 5644565,31°0′47.052″E,29°47′4.2″S,View Map
1452940,GOVENDER,Yes,"37 Magaliesberg Street, Shallcross",Queensburgh,Kwazulu Natal,031 4099088,30°52′18.57″E,29°53′14.904″S,View Map
1453092,MOODLEY,Yes,"Murchison Street, Harding",Harding,Kwazulu Natal,039 4331732,29°53′10.646″E,30°34′36.985″S,View Map
1453114,SCHUTTE,Yes,"5 Middel Street, Paulpietersburg",Paulpietersburg,Kwazulu Natal,034 9951727,30°48′48.009″E,27°25′9.186″S,View Map
1453726,NAIDU,Yes,"23 Green Road, Hammarsdale",Mpumalanga,Kwazulu Natal,031 7363277,30°39′29.32″E,29°47′44.82″S,View Map
1455745,AKOO,Yes,558 Pietermaritz Street,Pietermaritzburg,Kwazulu Natal,033 3453605,30°23′20.4″E,29°35′27.96″S,View Map
1456830,DURGA,Yes,"Sunford Medical Centre, 1-3 Sunford Drive, Sunford",Phoenix,Kwazulu Natal,031 5076015,31°0′46.587″E,29°41′52.53″S,View Map
1459058,JADWAT,Yes,"349 Himalaya Drive, Shallcross",Queensburgh,Kwazulu Natal,031 4093011,30°52′24.804″E,29°53′37.094″S,View Map
1459414,RANA,Yes,"315 Randles Road, Sydenham",Berea,Kwazulu Natal,031 2082932,30°59′2.195″E,29°50′9.717″S,View Map
1459643,ISMAIL,No,"Suite 2 Raza Oriental Plaza, 54 Pandora Street, Starwood",Durban,Kwazulu Natal,031 5002421,31°0′18.225″E,29°42′12.617″S,View Map
1460153,DE VILLIERS,No,"129 Scott Street, Scottburgh",Scottburgh/Umzinto North,Kwazulu Natal,039 9761312,30°45′21.731″E,30°17′4.579″S,View Map
1460714,VATHER,Yes,"165 Newholme Way, Newholme",Pietermaritzburg,Kwazulu Natal,033 3914626,30°24′9.717″E,29°33′14.018″S,View Map
1461559,MOOLA,Yes,"Shop 7 Old Kfc Building, P53 Bhejane Road, Kwamashu",Kwamashu,Kwazulu Natal,031 5030567,30°58′31.089″E,29°44′43.304″S,View Map
1461877,MAHARAJ,Yes,"13 Blaine Street, Kwadukuza",Kwadukuza,Kwazulu Natal,032 5515647,31°17′10.706″E,29°20′25.369″S,View Map
1461885,BADAT,Yes,"16 Moorton Drive, Moorton",Chatsworth,Kwazulu Natal,031 4048498,30°52′6.885″E,29°54′45.385″S,View Map
1463926,PATHER,Yes,"86 Lenham Drive, Lenham",Phoenix,Kwazulu Natal,031 5079115,30°59′26.526″E,29°42′9.029″S,View Map
1464043,NAIDOO,Yes,"10 Sanele Nxumalo Lane, Gandhinagar",Tongaat,Kwazulu Natal,032 9443820,31°7′0.402″E,29°34′6.326″S,View Map
1464221,BUX,Yes,"Mndeni Clinic, 39 Reynolds Street, Port Shepstone",Port Shepstone,Kwazulu Natal,039 6824948,30°26′58.83″E,30°44′21.667″S,View Map
1464248,DAYANAND,Yes,"Daymed Private Hospital, 595 Chota Motala Road, Raisethorpe",Pietermaritzburg,Kwazulu Natal,033 3871100,30°24′26.793″E,29°33′45.097″S,View Map
1464329,GOVENDER,Yes,"113 Lotus Drive, Lotus Park",Lotus Park,Kwazulu Natal,031 9121854,30°54′31.304″E,30°0′10.569″S,View Map
1467921,EGGERS,Yes,"109 Lorne Street, Estcourt",Estcourt,Kwazulu Natal,036 3521540,29°52′31.944″E,29°0′40.248″S,View Map
1468057,RUGNATH,Yes,"237 Grove End Drive, Grove End",Phoenix,Kwazulu Natal,031 5393059,31°1′35.452″E,29°41′30.102″S,View Map
1469037,GOVENDER,Yes,"Shop 8a Checkers Centre, 1 Osborne Road, Eshowe",Eshowe,Kwazulu Natal,035 4744043,31°27′54.037″E,28°53′53.69″S,View Map
1469274,MAHOMED,Yes,"Next To Isipingo Hospital, 2 Sykes Road, Isipingo Hills",Isipingo,Kwazulu Natal,031 9025510,30°55′33.801″E,29°59′6.601″S,View Map
1470124,JUGMOHAN,Yes,"Shop 29 Pine Spring Centre, 18 Anderson Road, Pinetown",Pinetown,Kwazulu Natal,031 7025576,30°51′17.948″E,29°48′49.401″S,View Map
1470310,IYER,Yes,"6 Byrne Street, Empangeni",Empangeni,Kwazulu Natal,035 7922170,31°53′13.556″E,28°44′39.311″S,View Map
1473131,PILLAY,Yes,"62 Road 736, Montford",Chatsworth,Kwazulu Natal,031 4048824,30°52′27.414″E,29°55′18.454″S,View Map
1474502,HEMRAJH,No,"Gaterite Shopping Centre, 22-24 Russom Street, Verulam",Verulam,Kwazulu Natal,032 5336940,31°2′34.302″E,29°38′36.591″S,View Map
1475290,RASOOL,Yes,"Shop 3a Izingolweni Plaza, Main Road, Izingolweni",Ezingoleni Rural,Kwazulu Natal,079 5069733,30°7′48.702″E,30°46′21.365″S,View Map
1475835,VAN ZYL,No,"Suite 1, 3 Warwick Place, New Germany",Pinetown,Kwazulu Natal,031 7012286,30°51′52.751″E,29°49′7.698″S,View Map
1477714,GOVENDER,Yes,"Unit 8, 18 Tynecroft Place, Longcroft",Phoenix,Kwazulu Natal,031 5004093,31°0′53.305″E,29°42′31.359″S,View Map
1478184,ERASMUS,Yes,"109 Lorne Street, Estcourt",Estcourt,Kwazulu Natal,036 3525133,29°52′31.944″E,29°0′40.248″S,View Map
1478788,NAIDOO,Yes,"7 Ireland Street, Verulam",Verulam,Kwazulu Natal,032 5332300,31°2′39.417″E,29°38′45.421″S,View Map
1479202,SANPERSAD,No,"Suite 119 Life Westville, Hospital 7 Harry Gwala Road, Dawncliffe",Westville,Kwazulu Natal,031 2651047,30°55′57.638″E,29°51′4.547″S,View Map
1484281,SEWGOOLAM,Yes,"Howick Centre, 2 Harvard Street, Howick",Howick,Kwazulu Natal,033 3305300,30°14′9.224″E,29°29′3.594″S,View Map
1488147,RAMLACHAN,Yes,"Newkwa Medical Centre, 909-913 Inanda Road, Newlands West",Newlands West,Kwazulu Natal,031 5778932,30°58′33.948″E,29°47′27.39″S,View Map
1488880,SINGH,Yes,"4 Court House Road, Port Shepstone",Port Shepstone,Kwazulu Natal,039 6824494,30°26′54.707″E,30°44′9.439″S,View Map
1489135,KING,Yes,"47 St Johns Street, Kokstad",Kokstad,Kwazulu Natal,039 7272322,29°25′46.264″E,30°33′4.116″S,View Map
1489534,BADUL,Yes,1 Erythrina Avenue,Lotus Park,Kwazulu Natal,031 9026665,30°54′47.88″E,29°59′56.76″S,View Map
1489801,MOODLEY,Yes,"Shop 2, 418 Chris Hani Road, Briardene",Durban North,Kwazulu Natal,031 5636201,31°0′57.608″E,29°47′47.103″S,View Map
1490664,MURUGAN,Yes,"11 Main Street, Eshowe",Eshowe,Kwazulu Natal,035 4744727,31°27′40.054″E,28°53′57.901″S,View Map
1491113,MISTRY,Yes,"Shop 14 Emsee Building, Izingolweni Road, Port Edward",Port Edward,Kwazulu Natal,039 3111116,30°12′39.662″E,31°2′56.26″S,View Map
1491423,BEUKES,Yes,"69 Willis Street, Ladysmith",Ladysmith,Kwazulu Natal,036 6376831,29°47′10.767″E,28°33′2.902″S,View Map
1492225,PILLAY,Yes,"28 Bazley Street, Port Shepstone",Port Shepstone,Kwazulu Natal,039 6821938,30°27′2.124″E,30°44′27.8″S,View Map
1493442,NAIDOO,Yes,"Renkens Centre, Old Main Road, Mandeni",Mandini,Kwazulu Natal,032 4541772,31°22′16.914″E,29°16′5.249″S,View Map
1494384,PILLAY,Yes,"Plot 10 Siyonga Medical Centre, 10 Jacaranda Avenue, Mtubatuba",Mtubatuba,Kwazulu Natal,035 5501005,32°11′12.861″E,28°24′55.448″S,View Map
1494740,KHOZA,Yes,"Site No 4 Ba 372/373 Prince Mang, Opposite Ulundi Pick&pay Superma",Ulundi,Kwazulu Natal,035 0358700731,31°25′49.08″E,28°17′58.2″S,View Map
1495356,RAWAT,Yes,"Ground Floor Bmrv Building, 16 Union Street, Empangeni",Empangeni,Kwazulu Natal,035 7725750,31°53′30.89″E,28°44′31.322″S,View Map
1495879,RANDEREE,Yes,"249 Moses Kotane Road, Sydenham",Berea,Kwazulu Natal,031 2072872,30°59′11.021″E,29°50′4.417″S,View Map
1497634,NAICKER,Yes,"11 Soni Way, Nagina",Pinetown,Kwazulu Natal,031 7064889,30°48′38.636″E,29°52′12.228″S,View Map
1499106,DAWDUTH,Yes,"193 Earlsfield Drive, Earlsfield",Newlands West,Kwazulu Natal,031 5783498,30°56′44.123″E,29°46′46.342″S,View Map
1499564,NUNDLALL,Yes,"33 701 Road, Montford",Chatsworth,Kwazulu Natal,031 4041319,30°52′38.844″E,29°55′22.011″S,View Map
1500813,LUTCHMEENARRAIN,Yes,"6 Mungal Road, Rietrivier",Verulam,Kwazulu Natal,032 5376319,31°1′48.461″E,29°40′8.49″S,View Map
1502468,NANACK,Yes,"49 Wooley Street, Port Shepstone",Port Shepstone,Kwazulu Natal,039 6825005,30°26′59.208″E,30°44′15.408″S,View Map
1503065,NAIDU,Yes,"1 Newcentre Drive, Newlands West",Newlands West,Kwazulu Natal,031 5782290,30°57′6.32″E,29°46′36.785″S,View Map
1503782,RUPNARAIN,Yes,"Shop 11 A Dube Village Mall, 11 Ikhathazo Way, Newtown C",Inanda,Kwazulu Natal,031 5191039,30°58′12.322″E,29°42′32.087″S,View Map
1504274,ENOCH,Yes,"Shop 2, 68 Pioneer Road, Kloof",Kloof,Kwazulu Natal,031 7644707,30°51′26.025″E,29°47′6.01″S,View Map
1505084,VAN ROOYEN,Yes,"35 Coronation Road, Malvern",Queensburgh,Kwazulu Natal,031 4643997,,,
1505815,JEEWA INCORPORATED,Yes,"490 West Street, Durban",Durban,Kwazulu Natal,031 3048355,31°1′0.113″E,29°51′33.152″S,View Map
1506374,PAUL,Yes,"22 Joubert Street, Paulpietersburg",Paulpietersburg,Kwazulu Natal,034 9951564,30°49′11.158″E,27°25′20.57″S,View Map
1506811,PILLAY,Yes,"Shop 4 Globes Shopping Centre, 41 Old Main Road, Ottawa",Verulam,Kwazulu Natal,032 5376378,31°2′12.284″E,29°40′22.783″S,View Map
1507451,SUNICHUR,Yes,"Shop 4 Clairwood Medical Centre, 622 South Coast Road, Clairwood",Durban South,Kwazulu Natal,031 4658838,30°58′44.404″E,29°54′46.706″S,View Map
1508660,GAGIANO,No,"Centre For Diabetes Excellence, 718 Marine Drive, Shelly Beach",Margate,Kwazulu Natal,039 3150343,30°24′38.338″E,30°48′21.675″S,View Map
1510452,MTHETHWA,Yes,"Nongoma Private Hospital, 199 Main Street, Nongoma",Nongoma,Kwazulu Natal,066 0189697,31°39′34.85″E,27°55′29.154″S,View Map
1510657,PURMASIR,Yes,"64 Baijoo Road, Raisethorpe",Pietermaritzburg,Kwazulu Natal,033 3877411,30°24′29.976″E,29°33′51.559″S,View Map
1510959,GANGAN,Yes,"2 Loophaven Road, Forest Haven",Phoenix,Kwazulu Natal,031 5050049,31°1′0.487″E,29°41′12.678″S,View Map
1511548,PILLAY,No,"Shop 33 Natraj Centre, Natraj Lane, Merebank",Durban South,Kwazulu Natal,031 4685360,30°58′11.389″E,29°57′11.866″S,View Map
1514822,NKOSI,Yes,"A537 Shaka Street, Ezakheni",Ladysmith,Kwazulu Natal,087 5270064,29°55′37.03″E,28°36′3.049″S,View Map
1516434,NANDLAL,Yes,"27 Belvedere Drive, Buffelsdale",Tongaat,Kwazulu Natal,032 9450841,31°6′0.252″E,29°34′46.862″S,View Map
1519182,GAUSE,Yes,"6 Thomas Street, Pietermaritzburg",Pietermaritzburg,Kwazulu Natal,033 3944683,30°23′21.387″E,29°35′38.005″S,View Map
1519611,SULIMAN,Yes,"Shop K2 Ithala Centre, Malendela Road, Kwamashu",Kwamashu,Kwazulu Natal,031 5031188,30°58′18.915″E,29°45′0.42″S,View Map
1520520,GOVENDER,Yes,"Shop 39 Mount Edgecombe Plaza, 105 Hillhead Drive, Mount Edgecombe",Mount Edgecombe,Kwazulu Natal,031 5021303,31°2′16.923″E,29°43′26.1″S,View Map
1522736,KADWA,Yes,"G J Crookes Hospital, 1 Hospital Road, Scottburgh",Scottburgh/Umzinto North,Kwazulu Natal,039 9742552,30°44′42.36″E,30°17′19.186″S,View Map
1523791,SOOKOO,No,18 Wavemore Place,Stanmore,Kwazulu Natal,031 5024600,31°1′36.768″E,29°42′7.2″S,View Map
1526642,ERASMUS,Yes,"Cato Medical Centre, 1 Ridge Road, Cato Ridge",Cato Ridge,Kwazulu Natal,031 7822030,30°34′43.211″E,29°44′7.146″S,View Map
1529056,MUDALY,Yes,"Lindwes Medical Centre, 134 Castlehill Drive, Newlands West",Newlands West,Kwazulu Natal,031 5781062,30°57′0″E,29°45′59.049″S,View Map
1529676,GOVENDER,Yes,"Maphitha Medical Centre, 6 Grikazi Street, Ulundi",Ulundi,Kwazulu Natal,035 8701268,31°25′30.518″E,28°17′57.285″S,View Map
1543326,BADAT,Yes,"Suite 1, 412 Felix Dlamini Road, Overport",Durban,Kwazulu Natal,031 2080425,30°59′34.914″E,29°50′1.322″S,View Map
1544152,SALIG,No,"1 Medical Towers Isipingo, Hospital 162 Phila Ndwandwe Road, Isipingo Hills",Isipingo,Kwazulu Natal,031 9027597,30°55′36.118″E,29°59′10.369″S,View Map
1545523,MAHARAJ,Yes,"Shop 210 Kwamnyandu Mall, Griffiths Mxenge Highway, Umlazi",Umlazi,Kwazulu Natal,031 9068953,30°54′14.716″E,29°58′18.722″S,View Map
1546376,MUNSAMY,Yes,"Shop 4 Olympia Centre, 6 Nagle Square, Woodlands",Durban South,Kwazulu Natal,031 4628202,30°57′29.791″E,29°55′50.231″S,View Map
1546619,COVENDEN,Yes,"29 Lenham Drive, Whetstone",Phoenix,Kwazulu Natal,031 5071957,30°59′34.43″E,29°42′17.85″S,View Map
1548050,MARITZBURG FAMILY CLINIC,Yes,"Suite 1, 465 Langalibalele Street, Pietermaritzburg",Pietermaritzburg,Kwazulu Natal,033 3947784,30°23′16.324″E,29°35′44.944″S,View Map
1548646,MOHANLAL,Yes,"61 Cedar Road, Woodlands",Pietermaritzburg,Kwazulu Natal,033 3873745,30°23′24.496″E,29°34′47″S,View Map
1548980,SHAYO,Yes,"36 Dower Street, Kokstad",Kokstad,Kwazulu Natal,039 7272246,29°25′41.051″E,30°33′4.679″S,View Map
1553860,PILLAI,Yes,"Greenbury Medical Centre, 2-4 Garbgreen Close, Greenbury",Phoenix,Kwazulu Natal,031 5393225,31°1′55.766″E,29°43′24.439″S,View Map
1554859,NOBIN,Yes,"56 Turnstone Avenue, Bayview",Chatsworth,Kwazulu Natal,031 4006993,30°54′44.857″E,29°55′18.141″S,View Map
1554913,JAMA,Yes,"Caltex Garage, 78 Hope Street, Kokstad",Kokstad,Kwazulu Natal,039 7273298,29°25′26.953″E,30°32′56.545″S,View Map
1557262,SACOOR,Yes,"Suite 6 North Coast Mall, Medical Centre 163-179 Redberry, Road",Rockford,Kwazulu Natal,031 5022582,31°2′7.19″E,29°42′55.614″S,View Map
1559710,NOORBHAI,No,"79 Florence Nightingale Drive, Westcliff",Chatsworth,Kwazulu Natal,031 4035801,30°53′55.725″E,29°54′40.628″S,View Map
1559753,NAIDOO,Yes,"Glenwood Medical & Dental Centre, 293 Che Guevara Road, Glenwood",Berea,Kwazulu Natal,031 2015281,31°0′4.511″E,29°51′22.586″S,View Map
1562177,MITHOO,Yes,"E833 Lingelethu Road, Ntuzuma",Inanda,Kwazulu Natal,031 5092809,30°56′29.294″E,29°45′14.272″S,View Map
1562371,NAIDOO,Yes,"Suite 5a Colony Building, 3 Inanda Road, Hillcrest",Hillcrest,Kwazulu Natal,031 7653590,30°45′52.997″E,29°46′43.062″S,View Map
1562916,NAIDOO,Yes,"Jabula Hardware Complex, 2 Carlow Road, Bonela",Durban,Kwazulu Natal,031 2619420,30°58′31.876″E,29°50′52.502″S,View Map
1564366,SIMJEE,Yes,"Nandos Building, 276 Sparks Road, Overport",Durban,Kwazulu Natal,031 2076756,30°59′18.183″E,29°50′5.905″S,View Map
1564870,RAMDHAREE,Yes,"41 Wilson Street, Dundee",Dundee,Kwazulu Natal,034 2121959,30°14′24.014″E,28°9′53.939″S,View Map
1565540,EHLERS,Yes,"Health Line Medi Centre, 3 High Ridge Road, Fields Hill",Pinetown,Kwazulu Natal,031 7018868,,,
1565710,HADEBE,Yes,"P192 Cnr Mkhiwane &, Bonakele-nxumalo Road, Kwamashu",Kwamashu,Kwazulu Natal,031 5042690,30°58′6.262″E,29°44′39.239″S,View Map
1565745,SINGH,Yes,"7 Church Street, Gandhinagar",Tongaat,Kwazulu Natal,032 9451110,31°7′0.661″E,29°34′26.758″S,View Map
1571125,RAMDUTT,Yes,"312 Crestbrook Drive, Brookdale",Phoenix,Kwazulu Natal,031 5059555,31°0′5.85″E,29°41′2.82″S,View Map
1571451,MAHARAJ,Yes,"Shop 16a Hammarsdale Junction, Mall Kunene Road, Hammarsdale",Mpumalanga,Kwazulu Natal,031 7711454,30°37′42.431″E,29°48′6.614″S,View Map
1572512,SALEJEE,Yes,"Shop 7 - 8 Madressa Mall, 81 Wick Street, Verulam",Verulam,Kwazulu Natal,032 5331890,31°2′49.7″E,29°38′34.634″S,View Map
1572938,MOTALA,Yes,"2nd Floor Shifa Medical Towers, 482 Randles Road, Sydenham",Berea,Kwazulu Natal,031 2072097,30°59′5.744″E,29°49′51.147″S,View Map
1573705,ATHMARAM,Yes,"8 Fairview Road, Brindhaven",Verulam,Kwazulu Natal,032 5336652,31°2′16.393″E,29°38′37.049″S,View Map
1574310,MAHOMED,Yes,"630 Dr Chota Motala Road, Raisethorpe",Raisethorpe,Kwazulu Natal,033 3876517,,,
1581821,CHOHAN,Yes,"Office 7 Mosque Arcade, Murchison Street, Newcastle",Newcastle,Kwazulu Natal,034 3123781,29°56′1.146″E,27°45′14.506″S,View Map
1583344,MAHARAJ,Yes,"6 The Zen, 31 Zenith Drive, Umhlanga Ridge",Umhlanga,Kwazulu Natal,031 8114888,31°3′52.777″E,29°43′11.01″S,View Map
1584073,MEER,Yes,"Shop 3, 16 Kajee Street, Isipingo Rail",Isipingo,Kwazulu Natal,031 9025891,30°55′38.129″E,29°59′4.402″S,View Map
137227,MBHIZA,Yes,"Shop10a Mopani Superspar, Giyani Main Road, Giyani",Giyani,Limpopo,015 8120143,30°41′36.866″E,23°18′41.498″S,View Map
137979,MATSOKU,Yes,"Mat-med Centre, 371 Main Street, Senwabarwana",Blouberg Rural,Limpopo,015 5053051,29°7′57.4″E,23°17′12.062″S,View Map
145181,VERMEULEN,Yes,"Floramed, 80 Mc Donald Avenue, Florapark",Polokwane,Limpopo,015 2962113,29°29′25.939″E,23°54′29.886″S,View Map
149705,CALOKECHI,Yes,"97 General Joubert Street, Polokwane",Polokwane,Limpopo,015 2974458,29°26′56.04″E,23°54′10.08″S,View Map
1561693,MINNAAR,Yes,"1 Majuba Avenue, Groblersdal",Groblersdal,Limpopo,013 2625372,29°23′49.579″E,25°10′1.789″S,View Map
1564552,MAMABOLO,Yes,"Tibanefontein Complex, Juno",Aganang Rural,Limpopo,082 4109526,29°0′45.113″E,23°38′32.52″S,View Map
1579517,ZAHIDI,Yes,"Ekupheleni Medical Centre, 1659 Steve Mahlangu Street, Siyabuswa",Dr Js Moroka Rural,Limpopo,013 9731108,29°4′13.086″E,25°6′36.032″S,View Map
1583603,MULAUDZI,Yes,"1880 Nelson Mandela Drive, Seshego Zone 1",Polokwane,Limpopo,015 2232886,29°23′29.368″E,23°51′10.147″S,View Map
1586017,RAMBAU,Yes,"Khanimambo Medical Centre, 113 Krogh Street, Makhado",Louis Trichardt,Limpopo,015 5166652,29°54′33.444″E,23°2′13.992″S,View Map
1515357,PRINSLOO,No,"Unit A 620, 1073 Zone 4",Mankweng,Limpopo,015 2230219,29°42′49.68″E,23°53′5.28″S,View Map
1525948,CACHALIA,Yes,"53 Ruiter Road, Mokopane",Mokopane,Limpopo,015 4918373,29°0′40.611″E,24°10′51.914″S,View Map
1529706,JANSEN VAN RENSBURG,No,"Peacemed Medical Centre, 34 Peace Street, Arborpark",Tzaneen,Limpopo,015 3072854,30°9′32.544″E,23°49′50.268″S,View Map
1533266,PILODIA,Yes,"253 Worst Avenue, Marble Hall",Marblehall,Limpopo,013 2612047,29°17′27.155″E,24°58′17.435″S,View Map
1534521,SIKHITHA,Yes,"Mentz Surgery, Mentz Village",Polokwane,Limpopo, ,29°27′14.76″E,23°54′57.24″S,View Map
1553305,TLADI,Yes,"Stand 601b Mashung, Next To Bopedi Shopping Centre",Apel,Limpopo,086 1108109,29°25′4.44″E,23°24′4.68″S,View Map
1483668,JOUBERT,Yes,"Stand 559 Zone A, Mankweng",Polokwane,Limpopo,015 2674094,29°26′55.055″E,23°53′46.215″S,View Map
1485695,CAWOOD,Yes,"Cawood Clinic, 15 Irwin Street",Musina,Limpopo,015 5340044,30°2′20.76″E,22°21′5.112″S,View Map
1488813,BOSMAN,Yes,"Flora Medical Centre 80 Mc, Donald Avenue & Marshall Street, Florapark",Polokwane,Limpopo,015 2962113,29°29′24.775″E,23°54′28.931″S,View Map
1491598,SWANEPOEL,Yes,"Kiosk 1b Pick 'n Pay Centre, Rissik Street",Polokwane,Limpopo,015 2971888,29°26′55.68″E,23°54′12.96″S,View Map
1497200,AYOB,Yes,"Shop 2 Sendedza Shopping, Complex R523, Dzanani",Louis Trichardt,Limpopo,079 5550621,30°9′1.037″E,22°53′7.244″S,View Map
1507281,MTSETWENE,Yes,Shop 4 Giyani Shopping Complex,Giyani,Limpopo,011 482 4667,30°42′19.8″E,23°18′30.24″S,View Map
1513656,TEMPELMAN H A & PARTNER,Yes,"Stand 934, Elandsdoorn-a",Groblersdal,Limpopo,013 9838700,29°11′39.046″E,25°17′4.376″S,View Map
1433180,MEINTJES,Yes,"46 Doornkraal Street, Annadale",Polokwane,Limpopo,015 2930309,29°26′36.863″E,23°52′42.655″S,View Map
1442996,GOVIND,Yes,"29e Oriental Plaza, Makhado",Louis Trichardt,Limpopo,015 5164416,29°54′16.762″E,23°2′46.469″S,View Map
1451073,SPIES S J PARTNERS,No,43 Douglas Street,Tzaneen,Limpopo,015 5900098,30°8′23.229″E,23°41′48.093″S,View Map
1456008,PIENAAR,Yes,"42 Ruiter Road, Mokopane",Mokopane,Limpopo,015 4916324,29°0′45.604″E,24°10′45.783″S,View Map
1456903,RAMJEE,Yes,"Stand 1559, Kwaggafontein",Thembisile Rural,Limpopo,013 9860196,28°56′49.007″E,25°18′27.112″S,View Map
1458906,SULIMAN,Yes,"F71 Excel Medical Centre, Excelsior Street, Polokwane",Polokwane,Limpopo,015 2973012,29°27′8.744″E,23°54′0″S,View Map
1462660,MALAN,No,"905 Dahlia Street, Marble Hall",Marblehall,Limpopo,013 2612164,29°17′33.6″E,24°57′53.353″S,View Map
930768,DR QM MANGANYI INC,Yes,"111 Cnr Hlekelela & Vukuzenzele, Street, Malamulele",Thohoyandou,Limpopo,015 8516089,30°41′53.11″E,23°0′4.514″S,View Map
1017624,THWALA,Yes,"Shop 27a Masingita Mall, Giyani Main Road, Giyani",Giyani,Limpopo,072 3796047,30°41′47.791″E,23°18′46.599″S,View Map
1094742,THOKA,Yes,"Opposite Kgapane Hospital, Parktown Street, Modjadjiskloof",Modjadjiskloof,Limpopo,067 7224155,30°13′6.65″E,23°38′52.687″S,View Map
1411225,DU PLESSIS,Yes,"Shop 9 Marula Mall, Swartwater Road, Alldays",Alldays,Limpopo,015 5751283,29°6′22.463″E,22°40′49.518″S,View Map
1415298,MANTHATA,Yes,"Tintis Supermarket, 614 University Road, Mankweng",Polokwane,Limpopo,015 2670893,29°42′40.521″E,23°53′0″S,View Map
1417053,GROBLER,Yes,"37 Luna Road, Bela-bela",Bela-Bela,Limpopo,014 7362220,28°17′34.116″E,24°53′2.835″S,View Map
1420755,VAN HEERDEN,Yes,"54 Ruiter Road, Mokopane",Mokopane,Limpopo,015 4914161,29°0′42.657″E,24°10′52.174″S,View Map
494348,RAMALATA,Yes,"Stand 1003 Tshandama, Sibasa",Thohoyandou,Limpopo,015 0041100,,,
538841,ROSSOUW,Yes,"54 Ruiter Road, Mokopane",Mokopane,Limpopo,015 4914161,29°0′42.657″E,24°10′52.174″S,View Map
544183,SHIVAMBU,Yes,"Office A2-a3 Hoedspruit Office, Park 118 Eland Street, Hoedspruit",Hoedspruit,Limpopo,082 4658114,30°56′57.426″E,24°21′19.279″S,View Map
557994,MAHUDU,Yes,"1023 Ga-malekana Village, Polokwane",Polokwane,Limpopo,014 9406692,30°0′0.242″E,24°53′2.683″S,View Map
627607,RAPHADU,Yes,"579 Unit S, Phase 1, Chuenespoort",Lebowakgomo,Limpopo,065 9863291,29°31′55.606″E,24°18′9.647″S,View Map
749028,DABROWSKI,Yes,"Shop 8 Time Square, Huilboerbroon Street, Hoedspruit",Hoedspruit,Limpopo,015 7930102,30°56′58.856″E,24°21′18.039″S,View Map
763756,BOSMAN,No,"Flora Medical Centre 80 Mc, Donald Avenue & Marshall Street, Polokwane",Polokwane,Limpopo,015 2962113,29°29′26.016″E,23°54′30.204″S,View Map
768235,BAPELA,Yes,"Shop 9, Ga-motlane",Polokwane,Limpopo,079 2941408,29°19′20.27″E,24°21′34.048″S,View Map
793841,DR V F KUBAI INC,Yes,"44 Joe Slovo Street, Modimolle",Modimolle,Limpopo,014 9406697,28°24′32.576″E,24°42′19.171″S,View Map
187100,MUSHWANA,Yes,"Shop 4a, Letsitele Shopping Complex",Letsitele,Limpopo,072 5753282,,,
221880,SHIRINDA,Yes,"Bungeni Village, Elim Hospital",Louis Trichardt,Limpopo,082 5346539,30°3′23.76″E,23°9′12.24″S,View Map
242144,MALULEKA,Yes,2637 Mekwa Section,Makapaanstad,Limpopo,082 7696101,28°7′5.16″E,25°14′2.76″S,View Map
249076,VAN JAARSVELD,Yes,"Sentra Building, 252 Voortrekker Road, Vaalwater",Vaalwater,Limpopo,082 8552627,28°6′36.277″E,24°17′51.536″S,View Map
250139,MABUNDA,Yes,"3rd Avenue, Siesta Place Unit 2 Extension 4, Tzaneen",Tzaneen,Limpopo,015 3072747,30°9′44.314″E,23°49′46.789″S,View Map
263214,MANKOANI,Yes,"Letaba Cross Medical Centre, 1315 Church Street, Lenyenye",Tzaneen,Limpopo,079 6796273,30°16′8.393″E,23°58′8.899″S,View Map
302031,MUDAU,Yes,"Shop 14, 51 Schoeman Street, Polokwane",Polokwane,Limpopo,015 0650870,29°27′13.032″E,23°54′38.448″S,View Map
303011,THUBAKGALE,Yes,"Stand 42 Mathibela Phase 1, Groothoekhospitaal",Polokwane,Limpopo,015 6424150,29°20′43.3″E,24°18′54.194″S,View Map
346322,NGOBENI,Yes,"30 P East Hanyani Medical, Centre Mphephu Drive, Thohoyandou",Thohoyandou,Limpopo,015 9625837,30°27′26.712″E,22°58′58.129″S,View Map
349291,NYARHI,Yes,"Shop 9 Shoprite Phangami Mall, Punda Maria Road (r524), Thohoyandou",Thohoyandou,Limpopo,083 7304514,30°29′15.922″E,22°58′19.541″S,View Map
371106,MALUNGANI,Yes,"No 883b, 91 Tambo Street",Nkowankowa,Limpopo,071 1197803,30°18′1.08″E,23°53′25.62″S,View Map
386901,NETSHISAULU,Yes,"N1537, R527 Road, Vuwani",Louis Trichardt,Limpopo,082 5382119,30°25′17.04″E,23°8′6.72″S,View Map
398934,NGOBENI,Yes,"Shop 6 Slan Boutique Comp, 55 Ruiter Street, Mokopane",Mokopane,Limpopo,015 4916663,29°0′39.017″E,24°10′51.91″S,View Map
566,MAOWASHA,Yes,"Wolkberg Building, 28 Danie Joubert Street, Tzaneen",Tzaneen,Limpopo,015 3077550,30°9′42.84″E,23°49′32.16″S,View Map
14915,NAIDOO,Yes,"13 Chris Hani Way, Bela-bela",Bela-Bela,Limpopo,014 7365123,28°17′30.166″E,24°53′5.607″S,View Map
28347,TEFFO S F POTO L T,Yes,"Shop 23 Palm Centre, Cnr Grobler & Biccard Street, Polokwane",Polokwane,Limpopo,015 2957693,29°27′22.262″E,23°54′30.492″S,View Map
28916,MANGOTLO,Yes,"85a Onder Street, Polokwane",Polokwane,Limpopo,015 2914242,29°26′37.19″E,23°54′21.364″S,View Map
30554,MATHOSA,Yes,"390 Mamabolo Street, Mookgophong",Mookgopong Rural,Limpopo,014 7433445,28°43′30.658″E,24°31′10.26″S,View Map
33170,SENOAMADI,Yes,"31 Ruiter Road, Mokopane",Mokopane,Limpopo,010 4472626,29°0′43.24″E,24°10′40.998″S,View Map
70157,MASINGI,Yes,"Ladanna Medical Centre, 18a Witklip Street, Ladanna",Polokwane,Limpopo,015 2930370,29°26′31.668″E,23°52′44.508″S,View Map
74063,NANGAMMBI,Yes,"Block P East, 259 Garden Route, Thohoyandou",Thohoyandou,Limpopo,015 9625001,30°27′48.707″E,22°58′23.17″S,View Map
105724,RAMAVHANDA,Yes,Stand No 1179,Vleifontein,Limpopo,015 5564367,,,
125520,SCHULENBURG,Yes,"Stand 1975, Lebowakgomo Zone A",Lepelle-Nkumpi Rural,Limpopo,015 6324310,29°32′33.613″E,24°18′0.827″S,View Map
269891,ABDOOL,Yes,"18 Oriental Plaza, Standerton",Standerton,Mpumalanga, ,29°13′13.637″E,26°56′37.756″S,View Map
273155,TSOENE,Yes,"1102 Lehodi Gardens, Siyathemba",Balfour,Mpumalanga,071 4799968,28°36′42.814″E,26°39′6.769″S,View Map
288543,MOTLHABI,No,"Shop No 8, Bloomfield Lane",Ermelo,Mpumalanga,017 8111526,29°59′4.2″E,26°31′18.84″S,View Map
290793,NXUMALO,Yes,"1a Zuidend Street, Mkhondo",Piet Retief,Mpumalanga,017 8264040,30°48′5.648″E,27°0′31.692″S,View Map
291439,DHLAMINI,Yes,"130 Bram Fisher Drive, Evander",Evander,Mpumalanga,017 6323755,29°6′38.974″E,26°28′31.471″S,View Map
332100,MOLELI,Yes,"Shop 31 Kg Mall, Cnr N4 & Mathews Phosa Street, Kwaguqa",Emalahleni,Mpumalanga,065 9662530,29°7′49.528″E,25°52′18.157″S,View Map
355801,GOOSEN,No,"15 Perel Street, Rayton",Rayton,Mpumalanga,012 7860950,28°31′44.39″E,25°44′16.001″S,View Map
379131,MHLONGO,No,"17 Market Square Sabie Medical, Centre Cnr Loius Trichard & Main, Street",Sabie,Mpumalanga,013 7642134,30°46′47.02″E,25°5′57.297″S,View Map
389366,NTSHALINTSHALI,Yes,"Shop 1239/4 Dikai Centre, R40 Road, Hazyview",Hazyview,Mpumalanga,013 7376061,31°7′40.281″E,25°2′34.434″S,View Map
418463,VISSER AND ASSOCIATE,Yes,"Swanglo Cc Building Medical, Centre 4 Main Road, Kinross",Evander,Mpumalanga,017 6871776,29°5′29.12″E,26°25′6.591″S,View Map
428906,ZULU,Yes,"Shop 14 Block 4, Rodium Street",Steelpoort,Mpumalanga,082 3127804,30°19′12.579″E,24°40′5.919″S,View Map
448745,MAMABOLO,No,166 Marone Street,Burgersfort,Mpumalanga, ,29°28′31.08″E,24°18′39.6″S,View Map
449040,UYS,Yes,"21 Eric Louw Street, Secunda",Secunda,Mpumalanga,017 6323543,29°11′28.963″E,26°30′44.261″S,View Map
451010,LINDEQUE,No,"93 Petunia Street, Balfour",Balfour,Mpumalanga,017 7730248,28°35′14.827″E,26°39′29.86″S,View Map
469319,DIBAKWANE,Yes,"Shop 6 Kgotso Building, 169 Ribbok Street, Burgersfort",Burgersfort,Mpumalanga,013 1705509,30°19′15.488″E,24°40′7.111″S,View Map
25631,MOJAPELO,Yes,"Lynnville Medical Centre, 1547 Maluka Street, Lynnville",Emalahleni,Mpumalanga,013 6961100,29°11′33.18″E,25°52′44.797″S,View Map
28592,SELESHO,Yes,"Phola Township, 1550 Phetla Street, Ogies",Ogies,Mpumalanga,081 5428966,29°2′58.278″E,26°2′58.27″S,View Map
43656,AYOB,Yes,"25 Voortrekker Street, Amsterdam",Amsterdam,Mpumalanga,017 8469991,30°39′44.044″E,26°37′23.177″S,View Map
68853,KOLLER,No,"62 Ueckermann Street, Heidelberg",Heidelberg,Mpumalanga,016 3414121,28°21′28.001″E,26°30′7.906″S,View Map
70939,LESHALABE,Yes,"Stand 244, Vleeshboom Village",Nebo,Mpumalanga,072 2329487,29°46′0.12″E,24°54′0″S,View Map
73830,MKHABELE,No,"Suite 957 Zone A, Calvin Ngobeni Drive, Namakgale",Phalaborwa,Mpumalanga,015 7691669,31°1′44.76″E,23°56′8.52″S,View Map
79995,KENNY,Yes,"Nelspruit Plaza Shopping Co, 1a Cnr Henshall & Andrew Street",Nelspruit,Mpumalanga,013 7553609,30°58′42.196″E,25°28′3.165″S,View Map
109363,RONOH,Yes,"9 Westra Building, Cnr Kruger Street & Haig Avenue, Emalahleni",Emalahleni,Mpumalanga,067 6811321,29°12′49.887″E,25°52′35.338″S,View Map
132675,KHUMALO,Yes,"30a Joubert Street, Mkhondo",Piet Retief,Mpumalanga,017 8264882,30°48′3.329″E,27°0′32.33″S,View Map
140007,THERON,No,"22a Clerq Street, Bethal, Null",Mpumalanga,Mpumalanga,017 6476238,,,
145866,POTGIETER,No,"54 Merz Street, Heidelberg",Heidelberg,Mpumalanga,016 3416150,28°21′31.295″E,26°30′7.622″S,View Map
153761,PEER,Yes,"Shop 1 Mashego Centre, Hospital Road, Bushbuckridge",Hazyview,Mpumalanga,013 7992310,31°2′47.076″E,24°50′23.43″S,View Map
160792,VAN ZYL,Yes,111 Bree Street,Amersfoort,Mpumalanga,017 7531025,29°51′37.44″E,27°0′28.8″S,View Map
172774,LEE,No,"54 Merz Street, Heidelberg",Heidelberg,Mpumalanga,016 3416150,28°21′31.295″E,26°30′7.622″S,View Map
176796,KATHRADA,Yes,"Shop 1 Mashego Centre, Hospital Road, Bushbuckridge",Hazyview,Mpumalanga,013 7992310,31°2′47.076″E,24°50′23.43″S,View Map
1556606,THUBAKGALE,Yes,"Stand 548, Vaalbank",Dr Js Moroka Rural,Mpumalanga,078 7232818,28°50′26.684″E,25°9′36.877″S,View Map
1559222,LUKOMBO,No,"Van Biljon Building, 23 Fitzgerald Street, Emakhazeni",Emakhazeni,Mpumalanga,013 2530887,30°2′28.239″E,25°41′41.564″S,View Map
1562762,BASSA,Yes,"Mzantsi Ethical Research Centre, 184 Cowen Ntuli Street, Middelburg",Middelburg,Mpumalanga,013 2825218,29°27′36.883″E,25°46′10.236″S,View Map
1563459,LEDWABA,Yes,"Nyanyathu, 3637 Zulu Street, Mhluzi",Middelburg - Mp,Mpumalanga,013 2411262,29°26′52.44″E,25°44′43.08″S,View Map
1566717,DU PLOOY,Yes,"Rand Street Building, 13 Norda Street, Leslie",Leandra,Mpumalanga,017 6830158,28°55′14.429″E,26°22′15.498″S,View Map
1575066,MAHOMED,Yes,"Shop 3 Josrah Centre, Main Road, Ogies",Ogies,Mpumalanga,013 6431014,29°3′34.272″E,26°2′58.488″S,View Map
1581872,VAN ZYL,No,"Allmed Kliniek, 23 Mel Mentz Street, Ermelo",Ermelo,Mpumalanga,017 8115821,29°59′12.85″E,26°32′33.75″S,View Map
1582739,BREYTENBACH,No,"9 South Street, Cullinan",Cullinan,Mpumalanga,012 7340911,28°30′40.577″E,25°40′6.232″S,View Map
1583549,MAKGATHO,Yes,"1911 Ekangala Ext F, Ekangala",Ekangala,Mpumalanga,082 8961894,28°44′16.285″E,25°40′40.968″S,View Map
1586092,LE ROUX,Yes,"4a Northey Street, Emalahleni",Emalahleni,Mpumalanga,013 6562287,29°12′57.723″E,25°52′40.735″S,View Map
1523155,LANDSBERG,No,"42 Kruger Street, Erasmus",Bronkhorstspruit,Mpumalanga,013 9320104,28°44′41.496″E,25°48′29.772″S,View Map
1531735,GROBLER,Yes,"Kwa Mhlanga Taxi Rank Crossroad, Medical Centre, Kwamhlanga",Kwamhlanga,Mpumalanga,013 9472285,28°43′12.62″E,25°24′7.725″S,View Map
1534319,JANSE VAN RENSBURG,Yes,"18 Air Street, Malelane",Malelane,Mpumalanga,013 7901433,31°30′28.256″E,25°29′47.822″S,View Map
1539825,MAHOMED,Yes,"Stand 2457, Moloto Road, Moloto",Cullinan,Mpumalanga,013 9486999,28°38′8.986″E,25°27′21.235″S,View Map
1545590,NKAMBULE,Yes,"Shop 4 Kelly Shopping Complex, Kabokweni Road, Kabokweni",Kabokweni,Mpumalanga,081 4581681,31°7′35.925″E,25°20′43.607″S,View Map
1554743,MAHLANGU,Yes,"Stand 2231 Vezubuhle Medical, Centre, Kwamhlanga",Kwamhlanga,Mpumalanga,013 9547207,28°46′31.62″E,25°23′30.048″S,View Map
1555189,VAN WYK,No,"30 Alie Van Bergen Street, White River",White River,Mpumalanga,013 7512700,31°0′45.309″E,25°19′46.689″S,View Map
1479032,SCHUTTE,Yes,"66 Voortrekker Street, Hendrina",Hendrina,Mpumalanga,013 2930351,29°42′52.453″E,26°9′16.012″S,View Map
1487086,NOOR MOHAMED,Yes,"31 Voortrekker Street, Carolina",Carolina,Mpumalanga,017 8431386,30°7′4.743″E,26°4′14.731″S,View Map
1490265,DRS VAN HEERDEN & PARTNERS,Yes,"30 Kerk Street, Standerton",Standerton,Mpumalanga,017 7125381,29°14′38.22″E,26°57′0.166″S,View Map
1495232,JACOBS,Yes,"Suite 2 Ground Floor Medforum, Building Heunis Street, Secunda",Secunda,Mpumalanga,017 6341114,29°10′57.166″E,26°30′26.491″S,View Map
1498924,JANSEN VAN VUUREN,Yes,"49 Cnr Louis Trichardt Avenue &, Oorwinning Street, Graskop",Graskop,Mpumalanga,013 7671124,30°50′34.216″E,24°55′54.343″S,View Map
1498983,MEYER,No,"35 Van Der Westhuizen Street, Heidelberg",Heidelberg,Mpumalanga,016 3412545,28°21′31.373″E,26°29′51.842″S,View Map
1499483,BARENDRECHT,Yes,"Stand 2121, Khama Street, Embalenhle",Embalenhle,Mpumalanga,017 6855069,29°4′26.818″E,26°32′34.796″S,View Map
1501542,DR'S DE WAAL SPOELSTRA AND PARTN,Yes,"1st Floor Room 110 Ampath, Centre De La Vie Beatty Avenue, Emalahleni",Emalahleni,Mpumalanga,013 6566642,29°13′52.968″E,25°53′2.668″S,View Map
1511289,HAJEE,Yes,"61 Lange Street, Lydenburg",Lydenburg,Mpumalanga,013 2351435,30°26′54.697″E,25°5′41.258″S,View Map
1512021,PRETORIUS,Yes,"6 Zuid Street, Amersfoort",Amersfoort,Mpumalanga,017 8263560,29°51′54.41″E,27°0′46.685″S,View Map
1428284,MOGALE,Yes,"Shop No 2b Vp Da Silva Trust, Building Ennis Street, Ermelo",Ermelo,Mpumalanga,017 8114642,29°59′17.88″E,26°31′5.52″S,View Map
1433962,HAGROO,Yes,"40 Church Street, Kwaguqa",Emalahleni,Mpumalanga,013 6965173,29°8′0.035″E,25°54′19.605″S,View Map
1435841,KARIM & PARTNERS,Yes,"38 Chris Hani Street, Bethal",Bethal,Mpumalanga,017 6472368,29°27′40.43″E,26°27′26.344″S,View Map
1439804,ESTERHUIZEN,No,"42 Kruger Street, Erasmus",Bronkhorstspruit,Mpumalanga,013 9320104,28°44′41.496″E,25°48′29.772″S,View Map
1447394,CLOETE,No,"Klipmed Building Cnr Rosemead, Road & Theunis Janson Avenue, Klipfontein",Emalahleni,Mpumalanga,013 6970123,29°14′8.49″E,25°54′2.208″S,View Map
1452835,SULAMAN,Yes,"15 Station Road, Balfour",Balfour,Mpumalanga,017 7730212,28°34′49.17″E,26°39′39.852″S,View Map
1454773,VENTER J A & PARTNER,Yes,"46 Louis Trichardt Street, Volksrust",Volksrust,Mpumalanga,017 7355101,29°52′56.158″E,27°22′7.999″S,View Map
1457136,PELSER,Yes,"15 Springbok Crescent, Kriel",Kriel,Mpumalanga,017 6482520,29°15′43.618″E,26°15′13.396″S,View Map
1468200,JOUBERT P J S & ADENDORFFS,Yes,"Kriel Medical Centre, Bokmakierie Drive, Kriel",Kriel,Mpumalanga,017 6482111,29°16′2.554″E,26°15′53.071″S,View Map
809179,MDHLULI,No,"4829 John Dube Laan, Botleng",Witbank,Mpumalanga,012 0231884,28°41′57.808″E,26°6′16.136″S,View Map
943258,ISMAIL,Yes,2136 Khama Street,Embalenhle,Mpumalanga,017 6851051,,,
951528,S ALKEMA AND ASSOCIATES,No,"62 Ueckermann Street, Heidelberg",Heidelberg,Mpumalanga,016 3414121,28°21′28.001″E,26°30′7.906″S,View Map
953121,VAN DER LINDE,No,"3 General Street, Barberton",Barberton,Mpumalanga, ,31°3′11.665″E,25°47′35.311″S,View Map
1088734,MOLOTO,Yes,"Stand 4 Moroke Village, Sekhutlong Street, Burgersfort",Burgersfort,Mpumalanga, ,30°20′5.649″E,24°40′52.92″S,View Map
1403850,BARTON,Yes,"Shop 5, Shoprite Mall, 43 Lange Street",Lydenburg,Mpumalanga,013 2353667,30°26′57.72″E,25°5′36.871″S,View Map
1412558,JANSEN,No,"31a Botha Avenue, Emalahleni",Emalahleni,Mpumalanga,013 6562795,29°13′7.245″E,25°52′34.71″S,View Map
1417908,DINDAR & PARTNERS,Yes,"104 Breytenbach Street, Breyten",Breyten,Mpumalanga,017 8613219,29°59′36.583″E,26°18′1.256″S,View Map
1422537,BASSON,No,"Suite 26 Promenade Shopping, Centre Samora Machel Drive, Mbombela",Mbombela,Mpumalanga,013 7551598,30°58′45.521″E,25°28′14.055″S,View Map
482234,MOJALEFA,Yes,"Shop 8a, Rhodium Street, Steelpoort",Steelpoort,Mpumalanga,013 2303823,30°10′13.716″E,24°48′3.088″S,View Map
522864,NHLABATHI,No,"2318 Elukwatini Main Road, Elukwatini",Elukwatini,Mpumalanga, ,30°48′34.92″E,26°2′16.8″S,View Map
525464,MPOSI,Yes,"Stand 230, Tukakgomo, Steelpoort",Steelpoort,Mpumalanga,081 7356342,30°9′32.523″E,24°44′22.818″S,View Map
607711,KASONGO,Yes,"175 Cowen Ntuli Street, Middelburg",Middelburg,Mpumalanga,013 2432115,29°27′30.314″E,25°46′5.919″S,View Map
611433,MKHABELA,Yes,"No 5 Meropa Office Complex, Acornhoek",Bushbuckridge Rural,Mpumalanga,013 7959001,31°31′34.675″E,24°38′52.632″S,View Map
614270,DR N T MACHEBE INCORPORATED,Yes,"Shop P4-8 Geoff Godrich Square, Cnr Lanham & Kruger Street, Erasmus",Bronkhorstspruit,Mpumalanga,013 9351485,28°44′46.003″E,25°48′10.658″S,View Map
620416,DR S L THWALA INCORPORATED,Yes,"Stand 60 Kwamhola, Barberton",Barberton,Mpumalanga,013 7136834,31°1′37.414″E,25°46′14.923″S,View Map
625302,MASEMOLA,Yes,"Shop 1 Kgolane Complex, Hospital Street, Jane Furse",Burgersfort,Mpumalanga, ,28°58′59.274″E,24°9′7.776″S,View Map
627216,MOSEAMEDI,Yes,"Shop 3, 20 Njala Street, Phalaborwa",Phalaborwa,Mpumalanga,015 7813841,31°7′56.304″E,23°57′3.928″S,View Map
694142,SIBIYA,Yes,"Stand 5209, Embalenhle Ext 9",Embalenhle,Mpumalanga,017 6855229,29°4′30.301″E,26°33′8.752″S,View Map
741914,SIBEKO,Yes,"23 Kerk Street, Carolina",Carolina,Mpumalanga,060 5289673,30°7′1.659″E,26°4′28.027″S,View Map
749648,DR S N XABA INCORPORATED,No,"Zone 14, 2 Machibini Drive, Kwaguqa",Emalahleni,Mpumalanga,013 6954545,29°6′33.282″E,25°52′9.85″S,View Map
760498,MOODLEY,No,"Shop C5 Secunda Village Mall, Five Star Superstar, Secunda",Secunda,Mpumalanga,084 2608370,29°13′4.452″E,26°31′12.486″S,View Map
775274,MANZINI,Yes,"Shop 31 Simunye Shopping Mall, Arend Way, Hazyview",Hazyview,Mpumalanga,013 7377321,31°7′37.116″E,25°2′28.937″S,View Map
781711,VAN HEERDEN,No,"Allmed Clinic, 23 Mel Mentz Street, Ermelo",Ermelo,Mpumalanga,017 8115821,29°59′12.85″E,26°32′33.75″S,View Map
188026,RAMAN,No,"10 Charles Cilliers Street, Secunda",Secunda,Mpumalanga,017 6311928,29°11′58.506″E,26°30′40.139″S,View Map
205842,MKHATSHWA,Yes,"Suite 4 Strydom Spar Shopping, Centre 15 William Lynn Street, White River",White River,Mpumalanga,013 7502647,31°1′14.755″E,25°19′35.856″S,View Map
226211,MAVUSO,Yes,"6371 Cobra Street, Kanyamazane",Kanyamazane,Mpumalanga,013 7941026,31°11′2.379″E,25°27′58.854″S,View Map
239046,T J BOTHA INCORPORATED,Yes,"Prime Cure-medi Centre, 9 Or Tambo Street, Middelburg",Middelburg,Mpumalanga,013 2431435,29°27′21.834″E,25°46′2.72″S,View Map
1561642,RAMARUMO,Yes,"Room 24 Mogwase Forum, 1401 Tlhantlhagane Street, Mogwase",Rustenburg,North West,014 5556108,27°14′54.24″E,25°15′34.2″S,View Map
1563394,NEL,No,"Shop 24 The Islands Centre, R512, Hartbeespoort",Hartbeespoort,North West,012 2440744,27°51′1.745″E,25°46′17.955″S,View Map
1566792,MANSOOR,Yes,"Shop 10a Plaza Shopping Centre, Nelson Mandela Drive, Mahikeng",Mmabatho,North West,018 3817500,25°38′35.65″E,25°51′38.145″S,View Map
1581589,DE VILLIERS,No,"28 Hood Road, Orkney",Orkney,North West,018 4730338,26°40′0.116″E,26°58′48.15″S,View Map
1514083,OMAR,Yes,"Shop 2 Octron Building, Dr James Moroka Street, Potchefstroom",Potchefstroom,North West,018 2943927,27°3′44.176″E,26°43′28.174″S,View Map
1515292,CHAMBERS,No,"Shop 2&3 Alkmaar House Civic, Centre Somerset Drive, Stilfontein",Stilfontein,North West,018 4843546,26°46′25.717″E,26°50′36.524″S,View Map
1521683,CHIBI,Yes,"Lonrho Drive, Mooinooi",Mooinooi,North West,014 5743078,27°33′26.492″E,25°45′1.967″S,View Map
1522507,DIALE,Yes,"1321 Diale Street, Hartbeesfontein",Hartbeesfontein,North West,012 2700534,27°12′14.571″E,25°38′40.645″S,View Map
1525670,ERASMUS,Yes,"88b Rivier Street, Potchefstroom",Potchefstroom,North West,018 2947410,27°6′4.917″E,26°42′50.215″S,View Map
1526081,VENTER,No,"Suite 103 Mooimed Private, Hospital 1 Chief Albert Luthuli, Potchefstroom",Potchefstroom,North West,018 2930384,27°5′46.477″E,26°42′0.303″S,View Map
1527681,MOROKE,No,"10 Lamb Road, Orkney",Orkney,North West,018 4735477,26°40′2.424″E,26°58′57.108″S,View Map
1534246,PRETORIUS,Yes,"57 Berg Street, Rustenburg",Rustenburg,North West,014 5926596,27°14′24.618″E,25°40′7.753″S,View Map
1540335,CHAMPION,No,"Mediese Sentrum, 20 Buiten Street, Schweizer-reneke",Schweizer-Reneke,North West,053 9631324,25°19′51.781″E,27°11′23.742″S,View Map
1540688,DESAI,Yes,3 Emily Hobhouse Street,Klerksdorp,North West,018 4623347,18°25′27.12″E,33°55′12″S,View Map
1540718,MODISANE,Yes,"Stand 222 Zone 1, Letlhabile",North West,North West,012 2512095,,,
1540793,SELETELA,Yes,"Shop 2 Plot 0928, Bethanie",Rustenburg,North West,012 2600939,27°36′19.236″E,25°33′13.662″S,View Map
1542907,NTSHABELE,Yes,"226 Botha Road, Northam",Thabazimbi,North West,014 7840393,27°15′54.118″E,24°57′12.94″S,View Map
1482122,PIETERS,Yes,"Medical Centre, 10 Voortrekker Street, Christiana",Christiana,North West,053 4412227,25°10′16.766″E,27°54′46.817″S,View Map
1484052,MOSAM,Yes,"14 Plein Street, Klerksdorp",Klerksdorp,North West,018 4624390,26°39′52.062″E,26°51′51.31″S,View Map
1487779,MOTALA,Yes,"14 Plein Street, Klerksdorp",Klerksdorp,North West,018 4624390,26°39′52.062″E,26°51′51.31″S,View Map
1491016,DE KLERK,No,"89 Romareo Centre, Corner Of Buffeldoorn And Tom, Wilkoppies",Klerksdorp,North West,018 468 6512,26°40′38.586″E,26°50′22.012″S,View Map
1494821,MOUTON,Yes,"Suite 103 Mooimed Private, Hospital 1 Chief Albert Luthuli, Potchefstroom",Potchefstroom,North West,018 2930384,27°5′47.4″E,26°42′1.08″S,View Map
1503472,KHAN,Yes,"Shop 6 Noordpark Centre, Geyer Street, Wolmaransstad",Wolmaransstad,North West,018 5961427,25°58′47.56″E,27°12′43.519″S,View Map
1503588,KHUBEDU,Yes,"Modises Coalyard, Mothutlung Road, Mothotlung",Brits,North West,012 7092523,27°53′35.903″E,25°36′14.717″S,View Map
1503685,RAMAFUTHULA,Yes,"Tlhabane Garden, 2133 Pilane Street, Tlhabane",Tlhabane,North West,014 5656699,27°13′3.384″E,25°38′34.72″S,View Map
1507516,LALA,Yes,"38 Commissioner Street, Klerksdorp",Klerksdorp,North West,018 4623646,26°39′43.995″E,26°52′0.459″S,View Map
1509292,PITSOE,Yes,"179 Bethlehem Drive, Rustenburg",Rustenburg,North West,014 5971064,27°13′45.372″E,25°40′8.472″S,View Map
1423266,DE WET,Yes,"26 Dr James Moroka Avenue, Potchefstroom",Potchefstroom,North West,018 2978541,27°6′1.592″E,26°42′40.442″S,View Map
1423347,THERON,No,"Arrie Nel Brits Pharmacy Cnr, Carel De Wet & Potgieter Street, Brits",Brits,North West,012 2523391,27°47′4.399″E,25°37′48.829″S,View Map
1433598,MAFAWALLA,Yes,"Shop 8a Maroela Centre, Cnr Fatima Bhayat & Leyds Street, Rustenburg",Rustenburg,North West,014 5923723,27°14′21.787″E,25°39′55.606″S,View Map
1439057,MARIVATE,Yes,"9128 Mosoane Street, Ga-rankuwa Zone 1",Ga-Rankuwa,North West,012 7031294,27°59′8.745″E,25°36′56.626″S,View Map
1439308,PATEL AHMED E & PARTNER,Yes,"Suite 206 Mogwase Shopping, Complex 1401 Thlanthlagane, Mogwase",Rustenburg,North West,014 5555712,27°14′55.554″E,25°15′31.955″S,View Map
1448757,CLOETE,Yes,"2 Meyer Street, Swartruggens",Swartruggens,North West,018 0005287,27°5′46.85″E,26°41′29.626″S,View Map
1457349,NASSIR,Yes,"4 Benji Oliphant Road, Uraniaville",Klerksdorp,North West,018 4692232,26°37′14.331″E,26°52′32.612″S,View Map
880175,DR PM DE KOCK VENNOOTSKAP,Yes,"Carpe Diem Medical Centre, 13th Avenue 190 Opal Street Nort",Northam,North West,014 7771037,,,
945005,ILUYOMADE,Yes,"762 Freedom Park Phase 1, Rustenburg",Rustenburg,North West,074 3461213,27°14′6.995″E,25°33′47.3″S,View Map
974366,"DRS FONTAINE, LUBIKU AND PARTNER",Yes,"Shop 112 City Mall, Cnr O R Tambo & Neser Street, Klerksdorp",Klerksdorp,North West,018 1500789,26°39′54.083″E,26°52′15.476″S,View Map
988111,MAVURU,No,"Plot 434, Uitvalgrond",De Wildt,North West, ,,,
1057081,NEMUTADONI,Yes,"Shop 8 Medicum Building, 9 Watsonia Street, Thabazimbi",Thabazimbi,North West,014 7721523,27°24′44.955″E,24°35′18.553″S,View Map
1401637,SCHMITZ,Yes,"33 Van Riebeeck Street, Ventersdorp",Ventersdorp,North West,018 2643076,26°49′28.799″E,26°19′0″S,View Map
1402749,CONRADIE,Yes,"26 Dr James Moroka Avenue, Potchefstroom",Potchefstroom,North West,018 2978541,27°6′1.592″E,26°42′40.442″S,View Map
1402919,BESTER,No,"Shop 3 Silverside Centre, Die Ou Wapad Street, Ifafi",Hartbeespoort,North West,012 2590563,27°54′2.798″E,25°44′17.689″S,View Map
1413244,KLOPPER,Yes,"4 Fatima Bhayat Street, Rustenburg",Rustenburg,North West, ,27°14′15.137″E,25°39′49.005″S,View Map
475777,ZWANE,Yes,"Undisclosed, Segwaelane",Brits,North West,072 9052444,27°36′50.925″E,25°39′48.768″S,View Map
485101,FERNANDEZ SILVA,No,"Vmv Medical Centre, 90 Agnew Street, Carletonville",Carletonville,North West,018 7883035,27°23′59.496″E,26°21′0.738″S,View Map
500461,LEGABE,Yes,"Shop 87 Boitekong Mall, Tlou Street, Paardekraal",Rustenburg,North West,014 9400222,27°16′33.302″E,25°36′38.308″S,View Map
524050,KWINDA,Yes,"House 1887b Legalaopeng Section, Bapong",Brits,North West,012 2511518,27°40′22.674″E,25°43′4.123″S,View Map
607150,DR ML MORWE INC,Yes,"Ditsobotla Medical Centre, 65 Lang Street, Lichtenburg",Lichtenburg,North West,018 6323263,26°9′23.231″E,26°9′8.868″S,View Map
610410,RAGIE,Yes,"12 Gerrit Maritz Street, Zeerust",Zeerust,North West,018 6421147,26°4′47.342″E,25°32′36.698″S,View Map
195073,MADIOPE,Yes,"Room 4, 116 Leyds Street, Rustenburg",Rustenburg,North West,063 8755928,27°14′24.6″E,25°39′51.53″S,View Map
205834,JOGI,Yes,166 Klopper Street,Rustenburg,North West,014 5971254,27°14′0″E,25°40′2.208″S,View Map
260193,BOGOPA,Yes,"Shop 1 Shoprite Complex, Main Road, Marikana",Rustenburg,North West,069 5222896,27°29′23.562″E,25°41′35.473″S,View Map
262005,NDHLOVU,Yes,15 Loopapruit Avenue,Fochville,North West,018 7715325,29°27′0.121″E,23°54′34.454″S,View Map
294446,CHITTIGADU,Yes,"Shop 1, 30 Flint Street, Carletonville",Carletonville,North West,018 7862166,27°24′11.751″E,26°21′19.456″S,View Map
312797,MTOLO,No,808 Marikana Road,Marikana,North West,082 2933481,27°32′16.08″E,25°41′4.2″S,View Map
342270,BEYERS,Yes,"Vaalbos Avenue, Marikana",Rustenburg,North West,072 4680160,27°14′17.592″E,25°40′27.66″S,View Map
469092,DE WET,No,"Cnr Kraalkop & President Street, Fochville",Fochville,North West,018 7712345,27°29′32.426″E,26°29′37.149″S,View Map
28673,MOKOENA,Yes,"Unit 1, 2561 Molebatsi Lane, Mmabatho",Mmabatho,North West,018 3847763,25°37′8.746″E,25°50′25.621″S,View Map
51314,NSENDA,Yes,"Close To Zone 16, Ga-rankuwa",Ga-Rankuwa,North West,012 7034561,28°2′33.56″E,25°30′16.298″S,View Map
82856,PRETORIUS G C & ASSOCIATES INCOR,No,"Cnr President Mbeki Drive & Von, Wielligh Street, Rustenburg",Rustenburg,North West,014 5235100,27°14′6.922″E,25°40′15.585″S,View Map
136743,KABONGO,Yes,"4 Cnr R565 & Sun City Road, Phokeng",Rustenburg,North West,014 5664966,27°9′41.686″E,25°35′22.964″S,View Map
151610,HAFFEJEE,Yes,"5 Steyn Street, Koster",Koster,North West,014 5434528,26°53′50.415″E,25°52′14.409″S,View Map
172170,STEYN,Yes,"46b Mark Street, Bloemhof",Bloemhof,North West,053 4331283,26°19′16.975″E,26°20′28.097″S,View Map
1578103,STEENKAMP & CONRADIE INC,No,"28 Hertzog Street, Hartswater",Hartswater,Northern Cape,053 4740157,24°48′41.507″E,27°45′10.405″S,View Map
146099,MOKOENA,Yes,"161 Maputle Street, Vergenoeg",Kimberley,Northern Cape,053 8711100,24°43′9.764″E,28°42′38.512″S,View Map
1582658,PHOLOHOLO,Yes,"Stand 7 Ganyesa Village, Shopping Complex Tosca Road, Ganyesa",Kagisano Rural,Northern Cape,053 9983622,24°10′17.211″E,26°35′34.464″S,View Map
1532987,HOLROYD,No,48 Long Street,Kimberley,Northern Cape,053 0450485,24°45′41.976″E,28°45′21.922″S,View Map
1551507,VISSER,Yes,"2 Swallow Street, Roodepan",Kimberley,Northern Cape,053 8733344,24°43′29.352″E,28°40′19.416″S,View Map
1551965,VAN DER MERWE,Yes,"6 Blinkklip Street, Postmasburg",Postmasburg,Northern Cape,053 3133453,23°3′57.233″E,28°19′45.161″S,View Map
1482262,KUHN,Yes,"45 D F Malan Street, Hartswater",Hartswater,Northern Cape,053 4740713,24°48′49.772″E,27°45′13.77″S,View Map
1488368,NEL,No,"Joes Shopping Centre, Hlalakwabafileyo Street, Pampierstad",Pampierstad,Northern Cape,053 9961936,24°41′15.314″E,27°46′44.085″S,View Map
1501100,HEUER,Yes,"146 Barkly Road, Homestead",Kimberley,Northern Cape,083 2309945,24°45′1.768″E,28°42′50.508″S,View Map
1502034,HEFER,Yes,"2 Swallow Street, Pescodia",Kimberley,Northern Cape,053 8733178,,,
1511084,ODENDAAL,Yes,"Medvend24 Centre, Ben Malan Street, Kuruman",Kuruman,Northern Cape,053 7120407,23°26′0.738″E,27°27′13.679″S,View Map
1445561,GHOOR Y A K & PARTNER,Yes,"131 Vry Street, Vryburg",Vryburg,Northern Cape,053 9274704,24°44′0.631″E,26°57′40.071″S,View Map
1474774,GROBBELAAR,Yes,"62 Erasmus Street, Warrenton",Warrenton,Northern Cape,053 4973173,24°50′52.706″E,28°6′46.575″S,View Map
1477595,VERMEULEN,No,"9 Van Riebeeck Street, Hopetown",Hopetown,Northern Cape,053 2030119,24°5′0.699″E,29°37′25.059″S,View Map
797901,MAMPUYA,No,"29 Arbek Street, Prieska",Northern Cape,Northern Cape,053 3531133,,,
868906,GRABE,Yes,"34 Van Riebeeck Street, Calvinia",Calvinia,Northern Cape,027 3411434,19°46′22.209″E,31°28′19.495″S,View Map
874574,KGOPUTSO,Yes,"Shop 30/31 New Centre, Vry Street, Vryburg",Vryburg,Northern Cape,053 9271703,24°44′8.808″E,26°57′38.079″S,View Map
1089986,SMIT,No,"1  2nd Avenue, Kakamas",Kakamas,Northern Cape,054 0500073,20°36′43.813″E,28°46′15.914″S,View Map
474738,MOKHALI,No,"12a Shone Street, Postmasburg",Postmasburg,Northern Cape,081 3074772,23°3′56.554″E,28°19′54.685″S,View Map
513466,OOSTHUIZEN J M  AND PARTNER,Yes,"61a Green Street, West End",Kimberley,Northern Cape,053 8613728,24°44′34.751″E,28°44′9.761″S,View Map
552305,KABE,No,"Erf 2773 Shop 2, Rietbok Street, Kathu",Kathu,Northern Cape,053 7231721,23°2′47.713″E,27°41′46.851″S,View Map
701599,MANENGA,No,"4 Waterboer Street, Barkly West",Barkly West,Northern Cape,053 5310694,24°31′8.435″E,28°32′7.772″S,View Map
719226,PILANE,Yes,"522 Hulana Street, Galeshewe",Kimberley,Northern Cape,053 8747745,24°44′11.304″E,28°43′4.416″S,View Map
728810,KOOPMAN,No,"35 Du Toit Street, Oosterville",Upington,Northern Cape,054 3321694,21°16′2.589″E,28°26′13.565″S,View Map
743356,JACOBS,Yes,"11 Eagle Street, Roodepan",Kimberley,Northern Cape,053 8734449,24°43′40.624″E,28°40′18.551″S,View Map
747874,TAQVI,Yes,"383 Shimane Street, Paballelo",Upington,Northern Cape,054 3321463,21°12′44.794″E,28°26′11.624″S,View Map
217603,HAARHOFF,Yes,"35 Erasmus Street, Warrenton",Warrenton,Northern Cape,053 4974991,24°50′59.066″E,28°6′38.385″S,View Map
249378,STRYDOM,No,"Vryburg Private Hospital, 67 Molopo Street, Vryburg",Vryburg,Northern Cape,053 9273940,24°43′21.593″E,26°56′47.6″S,View Map
268054,GOPANE,Yes,"757 Bree Street, Kuruman",Kuruman,Northern Cape,053 7120016,23°25′40.997″E,27°27′23.801″S,View Map
374199,BURGER,Yes,"5 Uitspan Street, Springbok",Springbok,Northern Cape,027 7121101,17°53′11.745″E,29°39′46.994″S,View Map
70416,JANSEN VAN VUUREN,Yes,"14 Jacob Street, Boshof",Boshof,Northern Cape,053 5410490,25°14′37.037″E,28°32′15.949″S,View Map
119938,MJOLI,No,"Room 301 Lenmed Kathu Private, Hospital Frikkie Meyer Street, Kathu",Kathu,Northern Cape,053 7231669,23°3′1.859″E,27°41′56.567″S,View Map
1578847,VAN NIEKERK,Yes,"325 Main Street, Taung Station",Taung,Northern Cape,053 9941953,24°44′52.411″E,27°33′44.196″S,View Map
192120,SMIT,No,"Unit 6d Park West Centre, Parklands Main Road, Parklands",Cape Town,Western Cape,021 5567717,18°30′41.762″E,33°48′33.395″S,View Map
202452,BURMEISTER,Yes,"19 Orange Street, Ceres",Ceres,Western Cape,023 3162050,19°18′46.606″E,33°22′0.363″S,View Map
207640,POTGIETER,Yes,"Kerk Street, Kylemore",Stellenbosch,Western Cape,021 8851087,18°56′57.363″E,33°54′46.591″S,View Map
216402,NAIDOO,Yes,"25 Plein Street, Vredenburg",Vredenburg,Western Cape,022 1001270,17°59′41.26″E,32°54′27.901″S,View Map
221988,DOWER,No,"Suite 4 E Coetzee Pharmacy, Building 72 York Street, George",George,Western Cape,044 8841218,22°27′15.127″E,33°57′45.347″S,View Map
233900,PARKER,Yes,"1 Stegman Road, Claremont",Cape Town,Western Cape,021 6831232,18°27′55.41″E,33°58′43.976″S,View Map
236411,MATJEKANE,Yes,"Shop 13 Khayelitsha Mall, Walter Sisulu Road, Khayelitsha",Cape Town,Western Cape,021 3613429,18°40′22.554″E,34°2′52.018″S,View Map
255629,PAULSE,Yes,"55 Victoria Road, Woodstock",Cape Town,Western Cape,021 7700078,18°26′47.729″E,33°55′44.967″S,View Map
269034,MOHAMED,Yes,"31 St Helena Street, Strandfontein",Cape Town,Western Cape,021 3933141,18°32′55.86″E,34°4′17.292″S,View Map
293822,CAMROODIEN-SURVE,Yes,"Cnr Klip & Lake Road, Grassy Park",Cape Town,Western Cape,021 7051923,18°30′6.343″E,34°2′10.742″S,View Map
302090,AKANA TSOBZE,Yes,19 Seringa Street,Thornton,Western Cape,021 3917939,18°32′35.16″E,33°53′34.08″S,View Map
340227,KLOPPER,No,"Shop Du12 Market Square, Beacon Way, Plettenberg Bay",Plettenberg Bay,Western Cape,044 5333499,23°22′11.241″E,34°2′35″S,View Map
352276,ROSSOUW,Yes,"20 Plein Street, Belmont Park",Cape Town,Western Cape,021 9871826,18°43′25.375″E,33°51′5.734″S,View Map
360724,HAFFEJEE INC,Yes,"242 Park Avenue, Rocklands",Cape Town,Western Cape,021 3913025,18°36′25.186″E,34°3′45.756″S,View Map
385190,SETOABA,Yes,"5 De Lille Street, Bellville",Cape Town,Western Cape,021 8014279,18°38′3.263″E,33°54′20.804″S,View Map
391670,HOOSAIN,Yes,"Cape Medical & Dental Centre, 297 Main Road, Kenilworth",Cape Town,Western Cape,021 7610427,18°28′9.873″E,33°59′35.139″S,View Map
431532,MARTIN,Yes,"34 Boundary Road, Retreat",Cape Town,Western Cape,021 7157145,18°28′13.67″E,34°3′37.646″S,View Map
447684,CYSTER,Yes,"Shop V6 Delft Mall, Cnr Hindle & Delft Main Road, Delft",Cape Town,Western Cape,021 9541990,18°38′42.086″E,33°58′35.753″S,View Map
458503,SADLER,No,"Riverside Cottage Clinic, 10 Rosendale Road, Rondebosch",Cape Town,Western Cape,021 6895141,18°28′13.948″E,33°57′46.521″S,View Map
10154,NAIDOO,Yes,"Kuwait Taxi Rank, 135 Njabulo Street, Khayelitsha Site C",Cape Town,Western Cape,021 9092615,18°38′53.636″E,34°0′58.208″S,View Map
29300,MARAIS,Yes,"82 Link Avenue, Macassar",Cape Town,Western Cape,021 8572906,18°45′18.05″E,34°3′27.842″S,View Map
36749,BOSMAN BRINK & GROENEVELD INCORP,No,"147 Dorp Street, Stellenbosch",Stellenbosch,Western Cape,021 8872820,18°51′41.01″E,33°56′19.94″S,View Map
36994,BLAAUW,Yes,"25 Plein Street, Vredenburg",Vredenburg,Western Cape,022 1250078,17°59′41.265″E,32°54′27.905″S,View Map
40304,OMAR,Yes,"Suite 3 Yasmeen House Cnr, Westfleur Circle & Mark Street, Atlantis",Cape Town,Western Cape,021 5726171,18°29′37.087″E,33°33′44.342″S,View Map
40983,WARLEY,Yes,"Good Health Primary Care Centre, 34 Main Road, Mowbray",Cape Town,Western Cape,021 6865093,18°28′19.388″E,33°56′59.487″S,View Map
47406,JANARI,Yes,"21 Joe Marks Boulevard, Retreat",Cape Town,Western Cape,021 7127700,18°28′9.521″E,34°3′43.877″S,View Map
55689,KHAN,Yes,"9 Victoria Avenue, Hout Bay",Cape Town,Western Cape,021 7902340,18°21′1.332″E,34°2′38.256″S,View Map
58602,RAWOOT,Yes,"116 10th Avenue, Kensington",Cape Town,Western Cape,021 5937000,18°30′37.87″E,33°54′43.681″S,View Map
59587,MULLER,Yes,"25 Plein Street, Vredenburg",Vredenburg,Western Cape,022 1250078,17°59′41.261″E,32°54′27.895″S,View Map
68551,DU TOIT,Yes,"1 Cnr Downing Street & Pallotti, Road, Montana",Cape Town,Western Cape, ,18°34′10.4″E,33°57′45.053″S,View Map
105708,MOODLEY,Yes,"68 Kasselsvlei Road, Bellville South",Cape Town,Western Cape,021 9514477,18°38′28.482″E,33°54′53.348″S,View Map
110159,COOMBES,Yes,"45 Ray Street, Macassar",Cape Town,Western Cape,021 8572150,18°46′30.486″E,34°3′48.82″S,View Map
111589,J N VOSLOO & W F D PIENAAR,Yes,"2 Main Road, Grabouw",Grabouw,Western Cape,021 8592850,18°59′9.927″E,34°9′36.233″S,View Map
115819,HISHAM,Yes,"1st Floor Main Road Medi Centre, 123 Main Road, Wynberg",Cape Town,Western Cape,021 7977508,18°28′9.973″E,34°0′23.749″S,View Map
117102,DE VILLIERS,No,"11b Ipic Shopping Centre, Sonstraal Cnr Langeberg Road &, Verdi Boulevard",Sonstraal Heights,Western Cape,021 9758611,18°40′31.02″E,33°50′10.947″S,View Map
119776,NAIDOO,Yes,"Cnr Washington Street &, Lerotholi Avenue, Langa",Cape Town,Western Cape,021 6940413,18°31′31.066″E,33°56′38.468″S,View Map
128880,FRY,Yes,"58 Akasia Avenue, Malmesbury",Malmesbury,Western Cape,022 4864355,18°42′24.843″E,33°27′40.202″S,View Map
130559,BAGWANDEEN,Yes,"Uwc, Robert Sobukwe Road, Bellville",Bellville,Western Cape,021 9592875,18°34′54.225″E,33°52′25.955″S,View Map
130893,GREEFF STOFBERG INCORPORATED,Yes,"6 Main Street, Vredenburg",Vredenburg,Western Cape,022 7131281,17°59′37.749″E,32°54′31.752″S,View Map
153206,RAMLAL,Yes,"Maitland Medical Centre, 220 Voortrekker Road, Maitland",Cape Town,Western Cape,021 5118741,18°28′55.582″E,33°55′26.12″S,View Map
162833,RINKWEST,Yes,"3 Vision House, 19 Parklands Main Rd",Parklands,Western Cape,021 5576933,,,
166804,JONKER,Yes,"7 Tuin Street, De Doorns",De Doorns,Western Cape,023 3562086,19°39′49.396″E,33°28′28.686″S,View Map
174432,VAWDA,Yes,"115 Fairbairn Street, Worcester",Worcester,Western Cape,023 3422437,19°27′22.122″E,33°39′6.509″S,View Map
177105,KADER,Yes,"16 Fir Road, Cloetesville",Stellenbosch,Western Cape,021 8896381,18°51′28.31″E,33°54′43.353″S,View Map
180548,BOSMAN JP & STYGER V,Yes,"55 Main Road, Gansbaai",Gans Bay,Western Cape,028 3841165,19°21′5.841″E,34°35′10.18″S,View Map
1476939,NEL INC,Yes,22 Eeufees Street,Wolseley,Western Cape,023 2311008,19°12′1.44″E,33°24′47.52″S,View Map
1477323,VAN ASWEGEN,Yes,"6 Fairview Centre, Caledon Street",Somerset West,Western Cape,021 8510665,26°4′47.64″E,25°32′36.6″S,View Map
815721,DR LG STOCKIGT INC,No,"33 Voortrekker Street, Beaufort West",Beaufort West,Western Cape,023 4152663,22°35′12.313″E,32°21′13.809″S,View Map
877603,DR NE VAN ASWEGEN INC,Yes,"51 Church Street, De Aar",De Aar,Western Cape,053 6312978,24°0′34.27″E,30°38′56.986″S,View Map
882909,DAWOOD,Yes,"16 Fir Road, Cloetesville",Stellenbosch,Western Cape,021 8896381,18°51′28.184″E,33°54′43.308″S,View Map
933988,DR  JR BENEKE INCORPERATED,No,"111 Montagu Street, Mossel Bay",Mossel Bay,Western Cape,044 6903545,22°8′30.169″E,34°11′1.221″S,View Map
934194,SEBESTENY,Yes,"Shop 6 Sonata Place, Sonata Lane",Mitchells Plain,Western Cape,021 3926141,,,
934720,DR Z DADAKER AND DR M KADER INC,Yes,"Cnr 1st Avenue & Klipfontein, Road, Silvertown",Cape Town,Western Cape,021 6973786,18°30′54.623″E,33°57′48.524″S,View Map
939315,MATANDA,No,"Shop8 John Montague Centre, Montague Drive, Montague Gardens",Montague Gardens,Western Cape,021 5259121,18°31′14.506″E,33°51′41.417″S,View Map
956406,DRS NEETHLING AND TERBLANCHE INC,Yes,"Unit 6 Adam Tas Business Park, Cnr R44 & Adam Tas Road, Stellenbosch",Stellenbosch,Western Cape,021 8871671,18°51′21.723″E,33°55′26.278″S,View Map
958948,CADER,Yes,"111 Goodwood Street, Goodwood",Cape Town,Western Cape, ,18°32′48.156″E,33°54′18.36″S,View Map
979325,HOPE,No,"20b Langenhoven Street, Durbanville",Cape Town,Western Cape,087 2658690,18°38′39.191″E,33°49′51.473″S,View Map
992437,STANDER,Yes,10 Main Street,Moorreesburg,Western Cape,022 4332200,,,
998214,DELPORT,No,"Grace Medical Centre, 10 Park Road, Durbanville",Cape Town,Western Cape,021 9756064,18°38′46.74″E,33°49′34.968″S,View Map
1023519,DR HAYAT GM AND HAYAT HB INC,Yes,"95 Military Road, Steenberg",Cape Town,Western Cape,021 7012308,18°28′13.862″E,34°4′30.536″S,View Map
1039822,HARMUTH,No,"2 Augsburg Road, Clanwilliam",Clanwilliam,Western Cape,027 4822111,18°53′33.475″E,32°10′30.799″S,View Map
1052764,ASHTIKER,Yes,"Ashmed Medical Centre, 21 Church Street, Athlone",Cape Town,Western Cape,021 6966849,18°30′17.591″E,33°57′47.617″S,View Map
1053418,DR DOMINIC BASS INC,Yes,36 Voortrekker Street,Darling,Western Cape,021 9518000,,,
1054422,KOTZE,No,"Riverside Cottage Clinic, 10 Rosendale Road, Rondebosch",Cape Town,Western Cape,021 6895141,18°28′13.862″E,33°57′46.361″S,View Map
1059262,JORDAAN,Yes,131 St John Street,Oudtshoorn,Western Cape,044 2724676,,,
1059297,DR JG LE ROUX INC,No,"Office 1 Longships House, 2 Longships Drive, Plettenberg Bay",Plettenberg Bay,Western Cape,044 5335032,23°22′19.05″E,34°3′49.325″S,View Map
1063715,DU TOIT,Yes,131 St Johnstr,Oudtshoorn,Western Cape,044 2724676,,,
1069799,DR JOHANN BAARD INC,No,"Ca Cape Doctors, Ground Floor ,north Wing, Belmont Square , Belmont Road",Cape Town,Western Cape,063 4488991,,,
1078283,LALJITH-KISTEN,No,"6 Circle Road, Sunridge",Cape Town,Western Cape,069 5954441,18°30′56.129″E,33°49′45.176″S,View Map
1079646,JEFTHAS,No,"25 Plein Street, Vredenberg",Cape Town,Western Cape,022 1001270,17°59′41.3″E,32°54′27.69″S,View Map
1092413,PRETORIUS,No,"20 Dirkie Uys Street, Bredasdorp",Bredasdorp,Western Cape,028 4241161,20°2′26.072″E,34°32′1.429″S,View Map
1098608,HANGONE,Yes,202 Old Cape Road,Grabouw,Western Cape,021 8593927,,,
1403249,PATEL,Yes,"Shop 6 Tembani Shopping Centre, Capital Place, Tembani",Cape Town,Western Cape,021 3871166,18°38′13.996″E,34°0′48.14″S,View Map
1404245,DU TOIT,No,72 York Street,George,Western Cape,044 8740029,22°27′15.113″E,33°57′45.375″S,View Map
1405020,WAYNIK,No,"1 Green Point Mews, 99 Main Road, Green Point",Cape Town,Western Cape,021 4395852,18°24′36.275″E,33°54′29.142″S,View Map
1405616,COETZE,Yes,"28 Main Road, Hermanus",Hermanus,Western Cape,028 3121170,19°14′6.904″E,34°25′10.109″S,View Map
1408682,VAN DER WATT,Yes,Cnr Robertson And Zietsman Road,Mossel Bay,Western Cape,044 6913906,,,
1408755,LOCHNER,Yes,"11 Maeder Street, Victoria West",Northern Cape,Western Cape,053 6210331,23°7′14.002″E,31°24′10.846″S,View Map
1409743,PATEL,Yes,"Gatemed Centre, 106 Shaanti Crescent, Gatesville",Cape Town,Western Cape,021 7945584,18°26′48.229″E,34°1′18.691″S,View Map
1410903,DE WET,No,"Longstreet Medical Practice, Cnr Long & Unity Street, Knysna",Knysna,Western Cape,044 0503487,23°2′58.202″E,34°2′5.313″S,View Map
1420763,LOUW,No,"Shop 1 Shoprite Centre, Market Street, George",George,Western Cape,044 8747556,22°27′27.004″E,33°57′39.517″S,View Map
1421948,VAN WYK,Yes,"6 Church Street, Wellington",Wellington,Western Cape,021 8643590,19°0′18.638″E,33°38′30.261″S,View Map
469726,KHALFE,Yes,"Symphony Village, 19 Dimlang Street, Delft",Cape Town,Western Cape,021 9271001,18°37′42.594″E,33°57′54.313″S,View Map
479381,NDLUMBINI,Yes,"Shop 92a, The Junxion Mall, Philippi",Cape Town,Western Cape,021 3711344,18°36′30.644″E,34°1′11.099″S,View Map
498866,REDDY,No,"Riverside Cottage Clinic, 10 Rosendale Road, Rondebosch",Cape Town,Western Cape,021 6895141,18°28′13.939″E,33°57′46.345″S,View Map
523658,VISAGIE,No,"Shop 23 Giant Value Centre, 2 Repens Crescent, Brackenfell",Cape Town,Western Cape,021 9819426,18°41′35.749″E,33°51′14.931″S,View Map
535273,VAN DER WESTHUIZEN,No,"50 Mcintyre Street, Parow",Cape Town,Western Cape,021 9394045,18°35′15.936″E,33°54′6.732″S,View Map
542172,HARRISON,No,26 Tide Street,Knysna,Western Cape,011 4353129,28°3′20.132″E,26°16′6.25″S,View Map
550957,MATHURA,No,"105 Vryburger Avenue, Bothasig",Cape Town,Western Cape,021 5580180,18°32′40.561″E,33°51′42.57″S,View Map
573418,ADAMS,Yes,"1 Cnr Downing Street & Pallotti, Road, Montana",Cape Town,Western Cape,021 9340977,18°34′9.8″E,33°57′44.873″S,View Map
583421,VAN ZITTERS,Yes,"Shop 2 Pelican Park Shopping, Centre Strandfontein Road, Pelican Park",Cape Town,Western Cape,021 3961155,18°31′43.409″E,34°3′16.144″S,View Map
592382,FOURIE,No,"17 Cinneraria Street, Struis Bay",Struis Bay,Western Cape,028 4357130,20°3′5.198″E,34°48′8.258″S,View Map
611212,IYUN-JEJE,Yes,"113 Jakkalsvlei Avenue, Bontheuwel",Cape Town,Western Cape,021 6945495,18°33′2.376″E,33°56′41.244″S,View Map
612782,DR TREDOUX HEYNS INCORPORATED,Yes,"Tredoux Centre, 2 Voortrekker Street, Vredendal",Vredendal,Western Cape,027 2135147,18°30′19.109″E,31°39′54.428″S,View Map
635308,SOLOMON,Yes,"55 2nd Avenue, Sherwood Park",Cape Town,Western Cape,021 6910046,18°33′21.956″E,33°59′45.858″S,View Map
661295,FOURIE,Yes,"6 Berg Street, Wellington",Wellington,Western Cape,021 8731047,19°1′52.682″E,33°39′42.114″S,View Map
677086,VAN DER WESTHUIZEN,Yes,82 Old Paarl Road,Klapmuts,Western Cape,079 7273042,,,
710334,ME PETERSEN INC,Yes,"Melran House, 5 Mark Street, Avondale",Cape Town,Western Cape,021 5728054,18°29′45.032″E,33°33′45.073″S,View Map
722979,CUPIDO,Yes,"25 Plein Street, Vredenburg",Vredenburg,Western Cape,022 1250078,17°59′41.28″E,32°54′27.72″S,View Map
723967,RAJPAUL,Yes,"21 Atlantic Road, Muizenberg",Cape Town,Western Cape,021 3934455,18°37′17.919″E,34°2′59.45″S,View Map
728438,VAN DER WESTHUIZEN,No,23 Flamingo Street,Sedgefield,Western Cape,011 3260115,,,
742244,DRS ALLIE AND DAVIS INC,Yes,"337 Fountain Road, Matroosfontein",Cape Town,Western Cape,021 9326633,18°34′41.547″E,33°56′22.59″S,View Map
743283,DR M P LAMPRECHT INC,No,"19a White Street, Robertson",Robertson,Western Cape,023 6262270,19°53′0.819″E,33°48′9.303″S,View Map
759945,DOMINGO,Yes,"Shop G057 Table Bay Mall, C/o R27 And Berkshire Street",Sunningdale,Western Cape,021 4760702,18°29′42.72″E,33°48′5.04″S,View Map
774340,SABAN,Yes,"13 Simonsig Street, Westridge",Mitchell'S Plain,Western Cape,021 3925030,,,
779296,CAWOOD,No,"16 Sleigh Street, Langebaan",Langebaan,Western Cape,022 7721863,18°2′7.872″E,33°5′6.648″S,View Map
782815,DAWOOD,Yes,"Suite G21 Ground Floor, Claremont Medical & Dental Main, Claremont",Cape Town,Western Cape,021 6831237,18°27′54.69″E,33°58′46.647″S,View Map
797820,OLIVIER,No,"Dana Bay Medical Centre, 4 Malva Road, Mossel Bay",Mossel Bay,Western Cape,044 6981861,22°3′1.158″E,34°11′32.879″S,View Map
182796,BELL,Yes,"6 Central Circle, Fish Hoek",Cape Town,Western Cape,021 7826010,18°25′41.463″E,34°8′9.15″S,View Map
1482211,HEYWOOD,No,"55 The Village Artisan, Cabriere Street, Franschhoek",Franschhoek,Western Cape,021 8762474,19°6′44.639″E,33°54′21.7″S,View Map
1484141,NAROTAM,Yes,"230 Leipoldt Avenue, Parker's Dam",Worcester,Western Cape,023 3474015,19°26′43.473″E,33°39′12.234″S,View Map
1485954,JOHNSON,Yes,"108 Gordon's Bay Drive, Strand",Cape Town,Western Cape,021 8538846,18°50′11.805″E,34°7′22.441″S,View Map
1487744,CHAVDA,Yes,"D & M Centre, Andrews Road, Newfields",Cape Town,Western Cape,021 6914190,18°32′13.92″E,33°59′13.704″S,View Map
1488805,ASHTIKER,Yes,"Cnr Norwood & 22nd Avenue, Elsies River",Cape Town,Western Cape,021 9316236,18°34′36.439″E,33°55′26.379″S,View Map
1489240,PAPIER,No,"91 10th Avenue, Kensington",Cape Town,Western Cape,021 5937662,18°30′38.098″E,33°54′50.691″S,View Map
1490745,VASSEN,Yes,"67 Wein Road, Silversands",Cape Town,Western Cape,021 9091115,18°40′35.861″E,33°58′44.26″S,View Map
1493981,OLIVIER,Yes,"63 Cnr Gordon's Bay Drive &, Gordon Street, Strand",Cape Town,Western Cape,021 8533355,18°50′6.89″E,34°7′15.595″S,View Map
1494511,SETSUBI,Yes,"Setsmed, 371 Steve Biko Street, Guguletu",Cape Town,Western Cape,021 6377384,18°33′57.118″E,33°58′48.617″S,View Map
1494562,PARKER,Yes,"Simunye Primary Health Care, Centre Cnr First & Fourth Avenue, Eastridge",Cape Town,Western Cape,021 3912661,18°37′25.164″E,34°3′2.335″S,View Map
1494988,BAILLY,No,"85 Arum Road, Table View",Cape Town,Western Cape,021 5576036,18°29′27.666″E,33°49′25.853″S,View Map
1496069,KRIEK,No,"Room 2085 Mediclinic Louis, Leipoldt 7 Broadway Street, Bellville",Cape Town,Western Cape,021 9481872,18°36′47.19″E,33°54′3.552″S,View Map
1496468,COETZE,Yes,"Cnr Forest Drive & Oasis Road, Eerste River",Cape Town,Western Cape,021 9041666,18°42′48.084″E,34°0′22.598″S,View Map
1497960,DRS JORDAAN DU TOIT GENIS EN VEN,Yes,"131 St John Street, Oudtshoorn",Oudtshoorn,Western Cape,044 2724676,22°12′7.682″E,33°35′25.36″S,View Map
1498975,APPIES,Yes,"25 Plein Street, Vredenburg",Vredenburg,Western Cape,022 1001270,17°59′41.265″E,32°54′27.901″S,View Map
1499742,JASSIEM,Yes,"541 Military Road, Steenberg",Cape Town,Western Cape,021 7015873,18°28′38.576″E,34°4′30.145″S,View Map
1499858,EBRAHIM,Yes,"Shop 3 Bishop Lavis Shopping, Centre Lavis Drive, Bishop Lavis",Cape Town,Western Cape,021 9340596,18°35′7.328″E,33°56′57.358″S,View Map
1500848,ABBAS,Yes,"Grassy Park Medical Centre, Cnr Reddy Avenue & Victoria Road, Grassy Park",Cape Town,Western Cape,021 7053995,18°29′46.631″E,34°2′53.227″S,View Map
1501577,OMAR,Yes,"23 Chestnut Way, Belhar",Cape Town,Western Cape,021 9522190,18°36′53.63″E,33°56′54.524″S,View Map
1502433,MAARSINGH,Yes,"26 Tide Street, Knysna",Knysna,Western Cape,044 3821492,23°3′11.372″E,34°2′21.683″S,View Map
1502441,SCHOONBEE,No,"9 Trinity Street, Caledon",Caledon,Western Cape,028 2121180,19°25′39.806″E,34°13′50.503″S,View Map
1503936,MCDONALD,Yes,"1 Maasdorp Street, Amstelhof",Paarl,Western Cape,021 8621240,18°59′47.538″E,33°44′1.793″S,View Map
1506579,SATTAR,No,"Touchstone House, 7 Bree Street, Cape Town",Cape Town,Western Cape,021 4187900,18°25′19.795″E,33°55′3.993″S,View Map
1506587,STANDER,No,"23 Flamingo Avenue, Sedgefield",Sedgefield,Western Cape,044 3431943,22°48′4.259″E,34°0′55.536″S,View Map
1506684,MELMED,No,"Hawkesbury Surgery, Staines Road, Plumstead",Cape Town,Western Cape,021 7611886,18°27′59.433″E,34°1′22.256″S,View Map
1508776,JIVANJEE,Yes,"4 Grey Street, Parker's Dam",Worcester,Western Cape,023 3471856,19°26′44.249″E,33°38′56.216″S,View Map
1509489,STOCKTON,Yes,"37 Barry Road, Hout Bay",Cape Town,Western Cape,087 7021528,18°21′33.46″E,34°1′56.365″S,View Map
1509535,DU PREEZ,Yes,"17 Main Road, Riviersonderend",Riviersonderend,Western Cape,028 2611356,19°54′52.347″E,34°9′0.695″S,View Map
1422731,SWART,Yes,"6 Seaton Place, 30f Church Street, Hopefield",Hopefield,Western Cape,022 7230509,18°20′52.257″E,33°3′50.058″S,View Map
1427210,LOGHDEY,Yes,"530 Lansdowne Road, Lansdowne",Cape Town,Western Cape,021 7617966,18°30′22.867″E,33°59′33.468″S,View Map
1427369,VAN DER MERWE,Yes,5 Church Street,Riebeek Kasteel,Western Cape,021 9051494,18°41′41.64″E,33°58′35.76″S,View Map
1429779,VERMEULEN,Yes,"5 Cnr Protea Avenue & Hibiskus, Street, Velddrif",Velddrif,Western Cape,022 7830027,18°9′56.782″E,32°47′0″S,View Map
1433156,KHAN,Yes,"Alpine Park Cnr Alpine Street &, Morgenster Road, Beacon Valley",Cape Town,Western Cape,021 3762964,18°37′32.253″E,34°2′2.939″S,View Map
1436376,VAN ZYL,Yes,"32 Lang Street, De Kuilen",Cape Town,Western Cape,021 9036519,18°40′46.941″E,33°55′43.432″S,View Map
1436384,WASCHNIG,Yes,"2 School Street, Heather Park",Khayelitsha,Western Cape,021 9045972,18°42′58.907″E,34°0′17.981″S,View Map
1436805,PARKER,Yes,"Shop 46b Level 2 Golden Acre, Shopping Centre Adderley Street, Foreshore",Cape Town,Western Cape,021 4187224,18°25′25.505″E,33°55′22.877″S,View Map
1437178,LOUW,No,"Shop 126 Lower Level Entrance 6, Tyger Valley Centre",Bellville,Western Cape,021 9141684,18°38′2.379″E,33°52′25.149″S,View Map
1437208,SOLANKI,Yes,"Shop No 29 Paarl East Shopping, Centre Cnr Van Der Stel & Broad, Way Street",Paarl East,Western Cape,021 8625674,18°59′35.627″E,33°43′28.663″S,View Map
1440314,DE VILLIERS,No,"1 Meyer Street, Bergsig",George,Western Cape,044 8732985,22°28′8.043″E,33°57′23.261″S,View Map
1443046,BARNARD,No,"27 Barnard Street, Gansbaai",Gans Bay,Western Cape,028 3840411,19°21′12.789″E,34°34′54.867″S,View Map
1443887,FOURIE,No,"113 Market Street, Prince Albert",Prince Albert,Western Cape,023 5411090,22°1′38.253″E,33°13′4.647″S,View Map
1443917,STOLTZ,Yes,"66 Suikerbos Street, Bellair Est",Cape Town,Western Cape,021 9190055,18°39′21.603″E,33°52′58.188″S,View Map
1445146,KATHAN,Yes,"96 Klip Road, Grassy Park",Cape Town,Western Cape,021 7058966,18°29′49.892″E,34°2′21.88″S,View Map
1445286,SMITH,Yes,"23 Baron Van Reede Street, Oudtshoorn",Oudtshoorn,Western Cape,044 2723074,22°12′10.917″E,33°35′23.628″S,View Map
1446835,BOYD,Yes,"1st House, 73 First Road, Grassy Park",Cape Town,Western Cape,021 7063744,18°30′5.148″E,34°2′42.288″S,View Map
1450093,WENTLEY,Yes,"21 Rustenburg Road, Idasvallei",Stellenbosch,Western Cape,021 8879320,18°52′43.843″E,33°55′23.876″S,View Map
1453912,LIDDLE,No,"10 Stanley Street, Perm Gardens",Cape Town,Western Cape,021 9041280,18°43′15.937″E,33°59′53.531″S,View Map
1459104,SMIT,Yes,"60 Hoof Street, Piketberg",Piketberg,Western Cape,022 9131172,18°45′34.717″E,32°54′24.778″S,View Map
1460544,BASSIER,Yes,"Suite 22 Airport Shopping, Centre Belhar Drive, Belhar",Cape Town,Western Cape,021 9525292,18°38′47.498″E,33°57′9.783″S,View Map
1461680,RABINOWITZ,Yes,"44 West Street, Parow East",Cape Town,Western Cape,021 9395146,18°36′5.529″E,33°54′23.271″S,View Map
1463187,HANGONE,Yes,"202 Old Cape Road, Grabouw",Grabouw,Western Cape,021 8593927,18°22′12.067″E,34°2′26.773″S,View Map
1463349,MELLETT,Yes,"1 Brackenfell Medical Centre, Old Paarl Way & Brackenfell, Boulevard",Brackenfell,Western Cape,021 9812118,18°41′0.775″E,33°52′51.788″S,View Map
1463519,RAPITI,Yes,"17 Cinderella Crescent, Eastridge",Cape Town,Western Cape,021 3976029,18°37′42.388″E,34°2′49.017″S,View Map
1465414,PAKADE,Yes,"138a Ny 3a, Guguletu",Cape Town,Western Cape,021 6337530,18°34′18.355″E,33°59′18.846″S,View Map
1467395,VAN DER MERWE,Yes,"55 The Village Artisan, Cabriere Street, Franschhoek",Franschhoek,Western Cape, ,19°6′56.018″E,33°54′30.427″S,View Map
1468316,CADER,Yes,"45 Kasselsvlei Road, Bellville South",Cape Town,Western Cape,021 9515256,18°38′14.118″E,33°54′50.917″S,View Map
1468863,ASHTIKER,Yes,"Ashmed Medical Centre, 21 Church Street, Athlone",Cape Town,Western Cape,021 6966849,18°30′17.755″E,33°57′47.833″S,View Map
1468987,MULLAJEE,Yes,"Osman Centre, Cnr Lavender & Protea Street, Lentegeur",Cape Town,Western Cape,021 3718186,18°36′11.259″E,34°2′11.55″S,View Map
1469061,CHOTHIA,Yes,"50 Old Strandfontein Road, Wetton",Cape Town,Western Cape,021 7037331,18°31′0″E,34°0′27.598″S,View Map
1472402,SETZER,Yes,"6 Epping Street, Rugby",Cape Town,Western Cape,021 5101441,18°29′29.402″E,33°53′38.57″S,View Map
1473204,DHANSAY,Yes,"99 5th Avenue, Grassy Park",Cape Town,Western Cape,021 7062829,18°29′50.424″E,34°2′53.484″S,View Map
1473816,NOOR,Yes,"Cnr 4th Avenue & Buck Road, Lotus River",Cape Town,Western Cape,021 7035306,18°31′11.558″E,34°2′19.492″S,View Map
1475428,SALKINDER,Yes,"Millenium Centre, 580 Frans Conradie Drive, Brackenfell",Cape Town,Western Cape,021 9821152,18°40′43.714″E,33°52′42.272″S,View Map
1475673,BAWOODIEN,Yes,"21 26th Avenue, Norwood Est",Elsies Rivier,Western Cape,021 9329116,18°34′33.686″E,33°55′44.49″S,View Map
1556762,MOSTERT,No,"5 Victoria Way, Caledon",Caledon,Western Cape,028 2121096,19°25′36.467″E,34°13′52.477″S,View Map
1558943,RABIE,No,"9 Athens Street, Uitzicht",Cape Town,Western Cape,021 9750449,18°41′38.949″E,33°49′2.265″S,View Map
1560530,MAJIET,Yes,"280 Ottery Road, Ottery",Cape Town,Western Cape,021 7039151,18°30′9.073″E,34°0′50.344″S,View Map
1560727,ISMAIL,No,"Unit 131 Quays Commercial, Park Lane, Century City",Cape Town,Western Cape,021 5528080,18°30′43.253″E,33°53′11.651″S,View Map
1562622,GOUS,Yes,"8 George Street, Blanco",George,Western Cape,044 8708605,22°24′50.726″E,33°56′40.556″S,View Map
1562991,JAKOET,Yes,"74 Rose Street, Schotsche Kloof",Cape Town,Western Cape,021 1005146,18°24′54.915″E,33°55′15.286″S,View Map
1563130,"BURGER P, VAN ZYL P S & VAN ZYL",Yes,"91 Voortrekker Street, Citrusdal",Citrusdal,Western Cape,022 9212725,19°0′42.87″E,32°35′17.813″S,View Map
1564358,KAGEE,Yes,"Shop 8 Vredenhof Building Town, Harmony Sqaure, Town Centre",Mitchells Plain,Western Cape,021 3922839,18°37′16.186″E,34°2′58.161″S,View Map
1573888,LE ROUX,Yes,"7 Charles Street, Groot Brakrivier",Groot Brakrivier,Western Cape,044 6202105,22°13′22.752″E,34°2′24.042″S,View Map
1575597,BRUWER,Yes,"73 Voortrekker Street, Piketberg",Piketberg,Western Cape,022 9131146,18°45′17.758″E,32°54′26.548″S,View Map
1578243,VAN DER WESTHUIZEN,No,"10 Barron Court, Coronation Road, Walmer Est",Cape Town,Western Cape,021 4475329,18°26′45.805″E,33°56′5.27″S,View Map
1578618,MOWZER,Yes,"144 Halt Road, Elsies River",Cape Town,Western Cape,021 9326811,18°33′57.555″E,33°55′14.794″S,View Map
1578820,DAYARAM,Yes,"82 De Wet Road, Ottery",Cape Town,Western Cape,021 7042649,18°30′36.036″E,34°1′24.456″S,View Map
1579010,LE BRETON,Yes,"Somerset Heights, 2 Apollo Street, Kleinvlei",Cape Town,Western Cape,021 9043173,18°42′21.517″E,33°59′39.34″S,View Map
1580167,VASSEN,Yes,"4 Shaftesbury Road, Ottery",Cape Town,Western Cape,021 7042316,18°30′58.215″E,34°0′32.455″S,View Map
1580388,STULTING,No,"195 Koeberg Road, Brooklyn",Cape Town,Western Cape,021 5111300,18°29′6.211″E,33°54′29.264″S,View Map
1580507,MORRISON,Yes,"60 Hoof Street, Piketberg",Piketberg,Western Cape,022 9131172,18°45′34.717″E,32°54′24.778″S,View Map
1580515,SCHEEPERS,Yes,"73 Voortrekker Street, Piketberg",Piketberg,Western Cape,022 9131146,18°45′17.719″E,32°54′26.808″S,View Map
1581163,FIRFIREY,Yes,"Shop 2 Surrey Centre, 3 College Road, Greenhaven",Cape Town,Western Cape,021 6380029,18°32′25.779″E,33°58′38.017″S,View Map
1584200,DUMA,Yes,"Khayelitsha Town 2, Aa114 Bekelentloko Street, Khayelitsha",Cape Town,Western Cape,021 3610179,18°40′55.182″E,34°2′34.857″S,View Map
1584618,WILLIAMSON,No,"Hawkesbury Surgery, Staines Road, Plumstead",Cape Town,Western Cape,021 7611886,18°27′59.45″E,34°1′22.202″S,View Map
1584790,GEORGE,Yes,"Shop 7 Riverpark Shopping Centre, Cnr Nooiensfontein And Carinus S",Kuils River,Western Cape,021 9064669,18°40′35.76″E,33°55′37.56″S,View Map
1585649,BARNARD,Yes,"162 Gordon's Bay Drive, Strand",Cape Town,Western Cape,021 8459213,18°50′51.034″E,34°8′7.846″S,View Map
1586009,REDDY,Yes,"6 Musica Avenue, Macassar",Cape Town,Western Cape,021 8572520,18°46′27.037″E,34°3′43.873″S,View Map
1586084,BLUMENTHAL,No,"Riverside Cottage Clinic, 10 Rosendale Road, Rondebosch",Cape Town,Western Cape,021 6895141,18°28′13.862″E,33°57′46.569″S,View Map
1514970,CHAIT,Yes,"112 Belvedere Road, Claremont",Cape Town,Western Cape,021 6713277,18°28′53.926″E,33°58′52.721″S,View Map
1515063,SULEMAN,Yes,"171 Blossom Street, Bridgetown",Cape Town,Western Cape,021 6371501,18°31′58.449″E,33°57′27.384″S,View Map
1517279,TRUTER,Yes,"64a Church Street, Worcester",Worcester,Western Cape,023 3471031,19°26′44.139″E,33°38′29.09″S,View Map
1519395,GANI,Yes,"Cnr Hyde & Myrtle Road, Parkwood Est",Cape Town,Western Cape,021 7065740,18°29′33.036″E,34°1′39.913″S,View Map
1519492,LUCAS,Yes,"66 Kerria Avenue, Protea Park",Cape Town,Western Cape,021 5727100,18°29′53.962″E,33°34′38.463″S,View Map
1519654,VAN ZYL,No,"3 Gewelsentrum, Markstraat",Malmesbury,Western Cape,022 4824589,18°43′44.04″E,33°27′34.2″S,View Map
1523465,DR PAUW AND PARTNERS,No,"24 Van Riebeeck Street, Ladismith",Ladismith,Western Cape,028 5511062,21°15′52.744″E,33°29′36.609″S,View Map
1523775,MARAIS,Yes,"6 Vineyard Avenue, Austinville",Cape Town,Western Cape,021 9051494,18°41′41.059″E,33°58′36.185″S,View Map
1523813,ARNOLD,Yes,"259 Victoria Road, Salt River",Cape Town,Western Cape,021 4476344,18°27′23.371″E,33°55′54.309″S,View Map
1524240,VIVIERS,Yes,"Campus Health Services, 7 Claassen Street, Stellenbosch",Stellenbosch,Western Cape,021 8083496,18°52′9.968″E,33°56′7.804″S,View Map
1525689,LOGDAY,Yes,"65 Murton Road, Rylands Est",Cape Town,Western Cape,021 6378831,18°31′39.752″E,33°58′20.737″S,View Map
1525832,BRUNDYN,No,"36 Rathgar Street, Oakdale Est",Cape Town,Western Cape,021 9453615,18°38′15.121″E,33°53′27.327″S,View Map
1527460,GOVAN,Yes,"Shop 1 Nonkqubela Station Site, B 96 Sulani Drive, Khayelitsha",Cape Town,Western Cape,021 3611171,,,
1529137,VAN HEERDEN,Yes,"Shop 19b Cavalier Retail Centre, Hindle Road, Blue Downs",Cape Town,Western Cape,021 9095167,18°41′16.48″E,33°59′9.337″S,View Map
1529730,CONRADIE,Yes,"6 Berg Street, Wellington",Wellington,Western Cape,021 8731047,19°1′52.682″E,33°39′42.114″S,View Map
1530062,KOTZE,Yes,"38 Jeanette Street, Arauna",Cape Town,Western Cape,021 9815546,18°41′0″E,33°52′33.541″S,View Map
1531301,COETZEE,Yes,"Room 111 1st Floor Melomed, Mitchells Plain Symphony Walk, Mitchells Plain",Cape Town,Western Cape,021 3926142,18°37′16.545″E,34°2′58.28″S,View Map
1535102,PILLAY,Yes,"Shop 82a Gugulethu Mall, Steve Biko Street, Guguletu",Cape Town,Western Cape,021 6372269,18°33′54.83″E,33°59′7.335″S,View Map
1535137,HAYES,Yes,"Room 4 Lambert's Bay Medical, Centre Main Road, Lambert's Bay",Lambert'S Bay,Western Cape,027 4321136,18°18′21.489″E,32°5′38.778″S,View Map
1537113,LOGHDEY,Yes,"5 Sir Alfred Road, Lansdowne",Landsdowne,Western Cape,021 6965940,18°30′22.867″E,33°59′33.468″S,View Map
1538578,BANDERKER,Yes,"Belmed Centre, 16 Central Avenue, Belthorne Est",Cape Town,Western Cape,021 6970421,18°30′55.962″E,33°59′4.671″S,View Map
1538934,VAN JAARSVELD,No,"5 Hugenote Street, Malmesbury",Malmesbury,Western Cape,066 0425660,18°43′47.243″E,33°27′40.735″S,View Map
1542281,MEIRING,Yes,"1 Kerk Street, Klawer",Klawer,Western Cape,027 2161513,18°37′24.189″E,31°46′44.102″S,View Map
1543377,WEGNER,No,"3 Susan Way, Tokai",Cape Town,Western Cape,021 7129368,18°26′46.643″E,34°3′51.949″S,View Map
1544705,ESTERHUYSE,No,"28 Van Zyl Street, Bonnievale",Bonnievale,Western Cape,023 6163315,20°6′11.76″E,33°56′18.851″S,View Map
1544713,KATHAN,Yes,"2 Silverhurst Close, Westridge",Cape Town,Western Cape,021 3923555,18°36′1.688″E,34°3′12.16″S,View Map
1545191,DE VILLIERS,Yes,"Consulting Rooms, 223 George Road, Wilderness",Wilderness,Western Cape,044 2850155,22°34′37.08″E,33°59′39.067″S,View Map
1547046,THERON,No,"7b Petrusa Street, Bellville",Cape Town,Western Cape,021 9481308,18°38′34.734″E,33°54′4.724″S,View Map
1548182,ABRAHAMS,Yes,"148 Victoria Road, Woodstock",Cape Town,Western Cape,021 4481757,18°26′52.922″E,33°55′45.351″S,View Map
1548794,RAWAT,Yes,"Shop 2 Abeesham Centre, Mitchell Avenue, Woodlands",Cape Town,Western Cape,021 3745012,18°35′49.385″E,34°2′5.913″S,View Map
1549995,BLAKE,No,"31 Bird Street, Stellenbosch",Stellenbosch,Western Cape,021 8878485,18°51′32.249″E,33°56′5.852″S,View Map
1550578,PEER,Yes,"7 Pomergranate Street, Eastridge",Cape Town,Western Cape,021 3973020,18°37′29.565″E,34°2′58.051″S,View Map
1551876,KOTZE,Yes,"Dutch Reformed Church Rectory, Saldanha Street, Ruyterwacht",Cape Town,Western Cape,021 5346041,18°33′16.376″E,33°55′7.558″S,View Map
1552406,BRITZ,No,"Vrijzee, 117 De Wet Street, Goodwood",Western Cape,Western Cape,021 5913216,18°33′55.908″E,33°54′0.612″S,View Map
1555219,GELDENHUYS,No,"18 Matzikama Street, Vredendal",Vredendal,Western Cape,027 2131053,18°30′24.742″E,31°39′44.694″S,View Map
1479326,BERNARD,Yes,"Odeon Centre, 138 Lady Grey Street, Paarl",Paarl,Western Cape,021 8724000,18°58′19.947″E,33°43′49.773″S,View Map
1479792,CADER,Yes,"304 5th Avenue, Lotus River",Cape Town,Western Cape,021 7064050,18°30′54.626″E,34°2′27.748″S,View Map
1480170,AKOOJEE E AND AKOOJEE M J,No,"1 Cnr Klipfontein & Libra Road, Surrey Est",Cape Town,Western Cape,021 6379193,18°32′59.454″E,33°58′13.272″S,View Map
1481363,VOSLOO,Yes,"83 Kipling Street, Zoo Park",Cape Town,Western Cape,021 9874282,18°42′15.802″E,33°50′25.989″S,View Map
26026,QWABE,Yes,"Manguzi Village, 1 Main Road, Kwangwanase",Jozini,,035 5920285,32°45′27.572″E,27°0′0.855″S,View Map
1584375,PRETORIUS,No,,,,013 7123111,,,
141534,MNGOMEZULU,Yes,"Bazaneni Area, P451, Hlabisa",Hlabisa,,082 7453647,31°52′42.779″E,28°8′35.17″S,View Map
182133,SMIT J L & PARTNERS INCORPORATED,Yes,"Pretoria Road, Kroondal",Rustenburg,,014 5363916,27°18′29.543″E,25°43′29.232″S,View Map
208051,NGXONGO,Yes,"Suite 3 Makhathini Shopping, Complex Main Road, Jozini",Jozini,,035 5721002,32°3′46.725″E,27°28′10.423″S,View Map
280550,BULANE,Yes,"Lithabaneng Ha Mots'oeneng, Opp Engen Garage, Main South 1 Road",Maseru,, ,,,
283533,KHUMALO,Yes,"Mbonani Centre, 7089 Rampela Street, Rest-in-peace",Potchefstroom,,011 7369753,28°24′10.472″E,26°18′43.843″S,View Map
346705,ANSARI,Yes,"Shop No 23 Alexandra Plaza, Cnr 3rd & 1st Avenue, Alexandra",Wynberg,,011 440 1716,,,
443883,VEZI,Yes,"18 Tatham Road, Bergville",Bergville,,036 9400070,29°21′0″E,28°43′39.792″S,View Map
499099,BALOYI,Yes,"Shop 5 Sun Village Shopping, Centre Complex, Sun City",Sun City,,014 5521110,27°5′57.883″E,25°21′38.916″S,View Map
509787,MANNING,Yes,"18 Voortrekker Road, Riebeek West",Riebeeck West,,022 4612517,18°52′7.544″E,33°20′56.394″S,View Map
567566,ADEOTI,Yes,"Shop D29 Mamelodi Gateway, Centre Tsamaya Avenue, Denneboom",Pretoria,,081 7481521,28°20′12.278″E,25°43′7.31″S,View Map
664405,ZIETSMAN,Yes,"441 Peak Road, Pringle Bay",7196,,028 2738069,18°49′54.577″E,34°21′2.832″S,View Map
709859,DR BESTER AND PARTNERS,Yes,"12 Sandy Point Crescent, St Helena Bay",St Helena Bay,,022 7361448,18°0′27.55″E,32°44′47.77″S,View Map
909467,KLEYNHANS,Yes,,,,044 8736177,,,
1028219,VAN DER WESTHUIZEN,No,,,,022 1250078,,,
1412760,CLOETE,Yes,"Plot 86 Waterval, Pyramid",City Of Tshwane Rural,,012 5454008,28°13′48.008″E,25°35′4.095″S,View Map
1443321,ABBA,Yes,"Old Sun City Road, Boshoek",Rustenburg,,014 5733032,27°5′41.164″E,25°30′9.751″S,View Map
1453181,ANNANDALE,Yes,"9 Hoof Street, Dwarskersbos",Velddrif,,022 7830040,18°14′39.319″E,32°41′6.212″S,View Map
1478621,MLISANA,Yes,"49 Main Road, Umzimkhulu",Ingwe Rural,,039 2590249,29°56′17.723″E,30°15′51.971″S,View Map
1523929,LEKHULENI,Yes,"Swalala Village, Swalala",Mbombela Rural,,013 7884244,31°7′19.489″E,25°10′54.529″S,View Map
1530100,GANIE,Yes,"339 Randles Road, Sydenham",Durban,,031 9426007,,,
1576151,WALTERS,No,"55 Buitekant Street, Yzerfontein",Yzerfontein,,022 4512941,18°9′28.179″E,33°20′49.383″S,View Map
1577913,PILLAY,Yes,"Shop 5 - 7, 32 Tanner Road, Empangeni Station",Empangeni,,035 7870602,31°54′19.97″E,28°46′3.437″S,View Map
70556,MOLEFE,Yes,"Unit D Stand 692, 1513 Boikarabelo Street, Kudube",Hammanskraal,,012 7172000,28°15′1.557″E,25°22′46.479″S,View Map
,,,,,,,,,
Last updated: 09 January 2024,,,,,,,,,
Please note that information is subject to change as practices are added or deleted.,,,,,,,,,
